{
"type": "FeatureCollection",
"name": "airport_board_game_markers",
"crs": { "type": "name", "properties": { "name": "urn:ogc:def:crs:OGC:1.3:CRS84" } },
"features": [
{ "type": "Feature", "properties": { "scalerank": 9, "featurecla": "Airport", "type": "mid", "name": "Novosibirsk Tolmachev", "abbrev": "OVB", "location": "terminal", "gps_code": "UNNT", "iata_code": "OVB", "wikipedia": "http:\/\/en.wikipedia.org\/wiki\/Tolmachevo_Airport", "natlscale": 8.0, "comments": null, "wikidataid": "Q1328849", "name_ar": "مطار نوفوسيبيرسك", "name_bn": null, "name_de": "Flughafen Nowosibirsk-Tolmatschowo", "name_en": "Tolmachevo Airport", "name_es": "Aeropuerto Internacional de Novosibirsk-Tolmachevo", "name_fr": "aéroport de Novossibirsk-Tolmachevo", "name_el": null, "name_hi": null, "name_hu": null, "name_id": "Bandar Udara Tolmachevo Novosibirsk", "name_it": "Aeroporto di Novosibirsk-Tolmačëvo", "name_ja": "トルマチョーヴォ空港", "name_ko": "톨마초보 국제공항", "name_nl": "Luchthaven Tolmatsjovo", "name_pl": "Port lotniczy Nowosybirsk-Tołmaczowo", "name_pt": "Aeroporto Internacional Tolmachevo", "name_ru": "Толмачёво", "name_sv": "Tolmatjovo flygplats", "name_tr": null, "name_vi": "Sân bay Tolmachevo", "name_zh": "托尔马切沃机场", "wdid_score": 4, "ne_id": 1159114013, "id": "OVB", "className": "OVB" }, "geometry": { "type": "Point", "coordinates": [ 82.7, 55.0 ] } },
{ "type": "Feature", "properties": { "scalerank": 8, "featurecla": "Airport", "type": "mid", "name": "Rotterdam The Hague", "abbrev": "RTM", "location": "terminal", "gps_code": "EHRD", "iata_code": "RTM", "wikipedia": "http:\/\/en.wikipedia.org\/wiki\/Rotterdam_The_Hague_Airport", "natlscale": 10.0, "comments": null, "wikidataid": "Q656807", "name_ar": "مطار روتردام لاهاي", "name_bn": null, "name_de": "Flughafen Rotterdam", "name_en": "Rotterdam The Hague Airport", "name_es": "Aeropuerto de Róterdam", "name_fr": "aéroport de Rotterdam La Haye", "name_el": null, "name_hi": null, "name_hu": null, "name_id": "Bandar Udara Rotterdam", "name_it": "Aeroporto di Rotterdam", "name_ja": "ロッテルダム空港", "name_ko": null, "name_nl": "Rotterdam The Hague Airport", "name_pl": "Port lotniczy Rotterdam", "name_pt": "Aeroporto de Roterdã-Haia", "name_ru": "Роттердам-Гаага", "name_sv": "Rotterdams flygplats", "name_tr": null, "name_vi": "Sân bay Rotterdam", "name_zh": "鹿特丹海牙机场", "wdid_score": 4, "ne_id": 1159114411, "id": "RTM", "className": "RTM" }, "geometry": { "type": "Point", "coordinates": [ 4.4, 51.9 ] } },
{ "type": "Feature", "properties": { "scalerank": 8, "featurecla": "Airport", "type": "major", "name": "Sultan Hasanuddin Int'l", "abbrev": "UPG", "location": "terminal", "gps_code": "WAAA", "iata_code": "UPG", "wikipedia": "http:\/\/en.wikipedia.org\/wiki\/Sultan_Hasanuddin_International_Airport", "natlscale": 10.0, "comments": null, "wikidataid": "Q1432006", "name_ar": null, "name_bn": null, "name_de": "Flughafen Makassar", "name_en": "Sultan Hasanuddin International Airport", "name_es": null, "name_fr": "aéroport international de Makassar", "name_el": null, "name_hi": null, "name_hu": null, "name_id": "Bandar Udara Internasional Sultan Hasanuddin", "name_it": null, "name_ja": "ハサヌディン国際空港", "name_ko": null, "name_nl": null, "name_pl": "Port lotniczy Makasar-Sultan Hasanuddin", "name_pt": null, "name_ru": null, "name_sv": "Sultan Hasanuddin International Airport", "name_tr": null, "name_vi": "Sân bay Hasanuddin", "name_zh": "望加錫國際機場", "wdid_score": 4, "ne_id": 1159114481, "id": "UPG", "className": "UPG" }, "geometry": { "type": "Point", "coordinates": [ 119.5, -5.1 ] } },
{ "type": "Feature", "properties": { "scalerank": 8, "featurecla": "Airport", "type": "major", "name": "Madinah Int'l", "abbrev": "MED", "location": "terminal", "gps_code": "OEMA", "iata_code": "MED", "wikipedia": "http:\/\/en.wikipedia.org\/wiki\/Prince_Mohammad_Bin_Abdulaziz_Airport", "natlscale": 10.0, "comments": null, "wikidataid": "Q1205940", "name_ar": "مطار الأمير محمد بن عبد العزيز الدولي", "name_bn": null, "name_de": "Flughafen Medina", "name_en": "Prince Mohammad Bin Abdulaziz Airport", "name_es": "Aeropuerto Príncipe Mohammad Bin Abdulaziz", "name_fr": "aéroport international Prince Mohammad Bin Abdulaziz", "name_el": null, "name_hi": null, "name_hu": null, "name_id": "Bandar Udara Internasional Prince Mohammad bin Abdul Aziz", "name_it": "Aeroporto Internazionale di Medina-Principe Muhammad bin Abd al-Aziz", "name_ja": "プリンス・モハンマド・ビン・アブドゥルアズィーズ国際空港", "name_ko": "프린스 모하메드 빈 압둘아지즈 국제공항", "name_nl": "Prince Mohammad Bin Abdulaziz Airport", "name_pl": "Port lotniczy Medyna", "name_pt": "Aeroporto Internacional Príncipe Mohammad Bin Abdulaziz", "name_ru": null, "name_sv": null, "name_tr": null, "name_vi": null, "name_zh": "穆罕默德·本·阿卜杜勒-阿齐兹亲王国际机场", "wdid_score": 4, "ne_id": 1159114549, "id": "MED", "className": "MED" }, "geometry": { "type": "Point", "coordinates": [ 39.7, 24.5 ] } },
{ "type": "Feature", "properties": { "scalerank": 8, "featurecla": "Airport", "type": "mid", "name": "Corfu Int'l (Ioannis Kapodistrias)", "abbrev": "CFU", "location": "terminal", "gps_code": "LGKR", "iata_code": "CFU", "wikipedia": "http:\/\/en.wikipedia.org\/wiki\/Corfu_International_Airport", "natlscale": 10.0, "comments": null, "wikidataid": "Q1144233", "name_ar": null, "name_bn": null, "name_de": "Flughafen Korfu", "name_en": "Corfu International Airport", "name_es": "Aeropuerto Internacional de Corfú-Ioannis Kapodistrias", "name_fr": "aéroport de Corfou", "name_el": "Κρατικός Αερολιμένας Κέρκυρας «Ιωάννης Καποδίστριας»", "name_hi": null, "name_hu": "Korfui nemzetközi repülőtér", "name_id": "Bandar Udara Internasional Corfu", "name_it": "Aeroporto di Corfù-Giovanni Capodistria", "name_ja": "コルフ国際空港", "name_ko": "코르푸 국제공항", "name_nl": "Luchthaven Korfoe Ioannis Kapodistrias", "name_pl": "Port lotniczy Korfu", "name_pt": null, "name_ru": "Керкира", "name_sv": "Korfus flygplats", "name_tr": null, "name_vi": "Sân bay quốc tế Corfu", "name_zh": "克基拉岛扬尼斯·卡波迪斯特里亚斯国际机场", "wdid_score": 4, "ne_id": 1159115125, "id": "CFU", "className": "CFU" }, "geometry": { "type": "Point", "coordinates": [ 19.9, 39.6 ] } },
{ "type": "Feature", "properties": { "scalerank": 8, "featurecla": "Airport", "type": "major", "name": "Edinburgh Int'l", "abbrev": "EDI", "location": "terminal", "gps_code": "EGPH", "iata_code": "EDI", "wikipedia": "http:\/\/en.wikipedia.org\/wiki\/Edinburgh_Airport", "natlscale": 10.0, "comments": null, "wikidataid": "Q8716", "name_ar": null, "name_bn": "এডিনবরা বিমানবন্দর", "name_de": "Flughafen Edinburgh", "name_en": "Edinburgh Airport", "name_es": "Aeropuerto de Edimburgo", "name_fr": "aéroport d'Édimbourg", "name_el": "Αεροδρόμιο του Εδιμβούργου", "name_hi": null, "name_hu": null, "name_id": "Bandar Udara Edinburgh", "name_it": "Aeroporto di Edimburgo", "name_ja": "エディンバラ空港", "name_ko": null, "name_nl": "Edinburgh Airport", "name_pl": "Port lotniczy Edynburg", "name_pt": "Aeroporto de Edimburgo", "name_ru": "Эдинбург", "name_sv": "Edinburgh Airport", "name_tr": null, "name_vi": "Sân bay Edinburgh", "name_zh": "愛丁堡機場", "wdid_score": 4, "ne_id": 1159115559, "id": "EDI", "className": "EDI" }, "geometry": { "type": "Point", "coordinates": [ -3.4, 55.9 ] } },
{ "type": "Feature", "properties": { "scalerank": 8, "featurecla": "Airport", "type": "major", "name": "Hurghada Int'l", "abbrev": "HRG", "location": "terminal", "gps_code": "HEGN", "iata_code": "HRG", "wikipedia": "http:\/\/en.wikipedia.org\/wiki\/Hurghada_International_Airport", "natlscale": 10.0, "comments": null, "wikidataid": "Q385191", "name_ar": "مطار الغردقة الدولي", "name_bn": null, "name_de": "Flughafen Hurghada", "name_en": "Hurghada International Airport", "name_es": "Aeropuerto Internacional de Hurghada", "name_fr": "aéroport international de Hurghada", "name_el": null, "name_hi": null, "name_hu": null, "name_id": "Bandar Udara Internasional Hurghada", "name_it": "Aeroporto Internazionale di Hurghada", "name_ja": "フルガダ国際空港", "name_ko": "후르가다 국제공항", "name_nl": "Luchthaven Hurghada", "name_pl": "Port lotniczy Hurghada", "name_pt": "Aeroporto Internacional de Hurghada", "name_ru": "Хургада", "name_sv": "Hurghada flygplats", "name_tr": null, "name_vi": "Sân bay quốc tế Hurghada", "name_zh": "古尔代盖国际机场", "wdid_score": 4, "ne_id": 1159115975, "id": "HRG", "className": "HRG" }, "geometry": { "type": "Point", "coordinates": [ 33.8, 27.2 ] } },
{ "type": "Feature", "properties": { "scalerank": 8, "featurecla": "Airport", "type": "major", "name": "Chicago Midway Int'l", "abbrev": "MDW", "location": "terminal", "gps_code": "KMDW", "iata_code": "MDW", "wikipedia": "http:\/\/en.wikipedia.org\/wiki\/Chicago_Midway_International_Airport", "natlscale": 10.0, "comments": null, "wikidataid": "Q1061437", "name_ar": null, "name_bn": null, "name_de": "Chicago Midway Airport", "name_en": "Chicago Midway International Airport", "name_es": "Aeropuerto Internacional Midway", "name_fr": "aéroport international Midway de Chicago", "name_el": "Διεθνές Αεροδρόμιο Μίντγουέι", "name_hi": null, "name_hu": null, "name_id": null, "name_it": "Aeroporto Internazionale di Chicago Midway", "name_ja": "シカゴ・ミッドウェー国際空港", "name_ko": "시카고 미드웨이 국제공항", "name_nl": "Chicago Midway International Airport", "name_pl": "Port lotniczy Chicago-Midway", "name_pt": "Aeroporto Internacional Midway", "name_ru": "Международный аэропорт Чикаго Мидуэй", "name_sv": "Chicago Midway International Airport", "name_tr": null, "name_vi": "Sân bay quốc tế Chicago Midway", "name_zh": "芝加哥中途国际机场", "wdid_score": 4, "ne_id": 1159116663, "id": "MDW", "className": "MDW" }, "geometry": { "type": "Point", "coordinates": [ -87.7, 41.8 ] } },
{ "type": "Feature", "properties": { "scalerank": 8, "featurecla": "Airport", "type": "major", "name": "Paphos Int'l", "abbrev": "PFO", "location": "ramp", "gps_code": "LCPH", "iata_code": "PFO", "wikipedia": "http:\/\/en.wikipedia.org\/wiki\/Paphos_International_Airport", "natlscale": 10.0, "comments": null, "wikidataid": "Q1050707", "name_ar": null, "name_bn": null, "name_de": "Flughafen Paphos", "name_en": "Paphos International Airport", "name_es": "Aeropuerto Internacional de Pafos", "name_fr": "aéroport international de Paphos", "name_el": "Διεθνές Αεροδρόμιο Πάφου", "name_hi": null, "name_hu": "Páfoszi nemzetközi repülőtér", "name_id": null, "name_it": "Aeroporto Internazionale di Pafo", "name_ja": "パフォス国際空港", "name_ko": null, "name_nl": "Luchthaven Paphos", "name_pl": "Port lotniczy Pafos", "name_pt": "Aeroporto Internacional de Pafos", "name_ru": "Пафос", "name_sv": "Paphos International Airport", "name_tr": "Baf Uluslararası Havalimanı", "name_vi": "Sân bay quốc tế Paphos", "name_zh": "帕福斯国际机场", "wdid_score": 4, "ne_id": 1159116971, "id": "PFO", "className": "PFO" }, "geometry": { "type": "Point", "coordinates": [ 32.5, 34.7 ] } },
{ "type": "Feature", "properties": { "scalerank": 8, "featurecla": "Airport", "type": "major", "name": "Taiyuan Wusu Int'l", "abbrev": "TYN", "location": "terminal", "gps_code": "ZBYN", "iata_code": "TYN", "wikipedia": "http:\/\/en.wikipedia.org\/wiki\/Taiyuan_Wusu_International_Airport", "natlscale": 10.0, "comments": null, "wikidataid": "Q2361055", "name_ar": "مطار تاييوان وسو الدولية", "name_bn": null, "name_de": null, "name_en": "Taiyuan Wusu International Airport", "name_es": "Aeropuerto Internacional Wusu", "name_fr": "aéroport international de Taiyuan Wusu", "name_el": null, "name_hi": null, "name_hu": null, "name_id": null, "name_it": null, "name_ja": "太原武宿国際空港", "name_ko": null, "name_nl": "Taiyuan Wusu International Airport", "name_pl": "Port lotniczy Taiyuan-Wusu", "name_pt": "Aeroporto de Taiyuan Wusu", "name_ru": "Тайюань", "name_sv": "Taiyuan Wusu International Airport", "name_tr": null, "name_vi": "Sân bay quốc tế Vũ Túc Thái Nguyên", "name_zh": "太原武宿国际机场", "wdid_score": 4, "ne_id": 1159117549, "id": "TYN", "className": "TYN" }, "geometry": { "type": "Point", "coordinates": [ 112.6, 37.8 ] } },
{ "type": "Feature", "properties": { "scalerank": 8, "featurecla": "Airport", "type": "major", "name": "Bordeaux", "abbrev": "BOD", "location": "terminal", "gps_code": "LFBD", "iata_code": "BOD", "wikipedia": "http:\/\/en.wikipedia.org\/wiki\/Bordeaux_-_M%C3%A9rignac_Airport", "natlscale": 10.0, "comments": null, "wikidataid": "Q612731", "name_ar": "مطار بوردو ميرينياك", "name_bn": null, "name_de": "Flughafen Bordeaux", "name_en": "Bordeaux–Mérignac Airport", "name_es": "Aeropuerto de Burdeos-Mérignac", "name_fr": "aéroport de Bordeaux-Mérignac", "name_el": null, "name_hi": null, "name_hu": null, "name_id": "Bandar Udara Bordeaux - Mérignac", "name_it": "Aeroporto di Bordeaux Mérignac", "name_ja": "ボルドー・メリニャック空港", "name_ko": null, "name_nl": "Luchthaven Bordeaux", "name_pl": "Port lotniczy Bordeaux-Mérignac", "name_pt": null, "name_ru": "Аэропорт Бордо-Мериньяк", "name_sv": null, "name_tr": null, "name_vi": "Sân bay Bordeaux - Mérignac", "name_zh": "波爾多", "wdid_score": 2, "ne_id": 1159118275, "id": "BOD", "className": "BOD" }, "geometry": { "type": "Point", "coordinates": [ -0.7, 44.8 ] } },
{ "type": "Feature", "properties": { "scalerank": 8, "featurecla": "Airport", "type": "major", "name": "Fukuoka", "abbrev": "FUK", "location": "terminal", "gps_code": "RJFF", "iata_code": "FUK", "wikipedia": "http:\/\/en.wikipedia.org\/wiki\/Fukuoka_Airport", "natlscale": 10.0, "comments": null, "wikidataid": "Q1137465", "name_ar": null, "name_bn": null, "name_de": "Flughafen Fukuoka", "name_en": "Fukuoka Airport", "name_es": "Aeropuerto de Fukuoka", "name_fr": "aéroport de Fukuoka", "name_el": null, "name_hi": null, "name_hu": null, "name_id": "Bandar Udara Fukuoka", "name_it": "Aeroporto di Fukuoka", "name_ja": "福岡空港", "name_ko": "후쿠오카 공항", "name_nl": "Fukuoka Airport", "name_pl": "Port lotniczy Fukuoka", "name_pt": "Aeroporto de Fukuoka", "name_ru": "Фукуока", "name_sv": null, "name_tr": "Fukuoka Havalimanı", "name_vi": "Sân bay Fukuoka", "name_zh": "福岡機場", "wdid_score": 4, "ne_id": 1159118371, "id": "FUK", "className": "FUK" }, "geometry": { "type": "Point", "coordinates": [ 130.4, 33.6 ] } },
{ "type": "Feature", "properties": { "scalerank": 8, "featurecla": "Airport", "type": "major", "name": "Francisco Sa Carneiro", "abbrev": "OPO", "location": "terminal", "gps_code": "LPPR", "iata_code": "OPO", "wikipedia": "http:\/\/en.wikipedia.org\/wiki\/Francisco_S%C3%A1_Carneiro_Airport", "natlscale": 10.0, "comments": null, "wikidataid": "Q943743", "name_ar": "مطار بورتو الدولي", "name_bn": null, "name_de": "Flughafen Porto", "name_en": "Francisco de Sá Carneiro Airport", "name_es": "Aeropuerto de Oporto-Francisco Sá Carneiro", "name_fr": "aéroport de Porto", "name_el": null, "name_hi": null, "name_hu": null, "name_id": "Bandar Udara Internasional Francisco Sa Carneiro", "name_it": "Aeroporto Francisco de Sá Carneiro", "name_ja": "フランシスコ・サ・カルネイロ空港", "name_ko": "프란시스쿠 드 사 카르네이루 공항", "name_nl": "Luchthaven Francisco Sá Carneiro", "name_pl": "Port lotniczy Porto", "name_pt": "Aeroporto Francisco Sá Carneiro", "name_ru": "Порту", "name_sv": "Porto flygplats", "name_tr": null, "name_vi": "Sân bay Francisco de Sá Carneiro", "name_zh": "费尔南多·萨·卡内罗机场", "wdid_score": 4, "ne_id": 1159118545, "id": "OPO", "className": "OPO" }, "geometry": { "type": "Point", "coordinates": [ -8.7, 41.2 ] } },
{ "type": "Feature", "properties": { "scalerank": 8, "featurecla": "Airport", "type": "mid", "name": "Valencia", "abbrev": "VLC", "location": "terminal", "gps_code": "LEVC", "iata_code": "VLC", "wikipedia": "http:\/\/en.wikipedia.org\/wiki\/Valencia_Airport", "natlscale": 10.0, "comments": null, "wikidataid": "Q20455825", "name_ar": "مطار فالنسيا", "name_bn": null, "name_de": "Valencia", "name_en": "Manises Airport", "name_es": "Aeropuerto de Valencia", "name_fr": "aéroport de Valence", "name_el": null, "name_hi": null, "name_hu": null, "name_id": "Bandar Udara Valencia", "name_it": "Aeroporto di Valencia", "name_ja": "バレンシア空港", "name_ko": null, "name_nl": "Luchthaven Valencia", "name_pl": "Port lotniczy Walencja", "name_pt": "Aeroporto de Valência", "name_ru": null, "name_sv": "Valencia flygplats", "name_tr": "Valencia Havalimanı", "name_vi": "Sân bay Valencia", "name_zh": "巴倫西亞", "wdid_score": 4, "ne_id": 1159118675, "id": "VLC", "className": "VLC" }, "geometry": { "type": "Point", "coordinates": [ -0.5, 39.5 ] } },
{ "type": "Feature", "properties": { "scalerank": 8, "featurecla": "Airport", "type": "mid", "name": "Sharm el-Sheikh Int'l", "abbrev": "SSH", "location": "ramp", "gps_code": "HESH", "iata_code": "SSH", "wikipedia": "http:\/\/en.wikipedia.org\/wiki\/Sharm_el-Sheikh_International_Airport", "natlscale": 10.0, "comments": null, "wikidataid": "Q326268", "name_ar": "مطار شرم الشيخ الدولي", "name_bn": null, "name_de": "Flughafen Scharm asch-Schaich", "name_en": "Sharm el-Sheikh International Airport", "name_es": "Aeropuerto Internacional de Sharm el-Sheij", "name_fr": "aéroport international de Charm el-Cheikh", "name_el": null, "name_hi": null, "name_hu": null, "name_id": "Bandar Udara Internasional Sharm el-Sheikh", "name_it": "Aeroporto Internazionale di Sharm el-Sheikh", "name_ja": "シャルム・エル・シェイク国際空港", "name_ko": "샤름엘셰이크 국제공항", "name_nl": "Luchthaven Sharm-el-Sheikh", "name_pl": "Port lotniczy Szarm el-Szejk", "name_pt": "Aeroporto Internacional de Sharm el-Sheikh", "name_ru": "Шарм-эш-Шейх", "name_sv": "Sharm el-Sheik flygplats", "name_tr": null, "name_vi": "Sân bay quốc tế Sharm el-Sheikh", "name_zh": "沙姆沙伊赫国际机场", "wdid_score": 4, "ne_id": 1159118779, "id": "SSH", "className": "SSH" }, "geometry": { "type": "Point", "coordinates": [ 34.4, 28.0 ] } },
{ "type": "Feature", "properties": { "scalerank": 7, "featurecla": "Airport", "type": "mid", "name": "Phuket Int'l", "abbrev": "HKT", "location": "terminal", "gps_code": "VTSP", "iata_code": "HKT", "wikipedia": "http:\/\/en.wikipedia.org\/wiki\/Phuket_International_Airport", "natlscale": 15.0, "comments": null, "wikidataid": "Q240694", "name_ar": null, "name_bn": null, "name_de": "Flughafen Phuket", "name_en": "Phuket International Airport", "name_es": "Aeropuerto Internacional de Phuket", "name_fr": "aéroport international de Phuket", "name_el": null, "name_hi": null, "name_hu": "Phuketi nemzetközi repülőtér", "name_id": "Bandar Udara Internasional Phuket", "name_it": "Aeroporto di Phuket", "name_ja": "プーケット国際空港", "name_ko": "푸껫 국제공항", "name_nl": "Internationale Luchthaven Phuket", "name_pl": "Port lotniczy Phuket", "name_pt": null, "name_ru": "Пхукет", "name_sv": "Phuket International Airport", "name_tr": "Phuket Uluslararası Havalimanı", "name_vi": "Sân bay quốc tế Phuket", "name_zh": "布吉國際機場", "wdid_score": 4, "ne_id": 1159119115, "id": "HKT", "className": "HKT" }, "geometry": { "type": "Point", "coordinates": [ 98.3, 8.1 ] } },
{ "type": "Feature", "properties": { "scalerank": 7, "featurecla": "Airport", "type": "major", "name": "Queen Alia Int'l", "abbrev": "AMM", "location": "terminal", "gps_code": "OJAI", "iata_code": "AMM", "wikipedia": "http:\/\/en.wikipedia.org\/wiki\/Queen_Alia_International_Airport", "natlscale": 15.0, "comments": null, "wikidataid": "Q721494", "name_ar": "مطار الملكة علياء الدولي", "name_bn": null, "name_de": "Queen Alia International Airport", "name_en": "Queen Alia International Airport", "name_es": "Aeropuerto Internacional Queen Alia", "name_fr": "aéroport international Queen Alia", "name_el": null, "name_hi": "क्वीन एलिया हवाई अड्डा", "name_hu": "Queen Alia nemzetközi repülőtér", "name_id": "Bandar Udara Internasional Queen Alia", "name_it": "Aeroporto Internazionale Queen Alia", "name_ja": "クィーンアリア国際空港", "name_ko": "퀸 알리아 국제공항", "name_nl": "Queen Alia International Airport", "name_pl": "Port lotniczy Amman", "name_pt": "Aeroporto Internacional Rainha Alia", "name_ru": "Амман", "name_sv": "Queen Alia International Airport", "name_tr": "Kraliçe Aliye Uluslararası Havalimanı", "name_vi": "Sân bay quốc tế Queen Alia", "name_zh": "阿勒娅王后国际机场", "wdid_score": 4, "ne_id": 1159119169, "id": "AMM", "className": "AMM" }, "geometry": { "type": "Point", "coordinates": [ 36.0, 31.7 ] } },
{ "type": "Feature", "properties": { "scalerank": 7, "featurecla": "Airport", "type": "mid", "name": "Kiev Zhuliany Int'l", "abbrev": "IEV", "location": "terminal", "gps_code": "UKKK", "iata_code": "IEV", "wikipedia": "http:\/\/en.wikipedia.org\/wiki\/Kiev_International_Airport", "natlscale": 15.0, "comments": null, "wikidataid": "Q939543", "name_ar": "مطار كييف جولياني الدولي", "name_bn": null, "name_de": "Flughafen Kiew-Schuljany", "name_en": "Kyiv Zhuliany International Airport", "name_es": null, "name_fr": "aéroport international de Kiev", "name_el": null, "name_hi": null, "name_hu": "Kijevi nemzetközi repülőtér", "name_id": "Bandar Udara Internasional Zhuliany Kiev", "name_it": "Aeroporto di Kiev-Žuljany", "name_ja": "キエフ・ジュリャーヌィ国際空港", "name_ko": null, "name_nl": "Kyiv Zhuliany International Airport", "name_pl": "Port lotniczy Kijów-Żuliany", "name_pt": null, "name_ru": "Киев", "name_sv": "Kiev Zjuljany flygplats", "name_tr": null, "name_vi": "Sân bay Zhulyany Kiev", "name_zh": "基輔國際機場", "wdid_score": 4, "ne_id": 1159119661, "id": "IEV", "className": "IEV" }, "geometry": { "type": "Point", "coordinates": [ 30.4, 50.4 ] } },
{ "type": "Feature", "properties": { "scalerank": 7, "featurecla": "Airport", "type": "major", "name": "Kunming Wujiaba Int'l", "abbrev": "KMG", "location": "terminal", "gps_code": "ZPPP", "iata_code": "KMG", "wikipedia": "http:\/\/en.wikipedia.org\/wiki\/Kunming_Wujiaba_International_Airport", "natlscale": 15.0, "comments": null, "wikidataid": "Q1190274", "name_ar": "مطار كونمينغ وجيابا الدولي", "name_bn": null, "name_de": "Kunming Wujiaba International Airport", "name_en": "Kunming Wujiaba International Airport", "name_es": "Kunming Wujiaba", "name_fr": "Kunming Wujiaba International Airport", "name_el": null, "name_hi": null, "name_hu": null, "name_id": null, "name_it": "Kunming Wujiaba", "name_ja": "昆明巫家ハ国際空港", "name_ko": "쿤밍 우자바 국제공항", "name_nl": "Kunming Wujiaba International Airport", "name_pl": "Port lotniczy Kunming-Wujiaba", "name_pt": "Aeroporto Internacional de Kunming Wujiaba", "name_ru": null, "name_sv": null, "name_tr": null, "name_vi": "Sân bay quốc tế Vu Gia Bá", "name_zh": "昆明巫家坝国际机场", "wdid_score": 4, "ne_id": 1159119791, "id": "KMG", "className": "KMG" }, "geometry": { "type": "Point", "coordinates": [ 102.7, 25.0 ] } },
{ "type": "Feature", "properties": { "scalerank": 7, "featurecla": "Airport", "type": "major", "name": "Naples Int'l", "abbrev": "NAP", "location": "terminal", "gps_code": "LIRN", "iata_code": "NAP", "wikipedia": "http:\/\/en.wikipedia.org\/wiki\/Naples_International_Airport", "natlscale": 15.0, "comments": null, "wikidataid": "Q849383", "name_ar": "مطار نابولي", "name_bn": null, "name_de": "Flughafen Neapel", "name_en": "Naples International Airport", "name_es": "Aeropuerto de Nápoles-Capodichino", "name_fr": "aéroport de Naples-Capodichino", "name_el": null, "name_hi": null, "name_hu": "Nápolyi nemzetközi repülőtér", "name_id": "Bandar Udara Napoli-Capodichino", "name_it": "Aeroporto di Napoli-Capodichino", "name_ja": "ナポリ・カポディキーノ国際空港", "name_ko": null, "name_nl": "Luchthaven Napels", "name_pl": "Port lotniczy Neapol", "name_pt": null, "name_ru": "Неаполь", "name_sv": null, "name_tr": null, "name_vi": "Sân bay quốc tế Napoli", "name_zh": "那不勒斯國際機場", "wdid_score": 4, "ne_id": 1159119971, "id": "NAP", "className": "NAP" }, "geometry": { "type": "Point", "coordinates": [ 14.3, 40.9 ] } },
{ "type": "Feature", "properties": { "scalerank": 7, "featurecla": "Airport", "type": "mid", "name": "Tahiti Faa'a Int'l", "abbrev": "PPT", "location": "terminal", "gps_code": "NTAA", "iata_code": "PPT", "wikipedia": "http:\/\/en.wikipedia.org\/wiki\/Faa'a_International_Airport", "natlscale": 15.0, "comments": null, "wikidataid": "Q1049719", "name_ar": "مطار فا الدولي", "name_bn": null, "name_de": "Flughafen Tahiti", "name_en": "Faa'a International Airport", "name_es": "Aeropuerto Internacional Faa'a", "name_fr": "aéroport international Tahiti-Faaa", "name_el": null, "name_hi": null, "name_hu": null, "name_id": "Bandar Udara Internasional Faa'a", "name_it": "Aeroporto Internazionale Faa'a", "name_ja": "パペーテ・タヒチ国際空港", "name_ko": "파 국제공항", "name_nl": "Faa'a International Airport", "name_pl": "Port lotniczy Faa'a", "name_pt": "Aeroporto Internacional de Faa'a", "name_ru": "Фааа", "name_sv": null, "name_tr": null, "name_vi": "Sân bay quốc tế Faa'a", "name_zh": "法阿國際機場", "wdid_score": 2, "ne_id": 1159120243, "id": "PPT", "className": "PPT" }, "geometry": { "type": "Point", "coordinates": [ -149.6, -17.6 ] } },
{ "type": "Feature", "properties": { "scalerank": 7, "featurecla": "Airport", "type": "mid", "name": "Marrakech-Menara", "abbrev": "RAK", "location": "terminal", "gps_code": "GMMX", "iata_code": "RAK", "wikipedia": "http:\/\/en.wikipedia.org\/wiki\/Menara_International_Airport", "natlscale": 15.0, "comments": null, "wikidataid": "Q429304", "name_ar": "مطار مراكش المنارة الدولي", "name_bn": null, "name_de": "Flughafen Marrakesch-Menara", "name_en": "Marrakesh Menara Airport", "name_es": "Aeropuerto de Marrakech-Menara", "name_fr": "aéroport Marrakech - Ménara", "name_el": null, "name_hi": null, "name_hu": null, "name_id": "Bandar Udara Internasional Menara", "name_it": "Aeroporto di Marrakech-Ménara", "name_ja": "マラケシュ・メナラ空港", "name_ko": null, "name_nl": "Menara International Airport", "name_pl": "Port lotniczy Marrakesz-Menara", "name_pt": "Aeroporto Marrakech-Menara", "name_ru": "Аэропорт Марракеш-Менара", "name_sv": "Marrakesh Menara Airport", "name_tr": null, "name_vi": "Sân bay quốc tế Menara", "name_zh": "马拉喀什－迈纳拉国际机场", "wdid_score": 4, "ne_id": 1159120327, "id": "RAK", "className": "RAK" }, "geometry": { "type": "Point", "coordinates": [ -8.0, 31.6 ] } },
{ "type": "Feature", "properties": { "scalerank": 7, "featurecla": "Airport", "type": "mid", "name": "Qingdao Liuting Int'l", "abbrev": "TAO", "location": "terminal", "gps_code": "ZSQD", "iata_code": "TAO", "wikipedia": "http:\/\/en.wikipedia.org\/wiki\/Qingdao_Liuting_International_Airport", "natlscale": 15.0, "comments": null, "wikidataid": "Q1156790", "name_ar": "مطار تشينغداو ليوتينغ الدولي", "name_bn": null, "name_de": "Flughafen Qingdao-Liuting", "name_en": "Qingdao Liuting International Airport", "name_es": "Aeropuerto Internacional de Qingdao-Liuting", "name_fr": "aéroport international de Qingdao Liuting", "name_el": null, "name_hi": null, "name_hu": null, "name_id": "Bandar Udara Internasional Liuting Qingdao", "name_it": null, "name_ja": "青島流亭国際空港", "name_ko": "칭다오 류팅 국제공항", "name_nl": "Qingdao Liuting International Airport", "name_pl": "Port lotniczy Qingdao-Liuting", "name_pt": "Aeroporto Internacional de Qingdao Liuting", "name_ru": "Циндао Лютин", "name_sv": "Qingdao Liuting International Airport", "name_tr": null, "name_vi": "Sân bay quốc tế Lưu Đình Thanh Đảo", "name_zh": "青島流亭國際機場", "wdid_score": 4, "ne_id": 1159120599, "id": "TAO", "className": "TAO" }, "geometry": { "type": "Point", "coordinates": [ 120.4, 36.3 ] } },
{ "type": "Feature", "properties": { "scalerank": 7, "featurecla": "Airport", "type": "major", "name": "Astana Int'l", "abbrev": "TSE", "location": "terminal", "gps_code": "UACC", "iata_code": "TSE", "wikipedia": "http:\/\/en.wikipedia.org\/wiki\/Astana_International_Airport", "natlscale": 15.0, "comments": null, "wikidataid": "Q174233", "name_ar": "مطار أستانا الدولي", "name_bn": null, "name_de": "Flughafen Astana", "name_en": "Astana International Airport", "name_es": "Aeropuerto Internacional de Astaná", "name_fr": "aéroport international d'Astana", "name_el": null, "name_hi": null, "name_hu": "Asztanai nemzetközi repülőtér", "name_id": "Bandar Udara Internasional Astana", "name_it": "Aeroporto Internazionale di Astana", "name_ja": "アスタナ国際空港", "name_ko": "아스타나 국제공항", "name_nl": "Internationale Luchthaven Astana", "name_pl": "Port lotniczy Astana", "name_pt": "Aeroporto Internacional de Astana", "name_ru": "Астана", "name_sv": "Astana International Airport", "name_tr": "Astana Havalimanı", "name_vi": "Sân bay quốc tế Astana", "name_zh": "阿斯塔纳国际机场", "wdid_score": 4, "ne_id": 1159120673, "id": "TSE", "className": "TSE" }, "geometry": { "type": "Point", "coordinates": [ 71.5, 51.0 ] } },
{ "type": "Feature", "properties": { "scalerank": 7, "featurecla": "Airport", "type": "major", "name": "Ürümqi Diwopu Int'l", "abbrev": "URC", "location": "terminal", "gps_code": "ZWWW", "iata_code": "URC", "wikipedia": "http:\/\/en.wikipedia.org\/wiki\/%C3%9Cr%C3%BCmqi_Diwopu_International_Airport", "natlscale": 15.0, "comments": null, "wikidataid": "Q765650", "name_ar": "مطار أورومتشي الدولي", "name_bn": null, "name_de": "Flughafen Ürümqi-Diwopu", "name_en": "Ürümqi Diwopu International Airport", "name_es": "Aeropuerto Internacional de Urumchi", "name_fr": "aéroport international d'Ürümqi Diwopu", "name_el": null, "name_hi": null, "name_hu": null, "name_id": "Bandar Udara Internasional Diwopu Urumqi", "name_it": "Aeroporto di Ürümqi-Diwopu", "name_ja": "ウルムチ地窩堡国際空港", "name_ko": "우루무치 디워푸 국제공항", "name_nl": "Internationale Luchthaven Ürümqi Diwopu", "name_pl": "Port lotniczy Ürümqi-Diwopu", "name_pt": "Aeroporto Internacional de Ürümqi Diwopu", "name_ru": "Международный аэропорт Дивопу", "name_sv": "Ürümqi Diwopu International Airport", "name_tr": null, "name_vi": "Sân bay quốc tế Diwopu Ürümqi", "name_zh": "乌鲁木齐地窝堡国际机场", "wdid_score": 4, "ne_id": 1159120799, "id": "URC", "className": "URC" }, "geometry": { "type": "Point", "coordinates": [ 87.5, 43.9 ] } },
{ "type": "Feature", "properties": { "scalerank": 7, "featurecla": "Airport", "type": "mid", "name": "Helsinki-Malmi", "abbrev": "HEM", "location": "terminal", "gps_code": "EFHF", "iata_code": "HEM", "wikipedia": "http:\/\/en.wikipedia.org\/wiki\/Helsinki-Malmi_Airport", "natlscale": 15.0, "comments": null, "wikidataid": "Q662434", "name_ar": null, "name_bn": null, "name_de": "Flughafen Helsinki-Malmi", "name_en": "Helsinki-Malmi Airport", "name_es": null, "name_fr": "aéroport d'Helsinki-Malmi", "name_el": null, "name_hi": null, "name_hu": null, "name_id": null, "name_it": "Aeroporto di Malmi", "name_ja": "ヘルシンキ・マルミ空港", "name_ko": null, "name_nl": "Helsinki-Malmi Airport", "name_pl": "Port lotniczy Helsinki-Malmi", "name_pt": null, "name_ru": "Хельсинки-Малми", "name_sv": "Helsingfors-Malm flygplats", "name_tr": "Helsinki-Malmi Havalimanı", "name_vi": "Sân bay Helsinki-Malmi", "name_zh": "赫尔辛基－马尔米机场", "wdid_score": 4, "ne_id": 1159120997, "id": "HEM", "className": "HEM" }, "geometry": { "type": "Point", "coordinates": [ 25.0, 60.2 ] } },
{ "type": "Feature", "properties": { "scalerank": 7, "featurecla": "Airport", "type": "mid", "name": "Polonia Int'l", "abbrev": "MES", "location": "terminal", "gps_code": "WIMM", "iata_code": "MES", "wikipedia": "http:\/\/en.wikipedia.org\/wiki\/Polonia_International_Airport", "natlscale": 15.0, "comments": null, "wikidataid": "Q1332829", "name_ar": null, "name_bn": null, "name_de": "Flughafen Polonia", "name_en": "Soewondo Air Force Base", "name_es": null, "name_fr": "base aérienne Soewondo", "name_el": null, "name_hi": null, "name_hu": null, "name_id": "Bandar Udara Internasional Polonia", "name_it": null, "name_ja": "ポロニア国際空港", "name_ko": null, "name_nl": null, "name_pl": "Port lotniczy Medan-Polonia", "name_pt": "Aeroporto Internacional Polonia", "name_ru": null, "name_sv": "Medan Polonia International Airport", "name_tr": null, "name_vi": "Sân bay quốc tế Polonia", "name_zh": "棉蘭國際機場", "wdid_score": 4, "ne_id": 1159121143, "id": "MES", "className": "MES" }, "geometry": { "type": "Point", "coordinates": [ 98.7, 3.6 ] } },
{ "type": "Feature", "properties": { "scalerank": 6, "featurecla": "Airport", "type": "major", "name": "Harbin Taiping", "abbrev": "HRB", "location": "terminal", "gps_code": "ZYHB", "iata_code": "HRB", "wikipedia": "http:\/\/en.wikipedia.org\/wiki\/Harbin_Taiping_International_Airport", "natlscale": 20.0, "comments": null, "wikidataid": "Q1156786", "name_ar": "مطار هاربين الدولي", "name_bn": null, "name_de": null, "name_en": "Harbin Taiping International Airport", "name_es": "Aeropuerto Internacional de Harbin", "name_fr": "aéroport international de Harbin Taiping", "name_el": null, "name_hi": null, "name_hu": null, "name_id": "Bandar Udara Internasional Taiping Harbin", "name_it": "Aeroporto Internazionale di Harbin-Taiping", "name_ja": "ハルビン太平国際空港", "name_ko": "하얼빈 타이핑 국제공항", "name_nl": "Harbin Taiping International Airport", "name_pl": "Port lotniczy Harbin-Taiping", "name_pt": "Aeroporto Internacional Harbin Taiping", "name_ru": "Харбин Тайпин", "name_sv": "Harbin Taiping International Airport", "name_tr": "Harbin Taiping Uluslararası Havalimanı", "name_vi": "Sân bay quốc tế Thái Bình Cáp Nhĩ Tân", "name_zh": "哈尔滨太平国际机场", "wdid_score": 4, "ne_id": 1159121329, "id": "HRB", "className": "HRB" }, "geometry": { "type": "Point", "coordinates": [ 126.2, 45.6 ] } },
{ "type": "Feature", "properties": { "scalerank": 6, "featurecla": "Airport", "type": "major", "name": "Bahrain Int'l", "abbrev": "BAH", "location": "terminal", "gps_code": "OBBI", "iata_code": "BAH", "wikipedia": "http:\/\/en.wikipedia.org\/wiki\/Bahrain_International_Airport", "natlscale": 20.0, "comments": null, "wikidataid": "Q637639", "name_ar": "مطار البحرين الدولي", "name_bn": "বাহরাইন আন্তর্জাতিক বিমানবন্দর", "name_de": "Flughafen Bahrain", "name_en": "Bahrain International Airport", "name_es": "Aeropuerto Internacional de Baréin", "name_fr": "aéroport international de Bahreïn", "name_el": "Διεθνές Αεροδρόμιο του Μπαχρέιν", "name_hi": "बहरीन अन्तर्राष्ट्रीय विमानक्षेत्र", "name_hu": "Bahreini nemzetközi repülőtér", "name_id": "Bandar Udara Internasional Bahrain", "name_it": "Aeroporto Internazionale del Bahrain", "name_ja": "バーレーン国際空港", "name_ko": "바레인 국제공항", "name_nl": "Internationale luchthaven van Bahrein", "name_pl": "Port lotniczy Bahrajn", "name_pt": "Aeroporto Internacional do Bahrain", "name_ru": "Бахрейн", "name_sv": "Bahrain International Airport", "name_tr": null, "name_vi": "Sân bay quốc tế Bahrain", "name_zh": "巴林国际机场", "wdid_score": 4, "ne_id": 1159121515, "id": "BAH", "className": "BAH" }, "geometry": { "type": "Point", "coordinates": [ 50.6, 26.3 ] } },
{ "type": "Feature", "properties": { "scalerank": 6, "featurecla": "Airport", "type": "major", "name": "Katunayake Int'l", "abbrev": "CMB", "location": "terminal", "gps_code": "VCBI", "iata_code": "CMB", "wikipedia": "http:\/\/en.wikipedia.org\/wiki\/Bandaranaike_International_Airport", "natlscale": 20.0, "comments": null, "wikidataid": "Q60900", "name_ar": "مطار باندارنيك الدولي", "name_bn": null, "name_de": "Bandaranaike International Airport", "name_en": "Bandaranaike International Airport", "name_es": "Aeropuerto Internacional Bandaranaike", "name_fr": "aéroport international Bandaranaike", "name_el": null, "name_hi": "भण्डारनायके अन्तर्राष्ट्रीय विमानक्षेत्र", "name_hu": null, "name_id": "Bandar Udara Internasional Bandaranaike", "name_it": "Aeroporto Internazionale Bandaranaike", "name_ja": "バンダラナイケ国際空港", "name_ko": "반다라나이케 국제공항", "name_nl": "Bandaranaike International Airport", "name_pl": "Port lotniczy Kolombo", "name_pt": "Aeroporto Internacional Bandaranaike", "name_ru": null, "name_sv": "Bandaranaike International Airport", "name_tr": null, "name_vi": "Sân bay quốc tế Bandaranaike", "name_zh": "班达拉奈克国际机场", "wdid_score": 4, "ne_id": 1159121665, "id": "CMB", "className": "CMB" }, "geometry": { "type": "Point", "coordinates": [ 79.9, 7.2 ] } },
{ "type": "Feature", "properties": { "scalerank": 6, "featurecla": "Airport", "type": "mid", "name": "Cairns Int'l", "abbrev": "CNS", "location": "terminal", "gps_code": "YBCS", "iata_code": "CNS", "wikipedia": "http:\/\/en.wikipedia.org\/wiki\/Cairns_International_Airport", "natlscale": 20.0, "comments": null, "wikidataid": "Q474632", "name_ar": null, "name_bn": null, "name_de": "Cairns Airport", "name_en": "Cairns Airport", "name_es": "Aeropuerto de Cairns", "name_fr": "aéroport international de Cairns", "name_el": null, "name_hi": null, "name_hu": null, "name_id": "Bandar Udara Cairns", "name_it": null, "name_ja": "ケアンズ国際空港", "name_ko": "케언즈 공항", "name_nl": "Cairns Airport", "name_pl": "Port lotniczy Cairns", "name_pt": "Aeroporto de Cairns", "name_ru": "Кэрнс", "name_sv": "Cairns International Airport", "name_tr": null, "name_vi": "Sân bay Cairns", "name_zh": "凱恩斯機場", "wdid_score": 4, "ne_id": 1159121685, "id": "CNS", "className": "CNS" }, "geometry": { "type": "Point", "coordinates": [ 145.8, -16.9 ] } },
{ "type": "Feature", "properties": { "scalerank": 6, "featurecla": "Airport", "type": "major", "name": "Bali Int'l", "abbrev": "DPS", "location": "terminal", "gps_code": "WADD", "iata_code": "DPS", "wikipedia": "http:\/\/en.wikipedia.org\/wiki\/Ngurah_Rai_Airport", "natlscale": 20.0, "comments": null, "wikidataid": "Q1061846", "name_ar": "مطار نجوراه راى الدولى", "name_bn": null, "name_de": "Flughafen Denpasar", "name_en": "Ngurah Rai International Airport", "name_es": "Aeropuerto Internacional Ngurah Rai", "name_fr": "aéroport international de Denpasar", "name_el": null, "name_hi": null, "name_hu": null, "name_id": "Bandar Udara Internasional Ngurah Rai", "name_it": "Aeroporto Internazionale Ngurah Rai", "name_ja": "デンパサール国際空港", "name_ko": "응우라라이 공항", "name_nl": "Luchthaven Ngurah Rai", "name_pl": "Port lotniczy Denpasar", "name_pt": "Aeroporto Internacional Ngurah Rai", "name_ru": "Нгурах-Рай", "name_sv": "Ngurah-Rai Airport", "name_tr": null, "name_vi": "Sân bay quốc tế Ngurah Rai", "name_zh": "伍拉·賴國際機場", "wdid_score": 4, "ne_id": 1159121877, "id": "DPS", "className": "DPS" }, "geometry": { "type": "Point", "coordinates": [ 115.2, -8.7 ] } },
{ "type": "Feature", "properties": { "scalerank": 6, "featurecla": "Airport", "type": "major", "name": "Gdansk Lech Walesa", "abbrev": "GDN", "location": "terminal", "gps_code": "EPGD", "iata_code": "GDN", "wikipedia": "http:\/\/en.wikipedia.org\/wiki\/Gda%C5%84sk_Lech_Wa%C5%82%C4%99sa_Airport", "natlscale": 20.0, "comments": null, "wikidataid": "Q779984", "name_ar": null, "name_bn": null, "name_de": "Lech-Wałęsa-Flughafen Danzig", "name_en": "Gdańsk Lech Wałęsa Airport", "name_es": "Aeropuerto de Gdańsk-Lech Wałęsa", "name_fr": "aéroport Lech Wałęsa de Gdańsk", "name_el": null, "name_hi": null, "name_hu": null, "name_id": null, "name_it": "Aeroporto di Danzica-Lech Wałęsa", "name_ja": "グダニスク・レフ・ヴァウェンサ空港", "name_ko": null, "name_nl": "Luchthaven Gdańsk Lech Wałęsa", "name_pl": "Port lotniczy Gdańsk im. Lecha Wałęsy", "name_pt": "Aeroporto de Gdańsk-Lech Wałęsa", "name_ru": "Гданьский аэропорт имени Леха Валенсы", "name_sv": "Gdańsk Lech Wałęsa flygplats", "name_tr": null, "name_vi": "Sân bay Gdańsk Lech Wałęsa", "name_zh": "格但斯克", "wdid_score": 4, "ne_id": 1159121969, "id": "GDN", "className": "GDN" }, "geometry": { "type": "Point", "coordinates": [ 18.5, 54.4 ] } },
{ "type": "Feature", "properties": { "scalerank": 6, "featurecla": "Airport", "type": "mid", "name": "Hohhot Baita Int'l", "abbrev": "HET", "location": "terminal", "gps_code": "ZBHH", "iata_code": "HET", "wikipedia": "http:\/\/en.wikipedia.org\/wiki\/Hohhot_Baita_International_Airport", "natlscale": 20.0, "comments": null, "wikidataid": "Q3238282", "name_ar": "مطار هوهوت بايتا الدولي", "name_bn": null, "name_de": null, "name_en": "Hohhot Baita International Airport", "name_es": "Aeropuerto Internacional de Hohhot Baita", "name_fr": "aéroport international de Hohhot Baita", "name_el": null, "name_hi": null, "name_hu": null, "name_id": null, "name_it": "Aeroporto di Hohhot-Baita", "name_ja": "呼和浩特白塔国際空港", "name_ko": "후허하오터 바이타 국제공항", "name_nl": "Hohhot Baita International Airport", "name_pl": "Port lotniczy Hohhot-Baita", "name_pt": null, "name_ru": "Хух-Хото Байта", "name_sv": "Hohhot Baita International Airport", "name_tr": null, "name_vi": "Sân bay quốc tế Bạch Tháp Hô Hòa Hạo Đặc", "name_zh": "呼和浩特白塔国际机场", "wdid_score": 4, "ne_id": 1159122037, "id": "HET", "className": "HET" }, "geometry": { "type": "Point", "coordinates": [ 111.8, 40.9 ] } },
{ "type": "Feature", "properties": { "scalerank": 6, "featurecla": "Airport", "type": "major", "name": "Kraków-Balice", "abbrev": "KRK", "location": "terminal", "gps_code": "EPKK", "iata_code": "KRK", "wikipedia": "http:\/\/en.wikipedia.org\/wiki\/John_Paul_II_International_Airport_Krak%C3%B3w-Balice", "natlscale": 20.0, "comments": "fixed name", "wikidataid": "Q581545", "name_ar": "مطار كراكوف", "name_bn": null, "name_de": "Flughafen Johannes Paul II. Krakau-Balice", "name_en": "John Paul II International Airport Kraków-Balice", "name_es": "Aeropuerto de Cracovia-Juan Pablo II", "name_fr": "aéroport Jean-Paul II de Cracovie", "name_el": null, "name_hi": null, "name_hu": null, "name_id": "Bandar Udara Internasional Yohanes Paulus II Kraków", "name_it": "Aeroporto Internazionale di Cracovia-Balice-Giovanni Paolo II", "name_ja": "バリツェ空港", "name_ko": null, "name_nl": "Luchthaven Kraków-Balice", "name_pl": "Port lotniczy Kraków-Balice", "name_pt": "Aeroporto Internacional de Cracóvia-Balice", "name_ru": "Краков-Балице", "name_sv": "Kraków-Balice", "name_tr": null, "name_vi": null, "name_zh": "克拉科夫", "wdid_score": 5, "ne_id": 1159122175, "id": "KRK", "className": "KRK" }, "geometry": { "type": "Point", "coordinates": [ 19.8, 50.1 ] } },
{ "type": "Feature", "properties": { "scalerank": 6, "featurecla": "Airport", "type": "major", "name": "LaGuardia", "abbrev": "LGA", "location": "terminal", "gps_code": "KLGA", "iata_code": "LGA", "wikipedia": "http:\/\/en.wikipedia.org\/wiki\/LaGuardia_Airport", "natlscale": 20.0, "comments": null, "wikidataid": "Q319654", "name_ar": "مطار لاغوارديا", "name_bn": null, "name_de": "Flughafen New York-LaGuardia", "name_en": "LaGuardia Airport", "name_es": "Aeropuerto LaGuardia", "name_fr": "aéroport de LaGuardia", "name_el": null, "name_hi": "ला गुर्डिया हवाई अड्डा", "name_hu": "LaGuardia repülőtér", "name_id": "Bandar Udara LaGuardia", "name_it": "Aeroporto Fiorello LaGuardia", "name_ja": "ラガーディア空港", "name_ko": "라가디아 공항", "name_nl": "LaGuardia Airport", "name_pl": "Port lotniczy Nowy Jork-LaGuardia", "name_pt": "Aeroporto de LaGuardia", "name_ru": "Ла Гуардия", "name_sv": "LaGuardia Airport", "name_tr": "LaGuardia Havalimanı", "name_vi": "Sân bay LaGuardia", "name_zh": "拉瓜地亞機場", "wdid_score": 4, "ne_id": 1159122233, "id": "LGA", "className": "LGA" }, "geometry": { "type": "Point", "coordinates": [ -73.9, 40.8 ] } },
{ "type": "Feature", "properties": { "scalerank": 6, "featurecla": "Airport", "type": "major", "name": "Manchester Int'l", "abbrev": "MAN", "location": "terminal", "gps_code": "EGCC", "iata_code": "MAN", "wikipedia": "http:\/\/en.wikipedia.org\/wiki\/Manchester_Airport", "natlscale": 20.0, "comments": null, "wikidataid": "Q8694", "name_ar": "مطار مانشستر", "name_bn": "ম্যানচেস্টার বিমানবন্দর", "name_de": "Flughafen Manchester", "name_en": "Manchester Airport", "name_es": "Aeropuerto de Mánchester", "name_fr": "aéroport de Manchester", "name_el": null, "name_hi": null, "name_hu": null, "name_id": "Bandar Udara Internasional Manchester", "name_it": "Aeroporto di Manchester", "name_ja": "マンチェスター空港", "name_ko": "맨체스터 공항", "name_nl": "Manchester Airport", "name_pl": "Port lotniczy Manchester", "name_pt": "Aeroporto de Manchester", "name_ru": "Манчестер", "name_sv": "Manchester Airport", "name_tr": "Manchester Havalimanı", "name_vi": "Sân bay Manchester", "name_zh": "曼彻斯特机场", "wdid_score": 4, "ne_id": 1159122331, "id": "MAN", "className": "MAN" }, "geometry": { "type": "Point", "coordinates": [ -2.3, 53.4 ] } },
{ "type": "Feature", "properties": { "scalerank": 6, "featurecla": "Airport", "type": "major", "name": "Seeb Int'l", "abbrev": "MCT", "location": "terminal", "gps_code": "OOMS", "iata_code": "MCT", "wikipedia": "http:\/\/en.wikipedia.org\/wiki\/Seeb_International_Airport", "natlscale": 20.0, "comments": null, "wikidataid": "Q1133357", "name_ar": "مطار مسقط الدولي", "name_bn": "মাসকট আন্তর্জাতিক বিমানবন্দর", "name_de": "Flughafen Maskat", "name_en": "Muscat International Airport", "name_es": "Aeropuerto Internacional de Seeb", "name_fr": "aéroport international de Mascate", "name_el": null, "name_hi": "मस्कट अन्तर्राष्ट्रीय विमानक्षेत्र", "name_hu": null, "name_id": "Bandar Udara Internasional Muskat", "name_it": "Aeroporto Internazionale di Mascate", "name_ja": "マスカット国際空港", "name_ko": "무스카트 국제공항", "name_nl": "Muscat International Airport", "name_pl": "Port lotniczy Maskat", "name_pt": "Aeroporto Internacional de Mascate", "name_ru": "Маскат", "name_sv": null, "name_tr": null, "name_vi": "Sân bay quốc tế Muscat", "name_zh": "馬斯喀特國際機場", "wdid_score": 4, "ne_id": 1159122367, "id": "MCT", "className": "MCT" }, "geometry": { "type": "Point", "coordinates": [ 58.3, 23.6 ] } },
{ "type": "Feature", "properties": { "scalerank": 6, "featurecla": "Airport", "type": "major", "name": "Marseille Provence Airport", "abbrev": "MRS", "location": "terminal", "gps_code": "LFML", "iata_code": "MRS", "wikipedia": "http:\/\/en.wikipedia.org\/wiki\/Marseille_Provence_Airport", "natlscale": 20.0, "comments": null, "wikidataid": "Q651190", "name_ar": "مطار مارسيليا", "name_bn": null, "name_de": "Flughafen Marseille", "name_en": "Marseille Provence Airport", "name_es": "Aeropuerto de Marsella-Provenza", "name_fr": "aéroport de Marseille Provence", "name_el": null, "name_hi": null, "name_hu": "Marseille Provence repülőtér", "name_id": "Bandar Udara Marseille Provence", "name_it": "Aeroporto di Marsiglia Provenza", "name_ja": "マルセイユ・プロヴァンス空港", "name_ko": "마르세유 프로방스 공항", "name_nl": "Luchthaven Marseille Provence", "name_pl": "Port lotniczy Marsylia", "name_pt": "Aeroporto de Marseille-Provence", "name_ru": "Марсель Прованс", "name_sv": "Aéroport de Marseille Provence", "name_tr": null, "name_vi": "Sân bay Marseille Provence", "name_zh": "马赛普罗旺斯机场", "wdid_score": 4, "ne_id": 1159122391, "id": "MRS", "className": "MRS" }, "geometry": { "type": "Point", "coordinates": [ 5.2, 43.4 ] } },
{ "type": "Feature", "properties": { "scalerank": 6, "featurecla": "Airport", "type": "mid", "name": "Kahului", "abbrev": "OGG", "location": "terminal", "gps_code": "PHOG", "iata_code": "OGG", "wikipedia": "http:\/\/en.wikipedia.org\/wiki\/Kahului_Airport", "natlscale": 20.0, "comments": null, "wikidataid": "Q1431637", "name_ar": null, "name_bn": null, "name_de": "Flughafen Kahului", "name_en": "Kahului Airport", "name_es": "Aeropuerto de Kahului", "name_fr": "aéroport de Kahului", "name_el": null, "name_hi": null, "name_hu": null, "name_id": "Bandar Udara Kahului", "name_it": "Kahului Airport", "name_ja": "カフルイ空港", "name_ko": null, "name_nl": "Kahului Airport", "name_pl": null, "name_pt": "Aeroporto de Kahului", "name_ru": null, "name_sv": null, "name_tr": null, "name_vi": "Sân bay Kahului", "name_zh": "卡富魯伊機場", "wdid_score": 4, "ne_id": 1159122457, "id": "OGG", "className": "OGG" }, "geometry": { "type": "Point", "coordinates": [ -156.4, 20.9 ] } },
{ "type": "Feature", "properties": { "scalerank": 6, "featurecla": "Airport", "type": "major", "name": "Birmingham Int'l", "abbrev": "BHX", "location": "terminal", "gps_code": "EGBB", "iata_code": "BHX", "wikipedia": "http:\/\/en.wikipedia.org\/wiki\/Birmingham_International_Airport_(United_Kingdom)", "natlscale": 20.0, "comments": null, "wikidataid": "Q8719", "name_ar": "مطار برمينغهام", "name_bn": "বার্মিংহাম বিমানবন্দর", "name_de": "Birmingham Airport", "name_en": "Birmingham Airport", "name_es": "Aeropuerto Internacional de Birmingham-West Midlands", "name_fr": "aéroport international de Birmingham", "name_el": "Αεροδρόμιο του Μπέρμιγχαμ", "name_hi": null, "name_hu": null, "name_id": "Bandar Udara Internasional Birmingham", "name_it": "Aeroporto di Birmingham", "name_ja": "バーミンガム国際空港", "name_ko": "버밍엄 공항", "name_nl": "Internationale luchthaven van Birmingham", "name_pl": "Port lotniczy Birmingham", "name_pt": "Aeroporto de Birmingham", "name_ru": "Бирмингем", "name_sv": "Birmingham International Airport", "name_tr": null, "name_vi": "Sân bay Birmingham", "name_zh": "伯明翰机场", "wdid_score": 4, "ne_id": 1159122687, "id": "BHX", "className": "BHX" }, "geometry": { "type": "Point", "coordinates": [ -1.7, 52.5 ] } },
{ "type": "Feature", "properties": { "scalerank": 6, "featurecla": "Airport", "type": "major", "name": "Koltsovo", "abbrev": "SVX", "location": "terminal", "gps_code": "USSS", "iata_code": "SVX", "wikipedia": "http:\/\/en.wikipedia.org\/wiki\/Koltsovo_Airport", "natlscale": 20.0, "comments": null, "wikidataid": "Q1334495", "name_ar": null, "name_bn": null, "name_de": "Flughafen Jekaterinburg", "name_en": "Koltsovo Airport", "name_es": "Aeropuerto de Ekaterimburgo-Koltsovo", "name_fr": "aéroport Koltsovo", "name_el": null, "name_hi": null, "name_hu": null, "name_id": null, "name_it": "Aeroporto di Ekaterinburg-Kol'covo", "name_ja": "コルツォヴォ国際空港", "name_ko": "콜초보 공항", "name_nl": "Luchthaven Koltsovo", "name_pl": "Port lotniczy Jekaterynburg", "name_pt": "Aeroporto Internacional de Ecaterimburgo-Koltsovo", "name_ru": "Кольцово", "name_sv": null, "name_tr": "Koltsovo Havalimanı", "name_vi": "Sân bay quốc tế Koltsovo", "name_zh": "科利佐沃國際機場", "wdid_score": 4, "ne_id": 1159122855, "id": "SVX", "className": "SVX" }, "geometry": { "type": "Point", "coordinates": [ 60.8, 56.7 ] } },
{ "type": "Feature", "properties": { "scalerank": 6, "featurecla": "Airport", "type": "major", "name": "Ufa Int'l", "abbrev": "UFA", "location": "terminal", "gps_code": "UWUU", "iata_code": "UFA", "wikipedia": "http:\/\/en.wikipedia.org\/wiki\/Ufa_International_Airport", "natlscale": 20.0, "comments": null, "wikidataid": "Q650285", "name_ar": null, "name_bn": null, "name_de": "Flughafen Ufa", "name_en": "Ufa International Airport", "name_es": "Aeropuerto Internacional de Ufá", "name_fr": "aéroport international d'Oufa", "name_el": "Διεθνές Αεροδρόμιο της Ουφά", "name_hi": null, "name_hu": "Ufai nemzetközi repülőtér", "name_id": "Bandar Udara Internasional Ufa", "name_it": "Aeroporto di Ufa", "name_ja": "ウファ国際空港", "name_ko": null, "name_nl": "Oefa", "name_pl": "Port lotniczy Ufa", "name_pt": null, "name_ru": "Уфа", "name_sv": null, "name_tr": "Ufa Uluslararası Havalimanı", "name_vi": "Sân bay quốc tế Ufa", "name_zh": "烏法", "wdid_score": 4, "ne_id": 1159122947, "id": "UFA", "className": "UFA" }, "geometry": { "type": "Point", "coordinates": [ 55.9, 54.6 ] } },
{ "type": "Feature", "properties": { "scalerank": 6, "featurecla": "Airport", "type": "major", "name": "Edmonton Int'l", "abbrev": "YEG", "location": "terminal", "gps_code": "CYEG", "iata_code": "YEG", "wikipedia": "http:\/\/en.wikipedia.org\/wiki\/Edmonton_International_Airport", "natlscale": 20.0, "comments": null, "wikidataid": "Q269588", "name_ar": null, "name_bn": null, "name_de": "Edmonton International Airport", "name_en": "Edmonton International Airport", "name_es": "Aeropuerto Internacional de Edmonton", "name_fr": "aéroport international d'Edmonton", "name_el": null, "name_hi": null, "name_hu": null, "name_id": "Bandar Udara Internasional Edmonton", "name_it": "Aeroporto Internazionale di Edmonton", "name_ja": "エドモントン国際空港", "name_ko": null, "name_nl": "Edmonton International Airport", "name_pl": "Port lotniczy Edmonton", "name_pt": "Aeroporto Internacional de Edmonton", "name_ru": null, "name_sv": "Edmonton International", "name_tr": null, "name_vi": "Sân bay quốc tế Edmonton", "name_zh": "埃德蒙顿国际机场", "wdid_score": 4, "ne_id": 1159123027, "id": "YEG", "className": "YEG" }, "geometry": { "type": "Point", "coordinates": [ -113.6, 53.3 ] } },
{ "type": "Feature", "properties": { "scalerank": 6, "featurecla": "Airport", "type": "major", "name": "Halifax Int'l", "abbrev": "YHZ", "location": "terminal", "gps_code": "CYHZ", "iata_code": "YHZ", "wikipedia": "http:\/\/en.wikipedia.org\/wiki\/Halifax_International_Airport", "natlscale": 20.0, "comments": null, "wikidataid": "Q1345785", "name_ar": "مطار هاليفاكس الدولي", "name_bn": null, "name_de": "Flughafen Halifax „Robert L. Stanfield“", "name_en": "Halifax Stanfield International Airport", "name_es": "Aeropuerto Internacional de Halifax Stanfield", "name_fr": "aéroport international Stanfield d'Halifax", "name_el": null, "name_hi": null, "name_hu": null, "name_id": "Bandar Udara Internasional Halifax", "name_it": "Aeroporto Internazionale di Halifax", "name_ja": "ハリファックス・ロバート・L・スタンフィールド国際空港", "name_ko": "핼리팩스 스탠필드 국제공항", "name_nl": "Halifax Stanfield International Airport", "name_pl": "Port lotniczy Halifax", "name_pt": "Aeroporto Internacional de Halifax", "name_ru": "Международный аэропорт Галифакса имени Стэнфилда", "name_sv": "Halifax Stanfield International Airport", "name_tr": null, "name_vi": "Sân bay quốc tế Stanfield Halifax", "name_zh": "哈利法克斯罗伯特·洛恩·斯坦菲尔德国际机场", "wdid_score": 4, "ne_id": 1159123039, "id": "YHZ", "className": "YHZ" }, "geometry": { "type": "Point", "coordinates": [ -63.5, 44.9 ] } },
{ "type": "Feature", "properties": { "scalerank": 6, "featurecla": "Airport", "type": "major", "name": "Sanya Phoenix Int'l", "abbrev": "SYX", "location": "terminal", "gps_code": "ZJSY", "iata_code": "SYX", "wikipedia": "http:\/\/en.wikipedia.org\/wiki\/Sanya_Phoenix_International_Airport", "natlscale": 20.0, "comments": null, "wikidataid": "Q684964", "name_ar": "مطار سانيا فينيكس الدولية", "name_bn": null, "name_de": "Flughafen Sanya", "name_en": "Sanya Phoenix International Airport", "name_es": null, "name_fr": "aéroport international de Sanya Phénix", "name_el": null, "name_hi": null, "name_hu": null, "name_id": null, "name_it": null, "name_ja": "三亜鳳凰国際空港", "name_ko": "싼야 펑황 국제공항", "name_nl": "Sanya Phoenix International Airport", "name_pl": "Port lotniczy Sanya-Phoenix", "name_pt": "Aeroporto Internacional de Sanya Phoenix", "name_ru": null, "name_sv": "Sanya Phoenix International Airport", "name_tr": null, "name_vi": "Sân bay quốc tế Phượng Hoàng Tam Á", "name_zh": "三亚凤凰国际机场", "wdid_score": 4, "ne_id": 1159123211, "id": "SYX", "className": "SYX" }, "geometry": { "type": "Point", "coordinates": [ 109.4, 18.3 ] } },
{ "type": "Feature", "properties": { "scalerank": 6, "featurecla": "Airport", "type": "major", "name": "Kimhae Int'l", "abbrev": "PUS", "location": "terminal", "gps_code": "RKPK", "iata_code": "PUS", "wikipedia": "http:\/\/en.wikipedia.org\/wiki\/Gimhae_International_Airport", "natlscale": 20.0, "comments": null, "wikidataid": "Q483223", "name_ar": null, "name_bn": null, "name_de": "Flughafen Gimhae", "name_en": "Gimhae International Airport", "name_es": "Aeropuerto Internacional de Gimhae", "name_fr": "aéroport international de Gimhae", "name_el": null, "name_hi": null, "name_hu": null, "name_id": "Bandar Udara Internasional Gimhae", "name_it": "aeroporto Internazionale di Gimhae", "name_ja": "金海国際空港", "name_ko": "김해국제공항", "name_nl": "Luchthaven Gimhae", "name_pl": "Port lotniczy Pusan-Kimhae", "name_pt": "Aeroporto Internacional de Gimhae", "name_ru": "Кимхэ", "name_sv": "Gimhae International Airport", "name_tr": "Gimhae Uluslararası Havalimanı", "name_vi": "Sân bay quốc tế Gimhae", "name_zh": "金海国际机场", "wdid_score": 2, "ne_id": 1159123337, "id": "PUS", "className": "PUS" }, "geometry": { "type": "Point", "coordinates": [ 128.9, 35.2 ] } },
{ "type": "Feature", "properties": { "scalerank": 6, "featurecla": "Airport", "type": "major", "name": "Stavanger Sola", "abbrev": "SVG", "location": "terminal", "gps_code": "ENZV", "iata_code": "SVG", "wikipedia": "http:\/\/en.wikipedia.org\/wiki\/Stavanger_Airport,_Sola", "natlscale": 20.0, "comments": null, "wikidataid": "Q1355258", "name_ar": null, "name_bn": null, "name_de": "Flughafen Stavanger", "name_en": "Stavanger Airport", "name_es": "Aeropuerto de Stavanger-Sola", "name_fr": "aéroport de Stavanger", "name_el": "Αεροδρόμιο του Στάβανγκερ", "name_hi": null, "name_hu": null, "name_id": null, "name_it": "Aeroporto di Stavanger-Sola", "name_ja": "スタヴァンゲル空港", "name_ko": null, "name_nl": "Luchthaven Stavanger Sola", "name_pl": "Port lotniczy Stavanger", "name_pt": "Aeroporto de Stavanger", "name_ru": null, "name_sv": "Stavanger flygplats", "name_tr": null, "name_vi": "Sân bay Stavanger", "name_zh": "斯塔萬格", "wdid_score": 4, "ne_id": 1159123367, "id": "SVG", "className": "SVG" }, "geometry": { "type": "Point", "coordinates": [ 5.6, 58.9 ] } },
{ "type": "Feature", "properties": { "scalerank": 6, "featurecla": "Airport", "type": "mid", "name": "Bilbao", "abbrev": "BIO", "location": "terminal", "gps_code": "LEBB", "iata_code": "BIO", "wikipedia": "http:\/\/en.wikipedia.org\/wiki\/Bilbao_Airport", "natlscale": 20.0, "comments": null, "wikidataid": "Q598197", "name_ar": "مطار بلباو", "name_bn": null, "name_de": "Flughafen Bilbao", "name_en": "Bilbao Airport", "name_es": "Aeropuerto de Bilbao", "name_fr": "aéroport international de Bilbao", "name_el": null, "name_hi": null, "name_hu": null, "name_id": "Bandar Udara Bilbao", "name_it": "Aeroporto di Bilbao", "name_ja": "ビルバオ空港", "name_ko": null, "name_nl": "Luchthaven Bilbao", "name_pl": "Port lotniczy Bilbao", "name_pt": "Aeroporto de Bilbau", "name_ru": "Бильбао", "name_sv": "Bilbao Airport", "name_tr": "Bilbao Havalimanı", "name_vi": "Sân bay Bilbao", "name_zh": "畢爾包機場", "wdid_score": 4, "ne_id": 1159123469, "id": "BIO", "className": "BIO" }, "geometry": { "type": "Point", "coordinates": [ -2.9, 43.3 ] } },
{ "type": "Feature", "properties": { "scalerank": 6, "featurecla": "Airport", "type": "major", "name": "Abu Dhabi Int'l", "abbrev": "AUH", "location": "terminal", "gps_code": "OMAA", "iata_code": "AUH", "wikipedia": "http:\/\/en.wikipedia.org\/wiki\/Abu_Dhabi_International_Airport", "natlscale": 20.0, "comments": null, "wikidataid": "Q643562", "name_ar": "مطار أبوظبي الدولي", "name_bn": "আবুধাবি আন্তর্জাতিক বিমানবন্দর", "name_de": "Flughafen Abu Dhabi", "name_en": "Abu Dhabi International Airport", "name_es": "Aeropuerto Internacional de Abu Dabi", "name_fr": "aéroport international d'Abou Dabi", "name_el": null, "name_hi": "अबु धाबी अन्तर्राष्ट्रीय विमानक्षेत्र", "name_hu": null, "name_id": "Bandar Udara Internasional Abu Dhabi", "name_it": "Aeroporto Internazionale di Abu Dhabi", "name_ja": "アブダビ国際空港", "name_ko": "아부다비 국제공항", "name_nl": "Abu Dhabi International Airport", "name_pl": "Port lotniczy Abu Zabi", "name_pt": "Aeroporto Internacional de Abu Dhabi", "name_ru": "Абу-Даби", "name_sv": "Abu Dhabi International Airport", "name_tr": "Abu Dabi Havalimanı", "name_vi": "Sân bay quốc tế Abu Dhabi", "name_zh": "阿布扎比國際機場", "wdid_score": 4, "ne_id": 1159123541, "id": "AUH", "className": "AUH" }, "geometry": { "type": "Point", "coordinates": [ 54.6, 24.4 ] } },
{ "type": "Feature", "properties": { "scalerank": 6, "featurecla": "Airport", "type": "major", "name": "Cochin Int'l", "abbrev": "COK", "location": "terminal", "gps_code": "VOCI", "iata_code": "COK", "wikipedia": "http:\/\/en.wikipedia.org\/wiki\/Cochin_International_Airport", "natlscale": 20.0, "comments": null, "wikidataid": "Q592172", "name_ar": "مطار كوتشين", "name_bn": null, "name_de": "Flughafen Kochi", "name_en": "Cochin International Airport", "name_es": "Aeropuerto Internacional de Cochin", "name_fr": "aéroport international Cochin", "name_el": null, "name_hi": "कोचीन अंतर्राष्ट्रीय विमानक्षेत्र", "name_hu": null, "name_id": null, "name_it": "Aeroporto Internazionale di Kochi", "name_ja": "コーチン国際空港", "name_ko": null, "name_nl": "Cochin International Airport", "name_pl": "Port lotniczy Koczin", "name_pt": null, "name_ru": "Кочин", "name_sv": "Cochin International Airport", "name_tr": null, "name_vi": "Sân bay quốc tế Cochin", "name_zh": "柯枝国际机场", "wdid_score": 4, "ne_id": 1159123615, "id": "COK", "className": "COK" }, "geometry": { "type": "Point", "coordinates": [ 76.4, 10.2 ] } },
{ "type": "Feature", "properties": { "scalerank": 5, "featurecla": "Airport", "type": "major", "name": "Brussels", "abbrev": "BRU", "location": "terminal", "gps_code": "EBBR", "iata_code": "BRU", "wikipedia": "http:\/\/en.wikipedia.org\/wiki\/Brussels_Airport", "natlscale": 30.0, "comments": null, "wikidataid": "Q28934", "name_ar": "مطار بروكسل الدولي", "name_bn": null, "name_de": "Flughafen Brüssel-Zaventem", "name_en": "Brussels Airport", "name_es": "Aeropuerto de Bruselas-National", "name_fr": "aéroport de Bruxelles", "name_el": "Διεθνές Αεροδρόμιο Βρυξελλών", "name_hi": "ब्रसल्स अन्तर्राष्ट्रीय विमानक्षेत्र", "name_hu": "Brüsszeli repülőtér", "name_id": "Bandar Udara Internasional Brussel", "name_it": "aeroporto di Bruxelles-National", "name_ja": "ブリュッセル国際空港", "name_ko": "브뤼셀 공항", "name_nl": "Brussels Airport", "name_pl": "Port lotniczy Bruksela", "name_pt": "Aeroporto de Bruxelas", "name_ru": "Брюссель", "name_sv": "Bryssel-Zaventem flygplats", "name_tr": "Brüksel Havalimanı", "name_vi": "Sân bay Brussels", "name_zh": "布鲁塞尔机场", "wdid_score": 4, "ne_id": 1159123683, "id": "BRU", "className": "BRU" }, "geometry": { "type": "Point", "coordinates": [ 4.5, 50.9 ] } },
{ "type": "Feature", "properties": { "scalerank": 5, "featurecla": "Airport", "type": "major", "name": "Abuja Int'l", "abbrev": "ABV", "location": "terminal", "gps_code": "DNAA", "iata_code": "ABV", "wikipedia": "http:\/\/en.wikipedia.org\/wiki\/Nnamdi_Azikiwe_International_Airport", "natlscale": 30.0, "comments": null, "wikidataid": "Q525030", "name_ar": "مطار نامدي أزيكيوي الدولي", "name_bn": null, "name_de": "Flughafen Abuja", "name_en": "Nnamdi Azikiwe International Airport", "name_es": "Aeropuerto Internacional Nnamdi Azikiwe", "name_fr": "aéroport international Nnamdi Azikiwe", "name_el": null, "name_hi": null, "name_hu": null, "name_id": "Bandar Udara Internasional Nnamdi Azikiwe", "name_it": "Aeroporto Internazionale Nnamdi Azikwe", "name_ja": "ンナムディ・アジキウェ国際空港", "name_ko": "은남디 아지키웨 국제공항", "name_nl": "Nnamdi Azikiwe International Airport", "name_pl": "Port lotniczy Abudża", "name_pt": "Aeroporto Internacional Nnamdi Azikiwe", "name_ru": null, "name_sv": null, "name_tr": null, "name_vi": "Sân bay quốc tế Nnamdi Azikiwe", "name_zh": "纳姆迪·阿齐基韦国际机场", "wdid_score": 4, "ne_id": 1159123699, "id": "ABV", "className": "ABV" }, "geometry": { "type": "Point", "coordinates": [ 7.3, 9.0 ] } },
{ "type": "Feature", "properties": { "scalerank": 5, "featurecla": "Airport", "type": "major", "name": "Belfast Int'l", "abbrev": "BFS", "location": "terminal", "gps_code": "EGAA", "iata_code": "BFS", "wikipedia": "http:\/\/en.wikipedia.org\/wiki\/Belfast_International_Airport", "natlscale": 30.0, "comments": null, "wikidataid": "Q8979", "name_ar": null, "name_bn": null, "name_de": "Belfast International Airport", "name_en": "Belfast International Airport", "name_es": "Aeropuerto Internacional de Belfast", "name_fr": "aéroport international de Belfast", "name_el": null, "name_hi": null, "name_hu": null, "name_id": "Bandar Udara Internasional Belfast", "name_it": "Aeroporto Internazionale di Belfast", "name_ja": "ベルファスト国際空港", "name_ko": null, "name_nl": "Belfast International Airport", "name_pl": "Port lotniczy Belfast-International", "name_pt": "Aeroporto Internacional de Belfast", "name_ru": "Белфаст", "name_sv": "Belfast International Airport", "name_tr": null, "name_vi": "Sân bay quốc tế Belfast", "name_zh": "贝尔法斯特国际机场", "wdid_score": 4, "ne_id": 1159123759, "id": "BFS", "className": "BFS" }, "geometry": { "type": "Point", "coordinates": [ -6.2, 54.7 ] } },
{ "type": "Feature", "properties": { "scalerank": 5, "featurecla": "Airport", "type": "mid", "name": "Kota Kinabalu Int'l", "abbrev": "BKI", "location": "terminal", "gps_code": "WBKK", "iata_code": "BKI", "wikipedia": "http:\/\/en.wikipedia.org\/wiki\/Kota_Kinabalu_International_Airport", "natlscale": 30.0, "comments": null, "wikidataid": "Q645760", "name_ar": "مطار كوتا كينابالو الدولي", "name_bn": null, "name_de": "Flughafen Kota Kinabalu", "name_en": "Kota Kinabalu International Airport", "name_es": "Aeropuerto Internacional de Kota Kinabalu", "name_fr": "aéroport international de Kota Kinabalu", "name_el": null, "name_hi": null, "name_hu": null, "name_id": "Bandar Udara Internasional Kota Kinabalu", "name_it": "Aeroporto Internazionale di Kota Kinabalu", "name_ja": "コタキナバル国際空港", "name_ko": "코타키나발루 국제공항", "name_nl": "Kota Kinabalu International Airport", "name_pl": "Port lotniczy Kota Kinabalu", "name_pt": null, "name_ru": "Кота-Кинабалу", "name_sv": "Kota Kinabalu International Airport", "name_tr": "Kota Kinabalu Uluslararası Havalimanı", "name_vi": "Sân bay quốc tế Kota Kinabalu", "name_zh": "亞庇國際機場", "wdid_score": 4, "ne_id": 1159123793, "id": "BKI", "className": "BKI" }, "geometry": { "type": "Point", "coordinates": [ 116.1, 5.9 ] } },
{ "type": "Feature", "properties": { "scalerank": 5, "featurecla": "Airport", "type": "major", "name": "Bengaluru Int'l", "abbrev": "BLR", "location": "terminal", "gps_code": "VOBL", "iata_code": "BLR", "wikipedia": "http:\/\/en.wikipedia.org\/wiki\/Bengaluru_International_Airport", "natlscale": 30.0, "comments": null, "wikidataid": "Q503364", "name_ar": "مطار كيمبيغودا الدولي", "name_bn": "কেম্পেগৌড়া আন্তৰ্জাতিক বিমানবন্দর", "name_de": "Bengaluru International Airport", "name_en": "Kempegowda International Airport", "name_es": "Aeropuerto Internacional Kempegowda", "name_fr": "aéroport international Kempegowda", "name_el": null, "name_hi": "बेंगलुरु अंतर्राष्ट्रीय विमानक्षेत्र", "name_hu": null, "name_id": "Bandar Udara Internasional Bengaluru", "name_it": "aeroporto di Bangalore", "name_ja": "ベンガルール国際空港", "name_ko": "벵갈루루 국제공항", "name_nl": "Bengaluru International Airport", "name_pl": "Port lotniczy Bengaluru", "name_pt": "Aeroporto Internacional Kempegowda", "name_ru": "Бангалор", "name_sv": "Bengaluru internationella flygplats", "name_tr": null, "name_vi": "Sân bay quốc tế Bengaluru", "name_zh": "班加罗尔国际机场", "wdid_score": 4, "ne_id": 1159123807, "id": "BLR", "className": "BLR" }, "geometry": { "type": "Point", "coordinates": [ 77.7, 13.2 ] } },
{ "type": "Feature", "properties": { "scalerank": 5, "featurecla": "Airport", "type": "major", "name": "Mohamed V Int'l", "abbrev": "CMN", "location": "terminal", "gps_code": "GMMN", "iata_code": "CMN", "wikipedia": "http:\/\/en.wikipedia.org\/wiki\/Mohammed_V_International_Airport", "natlscale": 30.0, "comments": null, "wikidataid": "Q955433", "name_ar": "مطار محمد الخامس الدولي", "name_bn": null, "name_de": "Flughafen Casablanca", "name_en": "Mohammed V International Airport", "name_es": "Aeropuerto Internacional Mohammed V", "name_fr": "aéroport Mohammed V", "name_el": null, "name_hi": null, "name_hu": null, "name_id": "Bandar Udara Internasional Mohammed V", "name_it": "Aeroporto di Casablanca-Muhammad V", "name_ja": "ムハンマド5世国際空港", "name_ko": "무함마드 5세 국제공항", "name_nl": "Internationale luchthaven Mohammed V", "name_pl": "Port lotniczy Casablanca", "name_pt": "Aeroporto Internacional Mohammed V", "name_ru": null, "name_sv": "Mohammed V International Airport", "name_tr": null, "name_vi": "Sân bay quốc tế Mohammed V", "name_zh": "穆罕默德五世国际机场", "wdid_score": 4, "ne_id": 1159123861, "id": "CMN", "className": "CMN" }, "geometry": { "type": "Point", "coordinates": [ -7.6, 33.4 ] } },
{ "type": "Feature", "properties": { "scalerank": 5, "featurecla": "Airport", "type": "major", "name": "Esenboğa Int'l", "abbrev": "ESB", "location": "terminal", "gps_code": "LTAC", "iata_code": "ESB", "wikipedia": "http:\/\/en.wikipedia.org\/wiki\/Esenbo%C4%9Fa_International_Airport", "natlscale": 30.0, "comments": null, "wikidataid": "Q430490", "name_ar": "مطار ايسنبوغا الدولي", "name_bn": null, "name_de": "Flughafen Ankara-Esenboğa", "name_en": "Esenboğa International Airport", "name_es": "Aeropuerto Internacional Esenboğa", "name_fr": "aéroport international Esenboğa", "name_el": "Διεθνές Αεροδρόμιο Εσένμπογκα", "name_hi": null, "name_hu": "Esenboğa nemzetközi repülőtér", "name_id": "Bandar Udara Internasional Esenboğa", "name_it": "Aeroporto di Esenboğa", "name_ja": "エセンボーア国際空港", "name_ko": "에센보아 국제공항", "name_nl": "Luchthaven Ankara Esenboga", "name_pl": "Port lotniczy Ankara", "name_pt": "Aeroporto Internacional de Ancara Esenboğa", "name_ru": "Международный аэропорт Эсенбога", "name_sv": null, "name_tr": "Esenboğa Uluslararası Havalimanı", "name_vi": "Sân bay quốc tế Esenboğa", "name_zh": "埃森博阿国际机场", "wdid_score": 4, "ne_id": 1159123885, "id": "ESB", "className": "ESB" }, "geometry": { "type": "Point", "coordinates": [ 33.0, 40.1 ] } },
{ "type": "Feature", "properties": { "scalerank": 5, "featurecla": "Airport", "type": "major", "name": "Khartoum", "abbrev": "KRT", "location": "terminal", "gps_code": "HSSS", "iata_code": "KRT", "wikipedia": "http:\/\/en.wikipedia.org\/wiki\/Khartoum_International_Airport", "natlscale": 30.0, "comments": null, "wikidataid": "Q1050244", "name_ar": "مطار الخرطوم الدولي", "name_bn": null, "name_de": "Flughafen Khartum", "name_en": "Khartoum International Airport", "name_es": "Aeropuerto Internacional de Jartum", "name_fr": "aéroport international de Khartoum", "name_el": null, "name_hi": null, "name_hu": null, "name_id": "Bandar Udara Internasional Khartoum", "name_it": "Aeroporto Internazionale di Khartum", "name_ja": "ハルツーム国際空港", "name_ko": "하르툼 국제공항", "name_nl": "Luchthaven van Khartoem", "name_pl": "Port lotniczy Chartum", "name_pt": "Aeroporto Internacional de Cartum", "name_ru": null, "name_sv": null, "name_tr": null, "name_vi": "Sân bay quốc tế Khartoum", "name_zh": "喀土穆国际机场", "wdid_score": 4, "ne_id": 1159123949, "id": "KRT", "className": "KRT" }, "geometry": { "type": "Point", "coordinates": [ 32.6, 15.6 ] } },
{ "type": "Feature", "properties": { "scalerank": 5, "featurecla": "Airport", "type": "major", "name": "Palermo", "abbrev": "PMO", "location": "terminal", "gps_code": "LICJ", "iata_code": "PMO", "wikipedia": "http:\/\/en.wikipedia.org\/wiki\/Palermo_International_Airport", "natlscale": 30.0, "comments": null, "wikidataid": "Q630645", "name_ar": "مطار باليرمو الدولي", "name_bn": null, "name_de": "Flughafen Palermo-Punta Raisi", "name_en": "Falcone–Borsellino Airport", "name_es": "Aeropuerto de Palermo-Punta Raisi", "name_fr": "aéroport de Palerme", "name_el": null, "name_hi": null, "name_hu": "Falcone-Borsellino nemzetközi repülőtér", "name_id": "Bandar Udara Palermo", "name_it": "Aeroporto di Palermo-Punta Raisi", "name_ja": "パレルモ", "name_ko": null, "name_nl": "Luchthaven Palermo", "name_pl": "Port lotniczy Palermo", "name_pt": null, "name_ru": null, "name_sv": null, "name_tr": null, "name_vi": null, "name_zh": "帕勒莫", "wdid_score": 4, "ne_id": 1159123985, "id": "PMO", "className": "PMO" }, "geometry": { "type": "Point", "coordinates": [ 13.1, 38.2 ] } },
{ "type": "Feature", "properties": { "scalerank": 5, "featurecla": "Airport", "type": "major", "name": "Shenyang Taoxian Int'l", "abbrev": "SHE", "location": "terminal", "gps_code": "ZYTX", "iata_code": "SHE", "wikipedia": "http:\/\/en.wikipedia.org\/wiki\/Shenyang_Taoxian_International_Airport", "natlscale": 30.0, "comments": null, "wikidataid": "Q1144167", "name_ar": "مطار شنيانغ الدولي", "name_bn": null, "name_de": "Shenyang Taoxian International Airport", "name_en": "Shenyang Taoxian International Airport", "name_es": "Aeropuerto Internacional Taoxian", "name_fr": "aéroport international de Shenyang Taoxian", "name_el": null, "name_hi": null, "name_hu": null, "name_id": "Bandar Udara Internasional Taoxian Shenyang", "name_it": null, "name_ja": "瀋陽桃仙国際空港", "name_ko": "선양 타오셴 국제공항", "name_nl": "Shenyang Taoxian International Airport", "name_pl": "Port lotniczy Shenyang-Taoxian", "name_pt": "Aeroporto Internacional de Shenyang Taoxian", "name_ru": "Шэньян", "name_sv": "Shenyang Taoxian International Airport", "name_tr": "Shenyang Taoxian Uluslararası Havalimanı", "name_vi": "Sân bay quốc tế Đào Tiên Thẩm Dương", "name_zh": "沈阳桃仙国际机场", "wdid_score": 4, "ne_id": 1159124023, "id": "SHE", "className": "SHE" }, "geometry": { "type": "Point", "coordinates": [ 123.5, 41.6 ] } },
{ "type": "Feature", "properties": { "scalerank": 5, "featurecla": "Airport", "type": "mid", "name": "Lyon-Saint Exupery", "abbrev": "LYS", "location": "terminal", "gps_code": "LFLL", "iata_code": "LYS", "wikipedia": "http:\/\/en.wikipedia.org\/wiki\/Lyon-Saint_Exup%C3%A9ry_Airport", "natlscale": 30.0, "comments": null, "wikidataid": "Q1547", "name_ar": "مطار ليون سانت إكسوبيري", "name_bn": null, "name_de": "Flughafen Lyon Saint-Exupéry", "name_en": "Lyon-Saint Exupéry Airport", "name_es": "Aeropuerto de Lyon-Saint Exupéry", "name_fr": "aéroport Lyon-Saint-Exupéry", "name_el": null, "name_hi": null, "name_hu": "Lyon-Saint Exupéry repülőtér", "name_id": "Bandar Udara Internasional Saint-Exupéry", "name_it": "aeroporto di Lione Saint Exupéry", "name_ja": "サン＝テグジュペリ国際空港", "name_ko": "생텍쥐페리 국제공항", "name_nl": "Luchthaven Lyon-Saint Exupéry", "name_pl": "Port lotniczy Lyon-Saint-Exupéry", "name_pt": "Aeroporto de Lyon-Saint-Exupéry", "name_ru": "Лионский аэропорт имени Сент-Экзюпери", "name_sv": "Lyon–Saint-Exupéry Airport", "name_tr": null, "name_vi": "Sân bay quốc tế Saint-Exupéry", "name_zh": "里昂圣埃克絮佩里机场", "wdid_score": 4, "ne_id": 1159124145, "id": "LYS", "className": "LYS" }, "geometry": { "type": "Point", "coordinates": [ 5.1, 45.7 ] } },
{ "type": "Feature", "properties": { "scalerank": 5, "featurecla": "Airport", "type": "major", "name": "Lisbon Portela", "abbrev": "LIS", "location": "terminal", "gps_code": "LPPT", "iata_code": "LIS", "wikipedia": "http:\/\/en.wikipedia.org\/wiki\/Lisbon_Portela_Airport", "natlscale": 30.0, "comments": null, "wikidataid": "Q403671", "name_ar": "مطار لشبونة", "name_bn": null, "name_de": "Flughafen Lissabon-Humberto Delgado", "name_en": "Lisbon Airport", "name_es": "Aeropuerto de Lisboa Humberto Delgado", "name_fr": "Aéroport Lisbonne-Humberto Delgado", "name_el": null, "name_hi": "पोर्टेला हवाई अड्डा", "name_hu": null, "name_id": "Bandar Udara Portela", "name_it": "Aeroporto di Lisbona Humberto Delgado", "name_ja": "ポルテラ空港", "name_ko": "리스본 포르텔라 공항", "name_nl": "Luchthaven Portela", "name_pl": "Port lotniczy Lizbona-Portela", "name_pt": "Aeroporto de Lisboa Humberto Delgado", "name_ru": "Портела", "name_sv": "Lissabon-Portela flygplats", "name_tr": "Portela Havaalanı", "name_vi": "Sân bay Lisboa Portela", "name_zh": "里斯本机场", "wdid_score": 4, "ne_id": 1159124181, "id": "LIS", "className": "LIS" }, "geometry": { "type": "Point", "coordinates": [ -9.1, 38.8 ] } },
{ "type": "Feature", "properties": { "scalerank": 5, "featurecla": "Airport", "type": "major", "name": "Juanda Int'l", "abbrev": "SUB", "location": "terminal", "gps_code": "WARR", "iata_code": "SUB", "wikipedia": "http:\/\/en.wikipedia.org\/wiki\/Juanda_International_Airport", "natlscale": 30.0, "comments": null, "wikidataid": "Q1431631", "name_ar": "مطار جواندا الدولي", "name_bn": null, "name_de": "Flughafen Juanda", "name_en": "Juanda International Airport", "name_es": "Aeropuerto Internacional Juanda", "name_fr": "aéroport international de Surabaya", "name_el": null, "name_hi": null, "name_hu": null, "name_id": "Bandar Udara Internasional Juanda", "name_it": null, "name_ja": "ジュアンダ国際空港", "name_ko": "주안다 국제공항", "name_nl": "Internationale luchthaven Juanda", "name_pl": "Port lotniczy Surabaja-Juanda", "name_pt": "Aeroporto Internacional Juanda", "name_ru": "Сидоарджо", "name_sv": "Juanda International Airport", "name_tr": null, "name_vi": "Sân bay quốc tế Juanda", "name_zh": "朱安达国际机场", "wdid_score": 4, "ne_id": 1159124227, "id": "SUB", "className": "SUB" }, "geometry": { "type": "Point", "coordinates": [ 112.8, -7.4 ] } },
{ "type": "Feature", "properties": { "scalerank": 5, "featurecla": "Airport", "type": "major", "name": "Zhengzhou Xinzheng Int'l", "abbrev": "CGO", "location": "terminal", "gps_code": "ZHCC", "iata_code": "CGO", "wikipedia": "http:\/\/en.wikipedia.org\/wiki\/Zhengzhou_Xinzheng_International_Airport", "natlscale": 30.0, "comments": null, "wikidataid": "Q2034869", "name_ar": "مطار تشنغتشو الدولي", "name_bn": null, "name_de": "Flughafen Zhengzhou", "name_en": "Zhengzhou Xinzheng International Airport", "name_es": null, "name_fr": "aéroport international de Zhengzhou Xinzheng", "name_el": null, "name_hi": null, "name_hu": null, "name_id": "Bandar Udara Internasional Xinzheng Zhengzhou", "name_it": null, "name_ja": "鄭州新鄭国際空港", "name_ko": "정저우 신정 국제공항", "name_nl": "Zhengzhou Xinzheng International Airport", "name_pl": "Port lotniczy Zhengzhou-Xinzheng", "name_pt": "Aeroporto Internacional de Zhengzhou Xinzheng", "name_ru": "Чжэнчжоу", "name_sv": "Zhengzhou Xinzheng International Airport", "name_tr": null, "name_vi": "Sân bay quốc tế Tân Trịnh Trịnh Châu", "name_zh": "郑州新郑国际机场", "wdid_score": 4, "ne_id": 1159124277, "id": "CGO", "className": "CGO" }, "geometry": { "type": "Point", "coordinates": [ 113.8, 34.5 ] } },
{ "type": "Feature", "properties": { "scalerank": 5, "featurecla": "Airport", "type": "major", "name": "Dalian Zhoushuizi Int'l", "abbrev": "DLC", "location": "terminal", "gps_code": "ZYTL", "iata_code": "DLC", "wikipedia": "http:\/\/en.wikipedia.org\/wiki\/Dalian_Zhoushuizi_International_Airport", "natlscale": 30.0, "comments": null, "wikidataid": "Q965083", "name_ar": "مطار داليان الدولي", "name_bn": null, "name_de": "Flughafen Dalian-Zhoushuizi", "name_en": "Dalian Zhoushuizi International Airport", "name_es": "Aeropuerto Internacional de Dalian", "name_fr": "aéroport international de Dalian", "name_el": null, "name_hi": null, "name_hu": null, "name_id": "Bandar Udara Internasional Zhoushuizi Dalian", "name_it": null, "name_ja": "大連周水子国際空港", "name_ko": "다롄 저우수이쯔 국제공항", "name_nl": "Dalian Zhoushuizi International Airport", "name_pl": "Port lotniczy Dalian-Zhoushuizi", "name_pt": "Aeroporto Internacional de Dalian Zhoushuizi", "name_ru": "Далянь Чжоушуйцзы", "name_sv": "Dalian Zhoushuizi International Airport", "name_tr": null, "name_vi": "Sân bay quốc tế Chu Thủy Tử Đại Liên", "name_zh": "大连周水子国际机场", "wdid_score": 4, "ne_id": 1159124289, "id": "DLC", "className": "DLC" }, "geometry": { "type": "Point", "coordinates": [ 121.5, 39.0 ] } },
{ "type": "Feature", "properties": { "scalerank": 4, "featurecla": "Airport", "type": "mid", "name": "Karachi Civil", "abbrev": "KHI", "location": "terminal", "gps_code": "OPKC", "iata_code": "KHI", "wikipedia": "http:\/\/en.wikipedia.org\/wiki\/Jinnah_International_Airport", "natlscale": 50.0, "comments": null, "wikidataid": "Q61052", "name_ar": "مطار جناح الدولي", "name_bn": "জিন্নাহ আন্তর্জাতিক বিমানবন্দর", "name_de": "Karachi\/Jinnah International Airport", "name_en": "Jinnah International Airport", "name_es": "Aeropuerto Internacional Jinnah", "name_fr": "aéroport international Jinnah", "name_el": null, "name_hi": "जिन्ना अंतरराष्ट्रीय हवाई अड्डे के", "name_hu": null, "name_id": "Bandar Udara Internasional Jinnah", "name_it": "Aeroporto Internazionale Jinnah", "name_ja": "ジンナー国際空港", "name_ko": "진나 국제공항", "name_nl": "Jinnah International Airport", "name_pl": "Port lotniczy Karaczi", "name_pt": "Aeroporto Internacional Jinnah", "name_ru": "Джинна", "name_sv": null, "name_tr": null, "name_vi": "Sân bay quốc tế Jinnah", "name_zh": "真纳国际机场", "wdid_score": 2, "ne_id": 1159124383, "id": "KHI", "className": "KHI" }, "geometry": { "type": "Point", "coordinates": [ 67.2, 24.9 ] } },
{ "type": "Feature", "properties": { "scalerank": 4, "featurecla": "Airport", "type": "major", "name": "Vilnius", "abbrev": "VNO", "location": "terminal", "gps_code": "EYVI", "iata_code": "VNO", "wikipedia": "http:\/\/en.wikipedia.org\/wiki\/Vilnius_International_Airport", "natlscale": 50.0, "comments": null, "wikidataid": "Q847711", "name_ar": "مطار فيلنيوس", "name_bn": null, "name_de": "Flughafen Vilnius", "name_en": "Vilnius Airport", "name_es": "Aeropuerto Internacional de Vilna", "name_fr": "aéroport international de Vilnius", "name_el": null, "name_hi": null, "name_hu": null, "name_id": "Bandar Udara Internasional Vilnius", "name_it": "Aeroporto Internazionale di Vilnius", "name_ja": "ヴィリニュス国際空港", "name_ko": null, "name_nl": "Luchthaven Vilnius", "name_pl": "Port lotniczy Wilno", "name_pt": "Aeroporto de Vilnius", "name_ru": "Вильнюсский международный аэропорт", "name_sv": "Vilnius internationella flygplats", "name_tr": "Vilnius Uluslararası Havalimanı", "name_vi": "Sân bay quốc tế Vilnius", "name_zh": "维尔纽斯国际机场", "wdid_score": 4, "ne_id": 1159124435, "id": "VNO", "className": "VNO" }, "geometry": { "type": "Point", "coordinates": [ 25.3, 54.6 ] } },
{ "type": "Feature", "properties": { "scalerank": 4, "featurecla": "Airport", "type": "major", "name": "Macdonald-Cartier Int'l", "abbrev": "YOW", "location": "terminal", "gps_code": "CYOW", "iata_code": "YOW", "wikipedia": "http:\/\/en.wikipedia.org\/wiki\/Ottawa_Macdonald-Cartier_International_Airport", "natlscale": 50.0, "comments": null, "wikidataid": "Q1319833", "name_ar": null, "name_bn": null, "name_de": "Flughafen Ottawa", "name_en": "Ottawa Macdonald-Cartier International Airport", "name_es": "Aeropuerto Internacional de Ottawa", "name_fr": "aéroport international Macdonald-Cartier d'Ottawa", "name_el": null, "name_hi": null, "name_hu": null, "name_id": "Bandar Udara Internasional Ottawa Macdonald-Cartier", "name_it": "Aeroporto Internazionale di Ottawa-Macdonald-Cartier", "name_ja": "オタワ・マクドナルド・カルティエ国際空港", "name_ko": "오타와 맥도널드 카르티에 국제공항", "name_nl": "Ottawa Macdonald-Cartier International Airport", "name_pl": "Port lotniczy Ottawa", "name_pt": "Aeroporto Internacional Ottawa Macdonald-Cartier", "name_ru": "Международный аэропорт имени Макдональда — Картье", "name_sv": "Ottawa Macdonald-Cartier International Airport", "name_tr": null, "name_vi": "Sân bay quốc tế Ottawa Mcdonald-Cartier", "name_zh": "渥太华麦克唐纳－卡蒂埃国际机场", "wdid_score": 4, "ne_id": 1159124527, "id": "YOW", "className": "YOW" }, "geometry": { "type": "Point", "coordinates": [ -75.7, 45.3 ] } },
{ "type": "Feature", "properties": { "scalerank": 4, "featurecla": "Airport", "type": "mid", "name": "Abidjan Port Bouet", "abbrev": "ABJ", "location": "terminal", "gps_code": "DIAP", "iata_code": "ABJ", "wikipedia": "http:\/\/en.wikipedia.org\/wiki\/Port_Bouet_Airport", "natlscale": 50.0, "comments": null, "wikidataid": "Q1165280", "name_ar": "مطار أبيدجان بورت بويه", "name_bn": null, "name_de": "Flughafen Abidjan", "name_en": "Port Bouet Airport", "name_es": "Aeropuerto Port Bouet", "name_fr": "aéroport international Félix-Houphouët-Boigny", "name_el": null, "name_hi": null, "name_hu": null, "name_id": "Bandar Udara Port Bouet", "name_it": "Aeroporto Port Bouet", "name_ja": "フェリックス・ウフエ・ボワニ国際空港", "name_ko": null, "name_nl": "Luchthaven Port Bouet", "name_pl": "Port lotniczy Abidżan", "name_pt": "Aeroporto Port Bouet", "name_ru": null, "name_sv": "Port Bouet Airport", "name_tr": null, "name_vi": "Sân bay Port Bouet", "name_zh": "阿必尚國際機場", "wdid_score": 4, "ne_id": 1159124545, "id": "ABJ", "className": "ABJ" }, "geometry": { "type": "Point", "coordinates": [ -3.9, 5.3 ] } },
{ "type": "Feature", "properties": { "scalerank": 4, "featurecla": "Airport", "type": "major", "name": "Kotoka Int'l", "abbrev": "ACC", "location": "terminal", "gps_code": "DGAA", "iata_code": "ACC", "wikipedia": "http:\/\/en.wikipedia.org\/wiki\/Kotoka_International_Airport", "natlscale": 50.0, "comments": null, "wikidataid": "Q177689", "name_ar": "مطار كوتوكا الدولي", "name_bn": null, "name_de": "Flughafen Accra", "name_en": "Kotoka International Airport", "name_es": "Aeropuerto Internacional de Kotoka", "name_fr": "aéroport international de Kotoka", "name_el": null, "name_hi": "कोटोका हवाई अड्डा", "name_hu": "Kotoka nemzetközi repülőtér", "name_id": "Bandar Udara Internasional Kotoka", "name_it": "Aeroporto Internazionale Kotoka", "name_ja": "コトカ国際空港", "name_ko": "코토카 국제공항", "name_nl": "Luchthaven Kotoka Internationaal", "name_pl": "Port lotniczy Akra", "name_pt": "Aeroporto Internacional Kotoka", "name_ru": "Котока", "name_sv": "Kotoka", "name_tr": null, "name_vi": "Sân bay quốc tế Kotoka", "name_zh": "科托卡国际机场", "wdid_score": 4, "ne_id": 1159124577, "id": "ACC", "className": "ACC" }, "geometry": { "type": "Point", "coordinates": [ -0.2, 5.6 ] } },
{ "type": "Feature", "properties": { "scalerank": 4, "featurecla": "Airport", "type": "mid", "name": "Bole Int'l", "abbrev": "ADD", "location": "terminal", "gps_code": "HAAB", "iata_code": "ADD", "wikipedia": "http:\/\/en.wikipedia.org\/wiki\/Bole_International_Airport", "natlscale": 50.0, "comments": null, "wikidataid": "Q44923", "name_ar": "مطار أديس أبابا بول الدولي", "name_bn": null, "name_de": "Flughafen Addis Abeba", "name_en": "Addis Ababa Bole International Airport", "name_es": "Aeropuerto Internacional Bole", "name_fr": "aéroport international de Bole", "name_el": null, "name_hi": "बोले अन्तर्राष्ट्रीय विमानक्षेत्र", "name_hu": "Bole nemzetközi repülőtér", "name_id": "Bandar Udara Internasional Bole", "name_it": "Aeroporto di Addis Abeba - Bole", "name_ja": "ボレ国際空港", "name_ko": "볼레 국제공항", "name_nl": "Luchthaven Bole Internationaal", "name_pl": "Port lotniczy Addis Abeba", "name_pt": "Aeroporto Internacional Bole", "name_ru": "Боле", "name_sv": "Bole International Airport", "name_tr": "Bole Uluslararası Havalimanı", "name_vi": "Sân bay quốc tế Bole", "name_zh": "博莱国际机场", "wdid_score": 4, "ne_id": 1159124593, "id": "ADD", "className": "ADD" }, "geometry": { "type": "Point", "coordinates": [ 38.8, 9.0 ] } },
{ "type": "Feature", "properties": { "scalerank": 4, "featurecla": "Airport", "type": "mid", "name": "Adelaide Int'l", "abbrev": "ADL", "location": "terminal", "gps_code": "YPAD", "iata_code": "ADL", "wikipedia": "http:\/\/en.wikipedia.org\/wiki\/Adelaide_International_Airport", "natlscale": 50.0, "comments": null, "wikidataid": "Q14302", "name_ar": null, "name_bn": null, "name_de": "Flughafen Adelaide", "name_en": "Adelaide Airport", "name_es": "Aeropuerto Internacional de Adelaida", "name_fr": "aéroport international d'Adélaïde", "name_el": null, "name_hi": null, "name_hu": null, "name_id": "Bandar Udara Internasional Adelaide", "name_it": "aeroporto di Adelaide", "name_ja": "アデレード空港", "name_ko": "애들레이드 공항", "name_nl": "Adelaide Airport", "name_pl": "Port lotniczy Adelaide", "name_pt": "Aeroporto Internacional de Adelaide", "name_ru": "Аделаида", "name_sv": "Adelaide Airport", "name_tr": null, "name_vi": "Sân bay quốc tế Adelaide", "name_zh": "阿德萊德機場", "wdid_score": 4, "ne_id": 1159124621, "id": "ADL", "className": "ADL" }, "geometry": { "type": "Point", "coordinates": [ 138.5, -34.9 ] } },
{ "type": "Feature", "properties": { "scalerank": 4, "featurecla": "Airport", "type": "major", "name": "Almaty Int'l", "abbrev": "ALA", "location": "terminal", "gps_code": "UAAA", "iata_code": "ALA", "wikipedia": "http:\/\/en.wikipedia.org\/wiki\/Almaty_International_Airport", "natlscale": 50.0, "comments": null, "wikidataid": "Q858844", "name_ar": "مطار ألماتي الدولي", "name_bn": null, "name_de": "Flughafen Almaty", "name_en": "Almaty International Airport", "name_es": "Aeropuerto Internacional de Almatý", "name_fr": "aéroport international d'Almaty", "name_el": null, "name_hi": "अल्माटी अन्तर्राष्ट्रीय विमानक्षेत्र", "name_hu": null, "name_id": "Bandar Udara Internasional Almaty", "name_it": "Aeroporto Internazionale di Almaty", "name_ja": "アルマトイ国際空港", "name_ko": "알마티 국제공항", "name_nl": "Luchthaven Almaty", "name_pl": "Port lotniczy Ałmaty", "name_pt": "Aeroporto Internacional de Almaty", "name_ru": "Алматы", "name_sv": "Almatys internationella flygplats", "name_tr": "Almatı Havalimanı", "name_vi": "Sân bay quốc tế Almaty", "name_zh": "阿拉木图国际机场", "wdid_score": 4, "ne_id": 1159124639, "id": "ALA", "className": "ALA" }, "geometry": { "type": "Point", "coordinates": [ 77.0, 43.3 ] } },
{ "type": "Feature", "properties": { "scalerank": 4, "featurecla": "Airport", "type": "major", "name": "Houari Boumediene", "abbrev": "ALG", "location": "terminal", "gps_code": "DAAG", "iata_code": "ALG", "wikipedia": "http:\/\/en.wikipedia.org\/wiki\/Houari_Boumedienne_Airport", "natlscale": 50.0, "comments": null, "wikidataid": "Q623452", "name_ar": "مطار هواري بومدين الدولي", "name_bn": null, "name_de": "Flughafen Algier", "name_en": "Houari Boumediene Airport", "name_es": "Aeropuerto Internacional Houari Boumedienne", "name_fr": "aéroport Houari Boumédiène", "name_el": null, "name_hi": null, "name_hu": null, "name_id": "Bandar Udara Houari Boumedienne", "name_it": "Aeroporto di Algeri-Houari Boumediene", "name_ja": "ウアリ・ブーメディアン空港", "name_ko": "우아리 부메디엔 공항", "name_nl": "Luchthaven Houari Boumedienne", "name_pl": "Port lotniczy Algier", "name_pt": "Aeroporto Internacional Houari Boumedienne", "name_ru": null, "name_sv": "Algiers Houari Boumediene Airport", "name_tr": null, "name_vi": "Sân bay Houari Boumedienne", "name_zh": "阿尔及尔胡阿里·布迈丁机场", "wdid_score": 4, "ne_id": 1159124651, "id": "ALG", "className": "ALG" }, "geometry": { "type": "Point", "coordinates": [ 3.2, 36.7 ] } },
{ "type": "Feature", "properties": { "scalerank": 4, "featurecla": "Airport", "type": "major", "name": "Surcin", "abbrev": "BEG", "location": "terminal", "gps_code": "LYBE", "iata_code": "BEG", "wikipedia": "http:\/\/en.wikipedia.org\/wiki\/Belgrade_Nikola_Tesla_Airport", "natlscale": 50.0, "comments": null, "wikidataid": "Q127955", "name_ar": "مطار نيكولا تسلا في بلغراد", "name_bn": null, "name_de": "Nikola-Tesla-Flughafen Belgrad", "name_en": "Belgrade Nikola Tesla Airport", "name_es": "Aeropuerto de Belgrado-Nikola Tesla", "name_fr": "aéroport Nikola-Tesla de Belgrade", "name_el": "Διεθνές Αεροδρόμιο Νίκολα Τέσλα", "name_hi": null, "name_hu": null, "name_id": "Bandar Udara Nikola Tesla Beograd", "name_it": "Aeroporto di Belgrado-Nikola Tesla", "name_ja": "ベオグラード・ニコラ・テスラ空港", "name_ko": "베오그라드 국제공항", "name_nl": "Belgrado Nikola Tesla Airport", "name_pl": "Port lotniczy Belgrad", "name_pt": "Aeroporto Internacional de Belgrado", "name_ru": "Белград", "name_sv": "Nikola Tesla-flygplatsen", "name_tr": "Belgrad Nikola Tesla Havalimanı", "name_vi": "Sân bay Belgrade Nikola Tesla", "name_zh": "貝爾格勒國際機場", "wdid_score": 4, "ne_id": 1159124759, "id": "BEG", "className": "BEG" }, "geometry": { "type": "Point", "coordinates": [ 20.3, 44.8 ] } },
{ "type": "Feature", "properties": { "scalerank": 4, "featurecla": "Airport", "type": "major", "name": "Beirut Int'l", "abbrev": "BEY", "location": "terminal", "gps_code": "OLBA", "iata_code": "BEY", "wikipedia": "http:\/\/en.wikipedia.org\/wiki\/Beirut_Rafic_Hariri_International_Airport", "natlscale": 50.0, "comments": null, "wikidataid": "Q668329", "name_ar": "مطار بيروت رفيق الحريري الدولي", "name_bn": null, "name_de": "Flughafen Beirut", "name_en": "Beirut–Rafic Hariri International Airport", "name_es": "Aeropuerto Internacional Rafic Hariri", "name_fr": "aéroport international de Beyrouth - Rafic Hariri", "name_el": null, "name_hi": null, "name_hu": null, "name_id": "Bandar Udara Internasional Rafik Hariri", "name_it": "Aeroporto Internazionale di Beirut-Rafic Hariri", "name_ja": "ラフィク・ハリリ国際空港", "name_ko": "베이루트 라픽 국제공항", "name_nl": "Rafik Hariri International Airport", "name_pl": "Port lotniczy Bejrut", "name_pt": "Aeroporto Internacional de Beirute", "name_ru": "Аэропорт имени Рафика Харири", "name_sv": "Rafic Hariri International Airport", "name_tr": "Beyrut Refik Hariri Uluslararası Havalimanı", "name_vi": "Sân bay quốc tế Beirut Rafic Hariri", "name_zh": "贝鲁特－拉菲克·哈里里国际机场", "wdid_score": 4, "ne_id": 1159124775, "id": "BEY", "className": "BEY" }, "geometry": { "type": "Point", "coordinates": [ 35.5, 33.8 ] } },
{ "type": "Feature", "properties": { "scalerank": 4, "featurecla": "Airport", "type": "major", "name": "Netaji Subhash Chandra Bose Int'l", "abbrev": "CCU", "location": "terminal", "gps_code": "VECC", "iata_code": "CCU", "wikipedia": "http:\/\/en.wikipedia.org\/wiki\/Netaji_Subhash_Chandra_Bose_International_Airport", "natlscale": 50.0, "comments": null, "wikidataid": "Q388535", "name_ar": "مطار نيتاجي سوبهاس شاندرا بوس الدولي", "name_bn": "নেতাজি সুভাষচন্দ্র বসু আন্তর্জাতিক বিমানবন্দর", "name_de": "Flughafen Kolkata", "name_en": "Netaji Subhas Chandra Bose International Airport", "name_es": "Aeropuerto Internacional Netaji Subhash Chandra Bose", "name_fr": "aéroport international Netaji-Subhash-Chandra-Bose", "name_el": null, "name_hi": "नेताजी सुभाष चंद्र बोस अन्तर्राष्ट्रीय हवाई अड्डा", "name_hu": null, "name_id": "Bandar Udara Internasional Netaji Subhash Chandra Bose", "name_it": "Aeroporto Internazionale Netaji Subhash Chandra Bose", "name_ja": "ネータージー・スバース・チャンドラ・ボース国際空港", "name_ko": "네타지수바시 찬드라 보스 국제공항", "name_nl": "Netaji Subhas Chandra Bose International Airport", "name_pl": "Port lotniczy Kolkata", "name_pt": "Aeroporto Internacional Netaji Subhas Chandra Bose", "name_ru": "Международный аэропорт имени Нетаджи Субхас Чандра Боса", "name_sv": "Netaji Subhash Chandra Bose International Airport", "name_tr": null, "name_vi": "Sân bay quốc tế Netaji Subhash Chandra Bose", "name_zh": "内塔吉·苏巴斯·钱德拉·鲍斯国际机场", "wdid_score": 4, "ne_id": 1159124929, "id": "CCU", "className": "CCU" }, "geometry": { "type": "Point", "coordinates": [ 88.4, 22.6 ] } },
{ "type": "Feature", "properties": { "scalerank": 4, "featurecla": "Airport", "type": "major", "name": "Cancún", "abbrev": "CUN", "location": "terminal", "gps_code": "MMUN", "iata_code": "CUN", "wikipedia": "http:\/\/en.wikipedia.org\/wiki\/Canc%C3%BAn_International_Airport", "natlscale": 50.0, "comments": null, "wikidataid": "Q641967", "name_ar": null, "name_bn": null, "name_de": "Flughafen Cancún", "name_en": "Cancún International Airport", "name_es": "Aeropuerto Internacional de Cancún", "name_fr": "aéroport international de Cancún", "name_el": null, "name_hi": null, "name_hu": null, "name_id": "Bandar Udara Internasional Cancún", "name_it": "Aeroporto Internazionale di Cancún", "name_ja": "カンクン国際空港", "name_ko": "캉쿤 국제공항", "name_nl": "Internationale Luchthaven van Cancun", "name_pl": "Port lotniczy Cancún", "name_pt": "Aeroporto Internacional de Cancún", "name_ru": "Канкун", "name_sv": "Cancún International Airport", "name_tr": null, "name_vi": "Sân bay quốc tế Cancún", "name_zh": "坎昆國際機場", "wdid_score": 4, "ne_id": 1159125049, "id": "CUN", "className": "CUN" }, "geometry": { "type": "Point", "coordinates": [ -86.9, 21.0 ] } },
{ "type": "Feature", "properties": { "scalerank": 4, "featurecla": "Airport", "type": "mid", "name": "Zia Int'l Dhaka", "abbrev": "DAC", "location": "terminal", "gps_code": "VGHS", "iata_code": "DAC", "wikipedia": "http:\/\/en.wikipedia.org\/wiki\/Zia_International_Airport", "natlscale": 50.0, "comments": null, "wikidataid": "Q30603", "name_ar": "مطار شاه جلال الدولي", "name_bn": "শাহজালাল আন্তর্জাতিক বিমানবন্দর", "name_de": "Flughafen Dhaka", "name_en": "Shahjalal International Airport", "name_es": "Aeropuerto Internacional Hazrat Shahjalal", "name_fr": "aéroport international Shah Jalal", "name_el": null, "name_hi": "शाह जलाल अन्तर्राष्ट्रीय विमानक्षेत्र", "name_hu": null, "name_id": "Bandar Udara Internasional Shahjalal", "name_it": "Aeroporto Internazionale di Dacca-Hazrat Shahjalal", "name_ja": "シャージャラル国際空港", "name_ko": "샤잘랄 국제공항", "name_nl": "Luchthaven Dhaka", "name_pl": "Port lotniczy Dhaka", "name_pt": "Aeroporto Internacional Hazrat Shahjalal", "name_ru": "аэропорт Шахджалал", "name_sv": "Kurmitola", "name_tr": null, "name_vi": "Sân bay quốc tế Zia", "name_zh": "沙阿贾拉勒国际机场", "wdid_score": 4, "ne_id": 1159125077, "id": "DAC", "className": "DAC" }, "geometry": { "type": "Point", "coordinates": [ 90.4, 23.8 ] } },
{ "type": "Feature", "properties": { "scalerank": 4, "featurecla": "Airport", "type": "major", "name": "Glasgow Int'l", "abbrev": "GLA", "location": "terminal", "gps_code": "EGPF", "iata_code": "GLA", "wikipedia": "http:\/\/en.wikipedia.org\/wiki\/Glasgow_International_Airport", "natlscale": 50.0, "comments": null, "wikidataid": "Q8721", "name_ar": "مطار غلاسكو الدولي", "name_bn": null, "name_de": "Flughafen Glasgow", "name_en": "Glasgow Airport", "name_es": "Aeropuerto Internacional de Glasgow", "name_fr": "aéroport international de Glasgow", "name_el": "Αεροδρόμιο της Γλασκώβης", "name_hi": null, "name_hu": null, "name_id": "Bandar Udara Internasional Glasgow", "name_it": "Aeroporto Internazionale di Glasgow", "name_ja": "グラスゴー国際空港", "name_ko": "글래스고 공항", "name_nl": "Glasgow International Airport", "name_pl": "Port lotniczy Glasgow", "name_pt": "Aeroporto de Glasgow", "name_ru": "Глазго Международный", "name_sv": "Glasgow Airport", "name_tr": null, "name_vi": "Sân bay quốc tế Glasgow", "name_zh": "格拉斯哥国际机场", "wdid_score": 4, "ne_id": 1159125213, "id": "GLA", "className": "GLA" }, "geometry": { "type": "Point", "coordinates": [ -4.4, 55.9 ] } },
{ "type": "Feature", "properties": { "scalerank": 4, "featurecla": "Airport", "type": "major", "name": "Noi Bai", "abbrev": "HAN", "location": "terminal", "gps_code": "VVNB", "iata_code": "HAN", "wikipedia": "http:\/\/en.wikipedia.org\/wiki\/Noi_Bai_International_Airport", "natlscale": 50.0, "comments": null, "wikidataid": "Q844098", "name_ar": null, "name_bn": null, "name_de": "Flughafen Hanoi", "name_en": "Noi Bai International Airport", "name_es": "Aeropuerto Internacional de Nội Bài", "name_fr": "aéroport international de Nội Bài", "name_el": null, "name_hi": null, "name_hu": null, "name_id": "Bandar Udara Internasional Noi Bai", "name_it": "Aeroporto Internazionale Noi Bai", "name_ja": "ノイバイ国際空港", "name_ko": "노이바이 국제공항", "name_nl": "Internationale Luchthaven Nội Bài", "name_pl": "Port lotniczy Nội Bài w Hanoi", "name_pt": "Aeroporto Internacional de Noi Bai", "name_ru": "Ханой", "name_sv": "Noi Bai Internationell flygplats", "name_tr": null, "name_vi": "Sân bay quốc tế Nội Bài", "name_zh": "內排國際機場", "wdid_score": 4, "ne_id": 1159125235, "id": "HAN", "className": "HAN" }, "geometry": { "type": "Point", "coordinates": [ 105.8, 21.2 ] } },
{ "type": "Feature", "properties": { "scalerank": 4, "featurecla": "Airport", "type": "major", "name": "King Abdul Aziz Int'l", "abbrev": "JED", "location": "terminal", "gps_code": "OEJN", "iata_code": "JED", "wikipedia": "http:\/\/en.wikipedia.org\/wiki\/King_Abdulaziz_International_Airport", "natlscale": 50.0, "comments": null, "wikidataid": "Q153592", "name_ar": "مطار الملك عبد العزيز الدولي", "name_bn": "বাদশাহ আব্দুলাজিজ আন্তর্জাতিক বিমানবন্দর", "name_de": "Flughafen Dschidda", "name_en": "King Abdulaziz International Airport", "name_es": "Aeropuerto Internacional Rey Abdulaziz", "name_fr": "aéroport international Roi-Abdelaziz", "name_el": null, "name_hi": "किंग अब्दुल अज़ीज़ अन्तर्राष्ट्रीय विमानक्षेत्र", "name_hu": null, "name_id": "Bandar Udara Internasional King Abdul Aziz Jeddah", "name_it": "Aeroporto Internazionale di Gedda-Re Abd al-Aziz", "name_ja": "キング・アブドゥルアズィーズ国際空港", "name_ko": "킹 압둘아지즈 국제공항", "name_nl": "King Abdulaziz International Airport", "name_pl": "Port lotniczy Dżudda", "name_pt": "Aeroporto Internacional Rei Abdulaziz", "name_ru": "Король Абдул-Азиз", "name_sv": null, "name_tr": null, "name_vi": "Sân bay quốc tế quốc vương Abdulaziz", "name_zh": "阿卜杜勒-阿齐兹国王国际机场", "wdid_score": 4, "ne_id": 1159125253, "id": "JED", "className": "JED" }, "geometry": { "type": "Point", "coordinates": [ 39.2, 21.7 ] } },
{ "type": "Feature", "properties": { "scalerank": 4, "featurecla": "Airport", "type": "mid", "name": "Tribhuvan Int'l", "abbrev": "KTM", "location": "terminal", "gps_code": "VNKT", "iata_code": "KTM", "wikipedia": "http:\/\/en.wikipedia.org\/wiki\/Tribhuvan_International_Airport", "natlscale": 50.0, "comments": null, "wikidataid": "Q61066", "name_ar": "مطار تريبوفان الدولي", "name_bn": "ত্রিভুবন আন্তর্জাতিক বিমানবন্দর", "name_de": "Flughafen Kathmandu", "name_en": "Tribhuvan International Airport", "name_es": "Aeropuerto Internacional de Katmandú", "name_fr": "Tribhuvan International Airport", "name_el": null, "name_hi": "त्रिभुवन अन्तर्राष्ट्रीय विमानक्षेत्र", "name_hu": "Tribhuvan nemzetközi repülőtér", "name_id": "Bandar Udara Internasional Tribhuvan", "name_it": "Aeroporto Internazionale Tribhuvan", "name_ja": "トリブバン国際空港", "name_ko": "트리부반 국제공항", "name_nl": "Internationale Luchthaven Tribhuvan", "name_pl": "Port lotniczy Katmandu", "name_pt": "Aeroporto Internacional Tribhuvan", "name_ru": "Трибхуван", "name_sv": null, "name_tr": "Tribhuvan Uluslararası Havaalanı", "name_vi": "Sân bay quốc tế Tribhuvan", "name_zh": "特里布万国际机场", "wdid_score": 4, "ne_id": 1159125303, "id": "KTM", "className": "KTM" }, "geometry": { "type": "Point", "coordinates": [ 85.4, 27.7 ] } },
{ "type": "Feature", "properties": { "scalerank": 4, "featurecla": "Airport", "type": "major", "name": "Pulkovo 2", "abbrev": "LED", "location": "terminal", "gps_code": "ULLI", "iata_code": "LED", "wikipedia": "http:\/\/en.wikipedia.org\/wiki\/Pulkovo_Airport", "natlscale": 50.0, "comments": null, "wikidataid": "Q690122", "name_ar": "مطار بولكوفو", "name_bn": null, "name_de": "Flughafen Pulkowo", "name_en": "Pulkovo Airport", "name_es": "Aeropuerto Internacional Púlkovo", "name_fr": "aéroport international Pulkovo", "name_el": "Διεθνές Αεροδρόμιο Πούλκοβο", "name_hi": null, "name_hu": null, "name_id": "Bandar Udara Pulkovo", "name_it": "Aeroporto di San Pietroburgo-Pulkovo", "name_ja": "プルコヴォ空港", "name_ko": "풀코보 국제공항", "name_nl": "Luchthaven Poelkovo", "name_pl": "Port lotniczy Petersburg-Pułkowo", "name_pt": "Aeroporto de Pulkovo", "name_ru": "Пулково", "name_sv": "Pulkovo flygplats", "name_tr": "Pulkovo Havalimanı", "name_vi": "Sân bay Pulkovo", "name_zh": "普爾科沃機場", "wdid_score": 4, "ne_id": 1159125331, "id": "LED", "className": "LED" }, "geometry": { "type": "Point", "coordinates": [ 30.3, 59.8 ] } },
{ "type": "Feature", "properties": { "scalerank": 4, "featurecla": "Airport", "type": "mid", "name": "Allama Iqbal Int'l", "abbrev": "LHE", "location": "terminal", "gps_code": "OPLA", "iata_code": "LHE", "wikipedia": "http:\/\/en.wikipedia.org\/wiki\/Allama_Iqbal_International_Airport", "natlscale": 50.0, "comments": null, "wikidataid": "Q60879", "name_ar": "مطار علامه إقبال الدولي", "name_bn": "আল্লামা ইকবাল আন্তর্জাতিক বিমানবন্দর", "name_de": "Allama Iqbal International Airport", "name_en": "Allama Iqbal International Airport", "name_es": "Aeropuerto Internacional Allama Iqbal", "name_fr": "aéroport international Allama Iqbal", "name_el": null, "name_hi": "अल्लामा इकबाल अन्तर्राष्ट्रीय विमानक्षेत्र", "name_hu": null, "name_id": "Bandar Udara Internasional Allama Iqbal", "name_it": "Aeroporto Internazionale Allama Iqbal", "name_ja": "アッラーマ・イクバール国際空港", "name_ko": "알라마 이크발 국제공항", "name_nl": "Allama Iqbal International Airport", "name_pl": "Port lotniczy Lahaur", "name_pt": null, "name_ru": "Лахор", "name_sv": null, "name_tr": null, "name_vi": "Sân bay quốc tế Allama Iqbal", "name_zh": "拉合尔阿拉马·伊克巴勒国际机场", "wdid_score": 4, "ne_id": 1159125343, "id": "LHE", "className": "LHE" }, "geometry": { "type": "Point", "coordinates": [ 74.4, 31.5 ] } },
{ "type": "Feature", "properties": { "scalerank": 4, "featurecla": "Airport", "type": "major", "name": "Lagos Murtala Muhammed", "abbrev": "LOS", "location": "terminal", "gps_code": "DNMM", "iata_code": "LOS", "wikipedia": "http:\/\/en.wikipedia.org\/wiki\/Murtala_Mohammed_International_Airport", "natlscale": 50.0, "comments": null, "wikidataid": "Q1043631", "name_ar": "مطار مورتالا محمد الدولي", "name_bn": null, "name_de": "Flughafen Lagos", "name_en": "Murtala Muhammed International Airport", "name_es": "Aeropuerto Internacional Murtala Muhammed", "name_fr": "aéroport international Murtala-Muhammed", "name_el": null, "name_hi": "मुर्तला मुहम्मद हवाई अड्डा", "name_hu": null, "name_id": "Bandar Udara Internasional Murtala Muhammed", "name_it": "Aeroporto Internazionale Murtala Muhammed", "name_ja": "ムルタラ・モハンマド国際空港", "name_ko": "무르탈라 모하메드 국제공항", "name_nl": "Murtala Muhammed International Airport", "name_pl": "Port lotniczy Lagos", "name_pt": "Aeroporto Internacional Murtala Muhammed", "name_ru": "Международный аэропорт имени Мурталы Мохаммеда", "name_sv": null, "name_tr": "Murtala Muhammed Uluslararası Havalimanı", "name_vi": "Sân bay quốc tế Murtala Muhammed", "name_zh": "穆尔塔拉·穆罕默德国际机场", "wdid_score": 4, "ne_id": 1159125373, "id": "LOS", "className": "LOS" }, "geometry": { "type": "Point", "coordinates": [ 3.3, 6.6 ] } },
{ "type": "Feature", "properties": { "scalerank": 4, "featurecla": "Airport", "type": "major", "name": "Chennai Int'l", "abbrev": "MAA", "location": "terminal", "gps_code": "VOMM", "iata_code": "MAA", "wikipedia": "http:\/\/en.wikipedia.org\/wiki\/Chennai_International_Airport", "natlscale": 50.0, "comments": null, "wikidataid": "Q502670", "name_ar": "مطار تشيناي الدولي", "name_bn": "চেন্নাই আন্তর্জাতিক বিমানবন্দর", "name_de": "Flughafen Chennai", "name_en": "Chennai International Airport", "name_es": "Aeropuerto Internacional de Chennai", "name_fr": "aéroport international de Chennai", "name_el": null, "name_hi": "चेन्नई अंतर्राष्ट्रीय हवाई अड्डा", "name_hu": "Chennai nemzetközi repülőtér", "name_id": "Bandar Udara Internasional Chennai", "name_it": "Aeroporto Internazionale di Chennai", "name_ja": "チェンナイ国際空港", "name_ko": "첸나이 국제공항", "name_nl": "Chennai International Airport", "name_pl": "Port lotniczy Ćennaj", "name_pt": "Aeroporto Internacional de Chennai", "name_ru": "Ченнаи", "name_sv": "Chennai internationella flygplats", "name_tr": null, "name_vi": "Sân bay quốc tế Chennai", "name_zh": "金奈国际机场", "wdid_score": 4, "ne_id": 1159125429, "id": "MAA", "className": "MAA" }, "geometry": { "type": "Point", "coordinates": [ 80.2, 13.0 ] } },
{ "type": "Feature", "properties": { "scalerank": 4, "featurecla": "Airport", "type": "major", "name": "Mashhad", "abbrev": "MHD", "location": "terminal", "gps_code": "OIMM", "iata_code": "MHD", "wikipedia": "http:\/\/en.wikipedia.org\/wiki\/Mashhad_International_Airport", "natlscale": 50.0, "comments": null, "wikidataid": "Q1152024", "name_ar": "مطار مشهد الدولي", "name_bn": null, "name_de": "Maschhad International Airport", "name_en": "Mashhad International Airport", "name_es": "Aeropuerto Internacional de Mashhad", "name_fr": "aéroport international Shahid Hashemi Nejad", "name_el": null, "name_hi": null, "name_hu": null, "name_id": "Bandar Udara Internasional Mashhad", "name_it": null, "name_ja": "マシュハド国際空港", "name_ko": null, "name_nl": "Mashhad International Airport", "name_pl": "port lotniczy Meszhed", "name_pt": "Aeroporto Internacional de Mashhad", "name_ru": "Мешхед", "name_sv": null, "name_tr": "Meşhed Havalimanı", "name_vi": null, "name_zh": "沙希德·哈希米内贾德国际机场", "wdid_score": 4, "ne_id": 1159125495, "id": "MHD", "className": "MHD" }, "geometry": { "type": "Point", "coordinates": [ 59.6, 36.2 ] } },
{ "type": "Feature", "properties": { "scalerank": 4, "featurecla": "Airport", "type": "major", "name": "Miami Int'l", "abbrev": "MIA", "location": "terminal", "gps_code": "KMIA", "iata_code": "MIA", "wikipedia": "http:\/\/en.wikipedia.org\/wiki\/Miami_International_Airport", "natlscale": 50.0, "comments": null, "wikidataid": "Q127530", "name_ar": "مطار ميامي الدولي", "name_bn": "মায়ামি আন্তর্জাতিক বিমানবন্দর", "name_de": "Miami International Airport", "name_en": "Miami International Airport", "name_es": "Aeropuerto Internacional de Miami", "name_fr": "aéroport international de Miami", "name_el": null, "name_hi": null, "name_hu": null, "name_id": "Bandar Udara Internasional Miami", "name_it": "Aeroporto Internazionale di Miami", "name_ja": "マイアミ国際空港", "name_ko": "마이애미 국제공항", "name_nl": "Internationale Luchthaven Miami", "name_pl": "Port lotniczy Miami", "name_pt": "Aeroporto Internacional de Miami", "name_ru": "Майами", "name_sv": "Miami International Airport", "name_tr": null, "name_vi": "Sân bay quốc tế Miami", "name_zh": "邁亞密國際機場", "wdid_score": 4, "ne_id": 1159125509, "id": "MIA", "className": "MIA" }, "geometry": { "type": "Point", "coordinates": [ -80.3, 25.8 ] } },
{ "type": "Feature", "properties": { "scalerank": 4, "featurecla": "Airport", "type": "major", "name": "Luqa", "abbrev": "MLA", "location": "terminal", "gps_code": "LMML", "iata_code": "MLA", "wikipedia": "http:\/\/en.wikipedia.org\/wiki\/Malta_International_Airport", "natlscale": 50.0, "comments": null, "wikidataid": "Q672289", "name_ar": "مطار مالطا الدولي", "name_bn": null, "name_de": "Flughafen Malta", "name_en": "Malta International Airport", "name_es": "Aeropuerto Internacional de Malta", "name_fr": "aéroport international de Malte", "name_el": null, "name_hi": null, "name_hu": "Máltai nemzetközi repülőtér", "name_id": "Bandar Udara Internasional Malta", "name_it": "Aeroporto Internazionale di Luca", "name_ja": "マルタ国際空港", "name_ko": null, "name_nl": "Luchthaven Malta", "name_pl": "Port lotniczy Malta", "name_pt": "Aeroporto Internacional de Malta", "name_ru": "Мальта", "name_sv": "Maltas internationella flygplats", "name_tr": null, "name_vi": "Sân bay quốc tế Malta", "name_zh": "馬耳他國際機場", "wdid_score": 2, "ne_id": 1159125535, "id": "MLA", "className": "MLA" }, "geometry": { "type": "Point", "coordinates": [ 14.5, 35.8 ] } },
{ "type": "Feature", "properties": { "scalerank": 4, "featurecla": "Airport", "type": "major", "name": "Portland Int'l", "abbrev": "PDX", "location": "terminal", "gps_code": "KPDX", "iata_code": "PDX", "wikipedia": "http:\/\/en.wikipedia.org\/wiki\/Portland_International_Airport", "natlscale": 50.0, "comments": null, "wikidataid": "Q1425566", "name_ar": "مطار بورتلاند الدولي", "name_bn": "পোর্টল্যান্ড আন্তর্জাতিক বিমানবন্দর", "name_de": "Flughafen Portland", "name_en": "Portland International Airport", "name_es": "Aeropuerto Internacional de Portland", "name_fr": "aéroport international de Portland", "name_el": null, "name_hi": null, "name_hu": "Portland nemzetközi repülőtér", "name_id": "Bandar Udara Internasional Portland", "name_it": "Aeroporto Internazionale di Portland", "name_ja": "ポートランド国際空港", "name_ko": null, "name_nl": "internationale luchthaven van Portland", "name_pl": "Port lotniczy Portland", "name_pt": "Aeroporto Internacional de Portland", "name_ru": "Международный аэропорт Портленда", "name_sv": "Portland International Airport", "name_tr": null, "name_vi": "Sân bay quốc tế Portland", "name_zh": "波特兰国际机场", "wdid_score": 4, "ne_id": 1159125755, "id": "PDX", "className": "PDX" }, "geometry": { "type": "Point", "coordinates": [ -122.6, 45.6 ] } },
{ "type": "Feature", "properties": { "scalerank": 4, "featurecla": "Airport", "type": "major", "name": "Tocumen Int'l", "abbrev": "PTY", "location": "terminal", "gps_code": "MPTO", "iata_code": "PTY", "wikipedia": "http:\/\/en.wikipedia.org\/wiki\/Tocumen_International_Airport", "natlscale": 50.0, "comments": null, "wikidataid": "Q1420178", "name_ar": null, "name_bn": null, "name_de": "Flughafen Panama", "name_en": "Tocumen International Airport", "name_es": "Aeropuerto Internacional de Tocumen", "name_fr": "aéroport international de Tocumen", "name_el": null, "name_hi": null, "name_hu": null, "name_id": "Bandar Udara Internasional Tocumen", "name_it": "Aeroporto Internazionale di Tocumen", "name_ja": "トキュメン国際空港", "name_ko": "토쿠멘 국제공항", "name_nl": "Internationale luchthaven Tocumen", "name_pl": "Port lotniczy Panama", "name_pt": "Aeroporto Internacional Tocumen", "name_ru": null, "name_sv": null, "name_tr": "Tocumen Uluslararası Havalimanı", "name_vi": "Sân bay quốc tế Tocumen", "name_zh": "托庫門國際機場", "wdid_score": 4, "ne_id": 1159125843, "id": "PTY", "className": "PTY" }, "geometry": { "type": "Point", "coordinates": [ -79.4, 9.1 ] } },
{ "type": "Feature", "properties": { "scalerank": 4, "featurecla": "Airport", "type": "major", "name": "Mingaladon", "abbrev": "RGN", "location": "terminal", "gps_code": "VYYY", "iata_code": "RGN", "wikipedia": "http:\/\/en.wikipedia.org\/wiki\/Yangon_International_Airport", "natlscale": 50.0, "comments": null, "wikidataid": "Q174764", "name_ar": null, "name_bn": "ইয়াঙ্গুন আন্তর্জাতিক বিমানবন্দর", "name_de": "Rangun International Airport", "name_en": "Yangon International Airport", "name_es": "Aeropuerto Internacional de Rangún", "name_fr": "aéroport international de Yangon", "name_el": null, "name_hi": null, "name_hu": null, "name_id": "Bandar Udara Internasional Yangon", "name_it": "Aeroporto Internazionale di Yangon", "name_ja": "ヤンゴン国際空港", "name_ko": "양곤 국제공항", "name_nl": "Internationale Luchthaven van Rangoon", "name_pl": "Port lotniczy Rangun", "name_pt": null, "name_ru": "Янгон", "name_sv": "Rangoons internationella flygplats", "name_tr": null, "name_vi": "Sân bay quốc tế Yangon", "name_zh": "仰光国际机场", "wdid_score": 4, "ne_id": 1159125883, "id": "RGN", "className": "RGN" }, "geometry": { "type": "Point", "coordinates": [ 96.1, 16.9 ] } },
{ "type": "Feature", "properties": { "scalerank": 4, "featurecla": "Airport", "type": "major", "name": "Riga", "abbrev": "RIX", "location": "terminal", "gps_code": "EVRA", "iata_code": "RIX", "wikipedia": "http:\/\/en.wikipedia.org\/wiki\/Riga_International_Airport", "natlscale": 50.0, "comments": null, "wikidataid": "Q505421", "name_ar": null, "name_bn": null, "name_de": "Flughafen Riga", "name_en": "Riga International Airport", "name_es": "Aeropuerto Internacional de Riga", "name_fr": "aéroport international de Riga", "name_el": null, "name_hi": null, "name_hu": null, "name_id": "Bandar Udara Internasional Riga", "name_it": "Aeroporto Internazionale di Riga", "name_ja": "リガ国際空港", "name_ko": "리가 국제공항", "name_nl": "Luchthaven Riga", "name_pl": "Port lotniczy Ryga", "name_pt": "Aeroporto Internacional de Riga", "name_ru": "Рига", "name_sv": "Riga flygplats", "name_tr": "Riga Uluslararası Havalimanı", "name_vi": "Sân bay quốc tế Riga", "name_zh": "里加国际机场", "wdid_score": 4, "ne_id": 1159125897, "id": "RIX", "className": "RIX" }, "geometry": { "type": "Point", "coordinates": [ 24.0, 56.9 ] } },
{ "type": "Feature", "properties": { "scalerank": 4, "featurecla": "Airport", "type": "major", "name": "Tan Son Nhat", "abbrev": "SGN", "location": "terminal", "gps_code": "VVTS", "iata_code": "SGN", "wikipedia": "http:\/\/en.wikipedia.org\/wiki\/Tan_Son_Nhat_International_Airport", "natlscale": 50.0, "comments": null, "wikidataid": "Q478595", "name_ar": "مطار تان سون نهات الدولي", "name_bn": "হো চি মিন সিটি আন্তর্জাতিক বিমানবন্দর", "name_de": "Flughafen Tan-Son-Nhat", "name_en": "Tan Son Nhat International Airport", "name_es": "Aeropuerto Internacional de Tan Son Nhat", "name_fr": "aéroport international de Tân Sơn Nhất", "name_el": "Αεροδρόμιο Ταν Σον Νιάτ", "name_hi": "हो ची मिन्ह शहर हवाई अड्डे", "name_hu": "Tan Son Nhat nemzetközi repülőtér", "name_id": "Bandar Udara Internasional Tân Sơn Nhất", "name_it": "aeroporto internazionale Tan Son Nhat", "name_ja": "タンソンニャット国際空港", "name_ko": "떤선녓 국제공항", "name_nl": "Internationale Luchthaven Tân Sơn Nhất", "name_pl": "Port lotniczy Tân Sơn Nhất w Ho Chi Minh", "name_pt": "Aeroporto Internacional Tan Son Nhat", "name_ru": "Таншоннят", "name_sv": "Tan Son Nhat internationella flygplats", "name_tr": "Tan Son Nhat Uluslararası Havalimanı", "name_vi": "Sân bay quốc tế Tân Sơn Nhất", "name_zh": "新山一國際機場", "wdid_score": 4, "ne_id": 1159125951, "id": "SGN", "className": "SGN" }, "geometry": { "type": "Point", "coordinates": [ 106.7, 10.8 ] } },
{ "type": "Feature", "properties": { "scalerank": 4, "featurecla": "Airport", "type": "major", "name": "Thessaloniki", "abbrev": "SKG", "location": "terminal", "gps_code": "LGTS", "iata_code": "SKG", "wikipedia": "http:\/\/en.wikipedia.org\/wiki\/Thessaloniki_International_Airport%2C_%22Macedonia%22", "natlscale": 50.0, "comments": null, "wikidataid": "Q127958", "name_ar": null, "name_bn": null, "name_de": "Flughafen Thessaloniki", "name_en": "Thessaloniki International Airport", "name_es": "Aeropuerto Internacional Macedonia", "name_fr": "aéroport international de Thessalonique «Makédonia»", "name_el": "Κρατικός Αερολιμένας Θεσσαλονίκης «Μακεδονία»", "name_hi": null, "name_hu": null, "name_id": "Bandar Udara Internasional Thessaloniki", "name_it": "Aeroporto Internazionale di Salonicco-Macedonia", "name_ja": "テッサロニキ・マケドニア国際空港", "name_ko": null, "name_nl": "Luchthaven Thessaloniki", "name_pl": "Port lotniczy Saloniki-Macedonia", "name_pt": "Aeroporto de Salonica-Macedónia", "name_ru": "Македония", "name_sv": "Thessaloniki flygplats", "name_tr": "Selanik Uluslararası Havalimanı", "name_vi": "Sân bay quốc tế Thessaloniki", "name_zh": "塞萨洛尼基马其顿国际机场", "wdid_score": 4, "ne_id": 1159125965, "id": "SKG", "className": "SKG" }, "geometry": { "type": "Point", "coordinates": [ 23.0, 40.5 ] } },
{ "type": "Feature", "properties": { "scalerank": 4, "featurecla": "Airport", "type": "major", "name": "Vrazhdebna", "abbrev": "SOF", "location": "terminal", "gps_code": "LBSF", "iata_code": "SOF", "wikipedia": "http:\/\/en.wikipedia.org\/wiki\/Sofia_Airport", "natlscale": 50.0, "comments": null, "wikidataid": "Q127951", "name_ar": "مطار صوفيا", "name_bn": "সফিয়া বিমানবন্দর", "name_de": "Flughafen Sofia", "name_en": "Sofia Airport", "name_es": "Aeropuerto de Sofía", "name_fr": "aéroport de Sofia", "name_el": null, "name_hi": null, "name_hu": "Szófiai repülőtér", "name_id": "Bandar Udara Sofia", "name_it": "Aeroporto di Sofia", "name_ja": "ソフィア空港", "name_ko": null, "name_nl": "Luchthaven Sofia", "name_pl": "Port lotniczy Sofia", "name_pt": "Aeroporto de Sófia", "name_ru": "София", "name_sv": "Vrazjdebna", "name_tr": "Sofya Havalimanı", "name_vi": "Sân bay Sofia", "name_zh": "索菲亞機場", "wdid_score": 2, "ne_id": 1159125981, "id": "SOF", "className": "SOF" }, "geometry": { "type": "Point", "coordinates": [ 23.4, 42.7 ] } },
{ "type": "Feature", "properties": { "scalerank": 4, "featurecla": "Airport", "type": "major", "name": "Tirane Rinas", "abbrev": "TIA", "location": "terminal", "gps_code": "LATI", "iata_code": "TIA", "wikipedia": "http:\/\/en.wikipedia.org\/wiki\/Tirana_International_Airport_N%C3%ABn%C3%AB_Tereza", "natlscale": 50.0, "comments": null, "wikidataid": "Q217226", "name_ar": "مطار تيرانا", "name_bn": null, "name_de": "Flughafen Tirana", "name_en": "Tirana International Airport Nënë Tereza", "name_es": "Aeropuerto Internacional Madre Teresa", "name_fr": "aéroport international de Tirana", "name_el": "Διεθνής Αερολιμένας Τιράνων", "name_hi": null, "name_hu": "Teréz anya repülőtér", "name_id": "Bandar Udara Rinas Nënë Tereza", "name_it": "Aeroporto di Tirana", "name_ja": "ティラナ・リナ空港", "name_ko": "너너테레사 티라나 국제공항", "name_nl": "Luchthaven Tirana", "name_pl": "Port lotniczy Rinas", "name_pt": "Aeroporto Internacional de Tirana Madre Teresa", "name_ru": "Тирана", "name_sv": "Tirana internationella flygplats Nënë Tereza", "name_tr": "Tiran Uluslararası Havalimanı", "name_vi": "Sân bay quốc tế Tirana Nënë Tereza", "name_zh": "地拉那特蕾莎修女國際機場", "wdid_score": 4, "ne_id": 1159126075, "id": "TIA", "className": "TIA" }, "geometry": { "type": "Point", "coordinates": [ 19.7, 41.4 ] } },
{ "type": "Feature", "properties": { "scalerank": 4, "featurecla": "Airport", "type": "major", "name": "Ulemiste", "abbrev": "TLL", "location": "terminal", "gps_code": "EETN", "iata_code": "TLL", "wikipedia": "http:\/\/en.wikipedia.org\/wiki\/Tallinn_Airport", "natlscale": 50.0, "comments": null, "wikidataid": "Q630524", "name_ar": null, "name_bn": null, "name_de": "Flughafen Tallinn-Lennart Meri", "name_en": "Tallinn Airport", "name_es": "Aeropuerto de Tallin", "name_fr": "aéroport international de Tallinn", "name_el": null, "name_hi": null, "name_hu": "Tallinni repülőtér", "name_id": "Bandar Udara Tallinn", "name_it": "Aeroporto di Tallinn", "name_ja": "タリン空港", "name_ko": "탈린 공항", "name_nl": "Lennart Meri Tallinn Airport", "name_pl": "Port lotniczy Tallinn", "name_pt": "Aeroporto de Tallinn", "name_ru": "Таллинский аэропорт", "name_sv": "Tallinn flygplats", "name_tr": "Lennart Meri Tallinn Havalimanı", "name_vi": "Sân bay Tallinn", "name_zh": "塔林倫納特·梅里機場", "wdid_score": 4, "ne_id": 1159126123, "id": "TLL", "className": "TLL" }, "geometry": { "type": "Point", "coordinates": [ 24.8, 59.4 ] } },
{ "type": "Feature", "properties": { "scalerank": 4, "featurecla": "Airport", "type": "major", "name": "Ben Gurion", "abbrev": "TLV", "location": "terminal", "gps_code": "LLBG", "iata_code": "TLV", "wikipedia": "http:\/\/en.wikipedia.org\/wiki\/Ben_Gurion_International_Airport", "natlscale": 50.0, "comments": null, "wikidataid": "Q181479", "name_ar": "مطار بن غوريون الدولي", "name_bn": null, "name_de": "Flughafen Ben Gurion", "name_en": "Ben Gurion Airport", "name_es": "Aeropuerto Internacional Ben Gurión", "name_fr": "aéroport international David-Ben-Gourion", "name_el": "Διεθνές Αεροδρόμιο Μπεν Γκουριόν", "name_hi": "बेन गुरियन हवाई अड्डा", "name_hu": "Ben-Gurion nemzetközi repülőtér", "name_id": "Bandar Udara Internasional Ben Gurion", "name_it": "Aeroporto di Tel Aviv-D. Ben Gurion", "name_ja": "ベン・グリオン国際空港", "name_ko": "벤구리온 국제공항", "name_nl": "Luchthaven Ben-Gurion", "name_pl": "Port lotniczy Tel Awiw-Ben Gurion", "name_pt": "Aeroporto Internacional Ben Gurion", "name_ru": "аэропорт имени Бен-Гуриона", "name_sv": "Ben Gurions internationella flygplats", "name_tr": "Ben Gurion Uluslararası Havaalanı", "name_vi": "Sân bay quốc tế Ben Gurion", "name_zh": "本-古里安国际机场", "wdid_score": 4, "ne_id": 1159126131, "id": "TLV", "className": "TLV" }, "geometry": { "type": "Point", "coordinates": [ 34.9, 32.0 ] } },
{ "type": "Feature", "properties": { "scalerank": 4, "featurecla": "Airport", "type": "major", "name": "Vancouver Int'l", "abbrev": "YVR", "location": "terminal", "gps_code": "CYVR", "iata_code": "YVR", "wikipedia": "http:\/\/en.wikipedia.org\/wiki\/Vancouver_International_Airport", "natlscale": 50.0, "comments": null, "wikidataid": "Q321224", "name_ar": "مطار فانكوفر الدولي", "name_bn": null, "name_de": "Vancouver international Airport", "name_en": "Vancouver International Airport", "name_es": "Aeropuerto Internacional de Vancouver", "name_fr": "aéroport international de Vancouver", "name_el": "Διεθνές αεροδρόμιο του Βανκούβερ", "name_hi": "वैंकूवर अन्तरराष्ट्रीय हवाई अड्डा", "name_hu": null, "name_id": "Bandar Udara Internasional Vancouver", "name_it": "Aeroporto Internazionale di Vancouver", "name_ja": "バンクーバー国際空港", "name_ko": "밴쿠버 국제공항", "name_nl": "Vancouver International Airport", "name_pl": "Port lotniczy Vancouver", "name_pt": "Aeroporto Internacional de Vancouver", "name_ru": "Ванкувер", "name_sv": "Vancouver International Airport", "name_tr": null, "name_vi": "Sân bay quốc tế Vancouver", "name_zh": "溫哥華國際機場", "wdid_score": 4, "ne_id": 1159126287, "id": "YVR", "className": "YVR" }, "geometry": { "type": "Point", "coordinates": [ -123.2, 49.2 ] } },
{ "type": "Feature", "properties": { "scalerank": 4, "featurecla": "Airport", "type": "major", "name": "Winnipeg Int'l", "abbrev": "YWG", "location": "terminal", "gps_code": "CYWG", "iata_code": "YWG", "wikipedia": "http:\/\/en.wikipedia.org\/wiki\/Winnipeg_James_Armstrong_Richardson_International_Airport", "natlscale": 50.0, "comments": null, "wikidataid": "Q1323755", "name_ar": null, "name_bn": null, "name_de": "Flughafen Winnipeg", "name_en": "Winnipeg James Armstrong Richardson International Airport", "name_es": "Aeropuerto Internacional James Armstrong Richardson", "name_fr": "aéroport international James Armstrong Richardson de Winnipeg", "name_el": null, "name_hi": null, "name_hu": null, "name_id": "Bandar Udara Internasional Winnipeg", "name_it": "Aeroporto Internazionale di Winnipeg-James Armstrong Richardson", "name_ja": "ウィニペグ・ジェームス・アームストロング・リチャードソン国際空港", "name_ko": null, "name_nl": "Winnipeg James Armstrong Richardson International Airport", "name_pl": "Port lotniczy Winnipeg", "name_pt": "Aeroporto Internacional de Winnipeg James Armstrong Richardson", "name_ru": null, "name_sv": "Winnipeg J. A. Richardson International Airport", "name_tr": null, "name_vi": "Sân bay quốc tế Winnipeg James Armstrong Richardson", "name_zh": "温尼伯詹姆斯·阿姆斯特朗·理查森国际机场", "wdid_score": 2, "ne_id": 1159126307, "id": "YWG", "className": "YWG" }, "geometry": { "type": "Point", "coordinates": [ -97.2, 49.9 ] } },
{ "type": "Feature", "properties": { "scalerank": 4, "featurecla": "Airport", "type": "major", "name": "Calgary Int'l", "abbrev": "YYC", "location": "terminal", "gps_code": "CYYC", "iata_code": "YYC", "wikipedia": "http:\/\/en.wikipedia.org\/wiki\/Calgary_International_Airport", "natlscale": 50.0, "comments": null, "wikidataid": "Q1160343", "name_ar": null, "name_bn": null, "name_de": "Flughafen Calgary", "name_en": "Calgary International Airport", "name_es": "Aeropuerto Internacional de Calgary", "name_fr": "aéroport international de Calgary", "name_el": "Διεθνές αεροδρόμιο του Κάλγκαρι", "name_hi": null, "name_hu": null, "name_id": "Bandar Udara Internasional Calgary", "name_it": "Aeroporto Internazionale di Calgary", "name_ja": "カルガリー国際空港", "name_ko": "캘거리 국제공항", "name_nl": "Calgary International Airport", "name_pl": "Port lotniczy Calgary", "name_pt": "Aeroporto Internacional de Calgary", "name_ru": "Калгари", "name_sv": "Calgary International", "name_tr": null, "name_vi": "Sân bay quốc tế Calgary", "name_zh": "卡尔加里国际机场", "wdid_score": 4, "ne_id": 1159126341, "id": "YYC", "className": "YYC" }, "geometry": { "type": "Point", "coordinates": [ -114.0, 51.1 ] } },
{ "type": "Feature", "properties": { "scalerank": 4, "featurecla": "Airport", "type": "major", "name": "Zagreb", "abbrev": "ZAG", "location": "terminal", "gps_code": "LDZA", "iata_code": "ZAG", "wikipedia": "http:\/\/en.wikipedia.org\/wiki\/Zagreb_Airport", "natlscale": 50.0, "comments": null, "wikidataid": "Q128016", "name_ar": null, "name_bn": null, "name_de": "Flughafen Franjo Tuđman Zagreb", "name_en": "Zagreb Airport", "name_es": "Aeropuerto de Zagreb-Pleso", "name_fr": "aéroport de Zagreb", "name_el": "Αεροδρόμιο του Ζάγκρεμπ", "name_hi": null, "name_hu": "Zágrábi repülőtér", "name_id": "Bandar Udara Zagreb", "name_it": "Aeroporto di Zagabria-Pleso", "name_ja": "ザグレブ国際空港", "name_ko": "자그레브 국제공항", "name_nl": "luchthaven Zagreb", "name_pl": "Port lotniczy Zagrzeb", "name_pt": "Aeroporto Internacional Franjo Tuđman", "name_ru": "Загреб", "name_sv": "Zagrebs flygplats", "name_tr": "Zagreb Havalimanı", "name_vi": "Sân bay Zagreb", "name_zh": "萨格勒布机场", "wdid_score": 4, "ne_id": 1159126409, "id": "ZAG", "className": "ZAG" }, "geometry": { "type": "Point", "coordinates": [ 16.1, 45.7 ] } },
{ "type": "Feature", "properties": { "scalerank": 4, "featurecla": "Airport", "type": "mid", "name": "Zanzibar", "abbrev": "ZNZ", "location": "terminal", "gps_code": "HTZA", "iata_code": "ZNZ", "wikipedia": "http:\/\/en.wikipedia.org\/wiki\/Zanzibar_International_Airport", "natlscale": 50.0, "comments": "???", "wikidataid": "Q1393401", "name_ar": "مطار عبيد أماني كرومي الدولي", "name_bn": null, "name_de": "Flughafen Sansibar", "name_en": "Abeid Amani Karume International Airport", "name_es": "Aeropuerto Internacional de Zanzíbar", "name_fr": "aéroport international de Zanzibar", "name_el": null, "name_hi": null, "name_hu": null, "name_id": "Bandar Udara Internasional Zanzibar", "name_it": null, "name_ja": "アベイド・アマニ・カルメ国際空港", "name_ko": null, "name_nl": "Zanzibar Airport", "name_pl": "Port lotniczy Zanzibar", "name_pt": null, "name_ru": null, "name_sv": null, "name_tr": null, "name_vi": null, "name_zh": "桑吉巴國際機場", "wdid_score": 2, "ne_id": 1159126417, "id": "ZNZ", "className": "ZNZ" }, "geometry": { "type": "Point", "coordinates": [ 39.2, -6.2 ] } },
{ "type": "Feature", "properties": { "scalerank": 4, "featurecla": "Airport", "type": "major", "name": "Kazan Int'l", "abbrev": "KZN", "location": "terminal", "gps_code": "UWKD", "iata_code": "KZN", "wikipedia": "http:\/\/en.wikipedia.org\/wiki\/Kazan_International_Airport", "natlscale": 50.0, "comments": null, "wikidataid": "Q47151", "name_ar": null, "name_bn": null, "name_de": "Flughafen Kasan", "name_en": "Kazan International Airport", "name_es": "Aeropuerto Internacional de Kazán", "name_fr": "aéroport international de Kazan", "name_el": null, "name_hi": null, "name_hu": "Kazáni nemzetközi repülőtér", "name_id": "Bandar Udara Internasional Kazan", "name_it": "aeroporto di Kazan'", "name_ja": "カザン国際空港", "name_ko": null, "name_nl": "Luchthaven Kazan", "name_pl": "Port lotniczy Kazań", "name_pt": "Aeroporto Internacional de Cazã", "name_ru": "Казань", "name_sv": null, "name_tr": "Kazan Uluslararası Havalimanı", "name_vi": "Sân bay quốc tế Kazan", "name_zh": "喀山國際機場", "wdid_score": 4, "ne_id": 1159126457, "id": "KZN", "className": "KZN" }, "geometry": { "type": "Point", "coordinates": [ 49.3, 55.6 ] } },
{ "type": "Feature", "properties": { "scalerank": 4, "featurecla": "Airport", "type": "major", "name": "Narita Int'l", "abbrev": "NRT", "location": "terminal", "gps_code": "RJAA", "iata_code": "NRT", "wikipedia": "http:\/\/en.wikipedia.org\/wiki\/Narita_International_Airport", "natlscale": 50.0, "comments": null, "wikidataid": "Q36454", "name_ar": "مطار ناريتا الدولي", "name_bn": "নারিতা আন্তর্জাতিক বিমানবন্দর", "name_de": "Flughafen Tokio-Narita", "name_en": "Narita International Airport", "name_es": "Aeropuerto Internacional de Narita", "name_fr": "aéroport international de Narita", "name_el": null, "name_hi": "नरिता अन्तर्राष्ट्रीय विमानक्षेत्र", "name_hu": null, "name_id": "Bandar Udara Internasional Narita", "name_it": "Aeroporto Internazionale Narita", "name_ja": "成田国際空港", "name_ko": "나리타 국제공항", "name_nl": "Luchthaven Narita", "name_pl": "Port lotniczy Narita", "name_pt": "Aeroporto Internacional de Narita", "name_ru": "Нарита", "name_sv": "Narita International Airport", "name_tr": "Narita Uluslararası Havalimanı", "name_vi": "Sân bay quốc tế Narita", "name_zh": "成田国际机场", "wdid_score": 4, "ne_id": 1159126505, "id": "NRT", "className": "NRT" }, "geometry": { "type": "Point", "coordinates": [ 140.4, 35.8 ] } },
{ "type": "Feature", "properties": { "scalerank": 4, "featurecla": "Airport", "type": "major", "name": "Chubu Centrair Int'l", "abbrev": "NGO", "location": "terminal", "gps_code": "RJGG", "iata_code": "NGO", "wikipedia": "http:\/\/en.wikipedia.org\/wiki\/Ch%C5%ABbu_Centrair_International_Airport", "natlscale": 50.0, "comments": null, "wikidataid": "Q679345", "name_ar": "مطار تشوبو سنتراير الدولي", "name_bn": null, "name_de": "Flughafen Chūbu", "name_en": "Chubu Centrair International Airport", "name_es": "Aeropuerto Internacional Chūbu Centrair", "name_fr": "aéroport international du Chūbu", "name_el": null, "name_hi": null, "name_hu": "Chubu Centrair nemzetközi repülőtér", "name_id": "Bandar Udara Internasional Centrair Chubu", "name_it": "Aeroporto Internazionale Chūbu Centrair", "name_ja": "中部国際空港", "name_ko": "중부국제공항 센트레어", "name_nl": "Chūbu Centrair International Airport", "name_pl": "Port lotniczy Chūbu", "name_pt": "Aeroporto Internacional de Chubu", "name_ru": "Международный аэропорт Тюбу", "name_sv": "Central Japan International Airport", "name_tr": "Chūbu Centrair Uluslararası Havalimanı", "name_vi": "Sân bay quốc tế Chubu", "name_zh": "中部國際機場", "wdid_score": 4, "ne_id": 1159126523, "id": "NGO", "className": "NGO" }, "geometry": { "type": "Point", "coordinates": [ 136.8, 34.9 ] } },
{ "type": "Feature", "properties": { "scalerank": 4, "featurecla": "Airport", "type": "major", "name": "Bergen Flesland", "abbrev": "BGO", "location": "terminal", "gps_code": "ENBR", "iata_code": "BGO", "wikipedia": "http:\/\/en.wikipedia.org\/wiki\/Bergen_Airport%2C_Flesland", "natlscale": 50.0, "comments": null, "wikidataid": "Q619980", "name_ar": null, "name_bn": null, "name_de": "Flughafen Bergen", "name_en": "Bergen Airport", "name_es": "Aeropuerto de Bergen-Flesland", "name_fr": "aéroport de Bergen", "name_el": null, "name_hi": null, "name_hu": null, "name_id": null, "name_it": "Aeroporto di Bergen-Flesland", "name_ja": "ベルゲン空港", "name_ko": null, "name_nl": "Luchthaven Bergen Flesland", "name_pl": "Port lotniczy Bergen-Flesland", "name_pt": "Aeroporto de Bergen", "name_ru": "Берген", "name_sv": "Bergen flygplats", "name_tr": null, "name_vi": "Sân bay Bergen", "name_zh": "卑爾根機場", "wdid_score": 4, "ne_id": 1159126547, "id": "BGO", "className": "BGO" }, "geometry": { "type": "Point", "coordinates": [ 5.2, 60.3 ] } },
{ "type": "Feature", "properties": { "scalerank": 4, "featurecla": "Airport", "type": "major", "name": "São Paulo-Guarulhos Int'l", "abbrev": "GRU", "location": "terminal", "gps_code": "SBGR", "iata_code": "GRU", "wikipedia": "http:\/\/en.wikipedia.org\/wiki\/S%C3%A3o_Paulo-Guarulhos_International_Airport", "natlscale": 50.0, "comments": null, "wikidataid": "Q385406", "name_ar": "مطار غواروليوس الدولي", "name_bn": null, "name_de": "Flughafen Guarulhos - Governador André Franco Montoro", "name_en": "São Paulo-Guarulhos International Airport", "name_es": "Aeropuerto Internacional de São Paulo-Guarulhos", "name_fr": "aéroport international de Guarulhos", "name_el": null, "name_hi": null, "name_hu": "São Paulo-Guarulhos nemzetközi repülőtér", "name_id": "Bandar Udara Internasional Guarulhos", "name_it": "Aeroporto Internazionale di San Paolo-Guarulhos", "name_ja": "グアルーリョス国際空港", "name_ko": "상파울루 구아룰류스 국제공항", "name_nl": "Internationale Luchthaven São Paulo Guarulhos", "name_pl": "Port lotniczy São Paulo-Guarulhos", "name_pt": "Aeroporto Internacional de São Paulo-Guarulhos", "name_ru": "Гуарульос", "name_sv": "São Paulo-Guarulhos Internationella flygplats", "name_tr": "São Paulo-Guarulhos Uluslararası Havalimanı", "name_vi": "Sân bay quốc tế São Paulo-Guarulhos", "name_zh": "圣保罗\/瓜鲁柳斯－安德烈·弗朗哥·蒙托罗州长国际机场", "wdid_score": 4, "ne_id": 1159126615, "id": "GRU", "className": "GRU" }, "geometry": { "type": "Point", "coordinates": [ -46.5, -23.4 ] } },
{ "type": "Feature", "properties": { "scalerank": 4, "featurecla": "Airport", "type": "major", "name": "Tashkent Int'l", "abbrev": "TAS", "location": "terminal", "gps_code": "UTTT", "iata_code": "TAS", "wikipedia": "http:\/\/en.wikipedia.org\/wiki\/Tashkent_International_Airport", "natlscale": 50.0, "comments": null, "wikidataid": "Q860952", "name_ar": null, "name_bn": null, "name_de": "Flughafen Taschkent", "name_en": "Tashkent International Airport", "name_es": "Aeropuerto Internacional de Taskent", "name_fr": "aéroport international de Tachkent", "name_el": null, "name_hi": null, "name_hu": null, "name_id": "Bandar Udara Internasional Tashkent", "name_it": "Aeroporto Internazionale di Tashkent", "name_ja": "タシュケント国際空港", "name_ko": "타슈켄트 국제공항", "name_nl": "Tashkent International Airport", "name_pl": "Port lotniczy Taszkent", "name_pt": "Aeroporto Internacional de Tashkent", "name_ru": "Ташкент-Южный", "name_sv": null, "name_tr": "Taşkent Uluslararası Havalimanı", "name_vi": "Sân bay Yuzhny", "name_zh": "塔什干国际机场", "wdid_score": 4, "ne_id": 1159126841, "id": "TAS", "className": "TAS" }, "geometry": { "type": "Point", "coordinates": [ 69.3, 41.3 ] } },
{ "type": "Feature", "properties": { "scalerank": 3, "featurecla": "Airport", "type": "major", "name": "Copenhagen", "abbrev": "CPH", "location": "terminal", "gps_code": "EKCH", "iata_code": "CPH", "wikipedia": "http:\/\/en.wikipedia.org\/wiki\/Copenhagen_Airport", "natlscale": 75.0, "comments": null, "wikidataid": "Q206277", "name_ar": "مطار كوبنهاغن", "name_bn": null, "name_de": "Flughafen Kopenhagen-Kastrup", "name_en": "Copenhagen Airport", "name_es": "Aeropuerto de Copenhague-Kastrup", "name_fr": "aéroport de Copenhague", "name_el": null, "name_hi": "कोपनहेगन विमानक्षेत्र", "name_hu": "Koppenhágai repülőtér", "name_id": "Bandar Udara Kopenhagen", "name_it": "aeroporto di Copenaghen", "name_ja": "コペンハーゲン国際空港", "name_ko": "코펜하겐 공항", "name_nl": "Internationale luchthaven Kopenhagen Kastrup", "name_pl": "Port lotniczy Kopenhaga-Kastrup", "name_pt": "Aeroporto de Copenhaga", "name_ru": "Каструп", "name_sv": "Köpenhamns flygplats", "name_tr": "Kopenhag Havalimanı", "name_vi": "Sân bay Copenhagen", "name_zh": "哥本哈根凯斯楚普机场", "wdid_score": 4, "ne_id": 1159126853, "id": "CPH", "className": "CPH" }, "geometry": { "type": "Point", "coordinates": [ 12.6, 55.6 ] } },
{ "type": "Feature", "properties": { "scalerank": 3, "featurecla": "Airport", "type": "mid", "name": "Aeroportul National Bucuresti-Baneasa", "abbrev": "BBU", "location": "terminal", "gps_code": "LRBS", "iata_code": "BBU", "wikipedia": "http:\/\/en.wikipedia.org\/wiki\/Aurel_Vlaicu_International_Airport", "natlscale": 75.0, "comments": null, "wikidataid": "Q843229", "name_ar": "مطار أوريل فلايكو الدولي", "name_bn": null, "name_de": "Flughafen Bukarest-Băneasa", "name_en": "Aurel Vlaicu International Airport", "name_es": "Aeropuerto de Bucarest-Băneasa", "name_fr": "aéroport international Aurel-Vlaicu", "name_el": null, "name_hi": null, "name_hu": "Bukarest-Băneasa – Aurel Vlaicu nemzetközi repülőtér", "name_id": "Bandar Udara Internasional Aurel Vlaicu", "name_it": "Aeroporto di Bucarest-Aurel Vlaicu", "name_ja": "アウレル・ヴライク国際空港", "name_ko": null, "name_nl": "Aurel Vlaicu International Airport", "name_pl": "Port lotniczy Bukareszt-Băneasa", "name_pt": null, "name_ru": "Международный аэропорт Бухарест Бэняса имени Ауреля Влайку", "name_sv": null, "name_tr": null, "name_vi": null, "name_zh": "布加勒斯特伯尼亚萨－奥雷尔·弗拉伊库国际机场", "wdid_score": 4, "ne_id": 1159126867, "id": "BBU", "className": "BBU" }, "geometry": { "type": "Point", "coordinates": [ 26.1, 44.5 ] } },
{ "type": "Feature", "properties": { "scalerank": 3, "featurecla": "Airport", "type": "major", "name": "Ferihegy", "abbrev": "BUD", "location": "terminal", "gps_code": "LHBP", "iata_code": "BUD", "wikipedia": "http:\/\/en.wikipedia.org\/wiki\/Budapest_Ferihegy_International_Airport", "natlscale": 75.0, "comments": null, "wikidataid": "Q500945", "name_ar": "مطار بودابست فرانز ليست الدولي", "name_bn": null, "name_de": "Flughafen Budapest Liszt Ferenc", "name_en": "Budapest Ferenc Liszt International Airport", "name_es": "Aeropuerto de Budapest-Ferenc Liszt", "name_fr": "aéroport international de Budapest-Ferenc Liszt", "name_el": null, "name_hi": "फेरीहेगी हवाई अड्डा", "name_hu": "Budapest Liszt Ferenc nemzetközi repülőtér", "name_id": "Bandar Udara Internasional Ferihegy Budapest", "name_it": "Aeroporto di Budapest-Ferihegy", "name_ja": "リスト・フェレンツ国際空港", "name_ko": "부다페스트 리스트 페렌츠 국제공항", "name_nl": "Luchthaven van Boedapest", "name_pl": "Port lotniczy Budapest Liszt Ferenc", "name_pt": "Aeroporto de Budapeste Ferenc Liszt", "name_ru": "Международный аэропорт имени Ференца Листа", "name_sv": "Budapest-Ferihegy flygplats", "name_tr": null, "name_vi": "Sân bay quốc tế Budapest Ferihegy", "name_zh": "布達佩斯李斯特·費倫茨國際機場", "wdid_score": 4, "ne_id": 1159126881, "id": "BUD", "className": "BUD" }, "geometry": { "type": "Point", "coordinates": [ 19.3, 47.4 ] } },
{ "type": "Feature", "properties": { "scalerank": 3, "featurecla": "Airport", "type": "major", "name": "Dublin", "abbrev": "DUB", "location": "terminal", "gps_code": "EIDW", "iata_code": "DUB", "wikipedia": "http:\/\/en.wikipedia.org\/wiki\/Dublin_Airport", "natlscale": 75.0, "comments": null, "wikidataid": "Q178021", "name_ar": "مطار دبلن الدولي", "name_bn": null, "name_de": "Flughafen Dublin", "name_en": "Dublin Airport", "name_es": "Aeropuerto de Dublín", "name_fr": "aéroport international de Dublin", "name_el": "Διεθνές Αεροδρόμιο Δουβλίνου", "name_hi": null, "name_hu": "Dublini repülőtér", "name_id": "Bandar Udara Dublin", "name_it": "Aeroporto di Dublino", "name_ja": "ダブリン空港", "name_ko": "더블린 공항", "name_nl": "Dublin Airport", "name_pl": "Port lotniczy Dublin", "name_pt": "Aeroporto de Dublin", "name_ru": "Дублинский аэропорт", "name_sv": "Dublin Airport", "name_tr": "Dublin Havalimanı", "name_vi": "Sân bay Dublin", "name_zh": "都柏林机场", "wdid_score": 4, "ne_id": 1159126945, "id": "DUB", "className": "DUB" }, "geometry": { "type": "Point", "coordinates": [ -6.2, 53.4 ] } },
{ "type": "Feature", "properties": { "scalerank": 3, "featurecla": "Airport", "type": "major", "name": "Kuala Lumpur Int'l", "abbrev": "KUL", "location": "terminal", "gps_code": "WMKK", "iata_code": "KUL", "wikipedia": "http:\/\/en.wikipedia.org\/wiki\/Kuala_Lumpur_International_Airport", "natlscale": 75.0, "comments": null, "wikidataid": "Q500253", "name_ar": "مطار كوالالمبور الدولي", "name_bn": "কুয়ালালামপুর আন্তর্জাতিক বিমানবন্দর", "name_de": "Flughafen Kuala Lumpur", "name_en": "Kuala Lumpur International Airport", "name_es": "Aeropuerto Internacional de Kuala Lumpur", "name_fr": "aéroport international de Kuala Lumpur", "name_el": "Διεθνές αεροδρόμιο Κουάλα Λουμπούρ", "name_hi": null, "name_hu": null, "name_id": "Bandar Udara Internasional Kuala Lumpur", "name_it": "Aeroporto Internazionale di Kuala Lumpur", "name_ja": "クアラルンプール国際空港", "name_ko": "쿠알라룸푸르 국제공항", "name_nl": "Kuala Lumpur International Airport", "name_pl": "Port lotniczy Kuala Lumpur", "name_pt": "Aeroporto Internacional de Kuala Lumpur", "name_ru": "Куала-Лумпур", "name_sv": "Kuala Lumpur International Airport", "name_tr": "Kuala Lumpur Uluslararası Havalimanı", "name_vi": "Sân bay quốc tế Kuala Lumpur", "name_zh": "吉隆坡国际机场", "wdid_score": 4, "ne_id": 1159126985, "id": "KUL", "className": "KUL" }, "geometry": { "type": "Point", "coordinates": [ 101.7, 2.7 ] } },
{ "type": "Feature", "properties": { "scalerank": 3, "featurecla": "Airport", "type": "major", "name": "Minneapolis St. Paul Int'l", "abbrev": "MSP", "location": "terminal", "gps_code": "KMSP", "iata_code": "MSP", "wikipedia": "http:\/\/en.wikipedia.org\/wiki\/Minneapolis-Saint_Paul_International_Airport", "natlscale": 75.0, "comments": null, "wikidataid": "Q875749", "name_ar": "مطار مينابوليس-سنت بول الدولي", "name_bn": null, "name_de": "Minneapolis-Saint Paul International Airport", "name_en": "Minneapolis–Saint Paul International Airport", "name_es": "Aeropuerto Internacional de Mineápolis-Saint Paul", "name_fr": "aéroport international de Minneapolis-Saint-Paul", "name_el": null, "name_hi": null, "name_hu": null, "name_id": "Bandar Udara Internasional Minneapolis-Saint Paul", "name_it": "Aeroporto Internazionale di Minneapolis-Saint Paul", "name_ja": "ミネアポリス・セントポール国際空港", "name_ko": "미니애폴리스 세인트폴 국제공항", "name_nl": "Internationale luchthaven Minneapolis-Saint Paul", "name_pl": "Port lotniczy Minneapolis-St. Paul", "name_pt": "Aeroporto Internacional de Minneapolis-Saint Paul", "name_ru": "Международный аэропорт Миннеаполис\/Сент-Пол", "name_sv": "Minneapolis-Saint Paul International Airport", "name_tr": null, "name_vi": "Sân bay quốc tế Minneapolis−Saint Paul", "name_zh": "明尼阿波利斯－圣保罗国际机场", "wdid_score": 4, "ne_id": 1159127027, "id": "MSP", "className": "MSP" }, "geometry": { "type": "Point", "coordinates": [ -93.2, 44.9 ] } },
{ "type": "Feature", "properties": { "scalerank": 3, "featurecla": "Airport", "type": "major", "name": "Franz-Josef-Strauss", "abbrev": "MUC", "location": "terminal", "gps_code": "EDDM", "iata_code": "MUC", "wikipedia": "http:\/\/en.wikipedia.org\/wiki\/Munich_International_Airport", "natlscale": 75.0, "comments": null, "wikidataid": "Q131402", "name_ar": "مطار ميونخ الدولي", "name_bn": "মিউনিখ বিমানবন্দর", "name_de": "Flughafen München", "name_en": "Munich Airport", "name_es": "Aeropuerto Internacional de Múnich-Franz Josef Strauss", "name_fr": "aéroport international Franz-Josef-Strauss de Munich", "name_el": null, "name_hi": null, "name_hu": "Müncheni repülőtér", "name_id": "Bandar Udara München", "name_it": "Aeroporto di Monaco di Baviera", "name_ja": "ミュンヘン国際空港", "name_ko": "뮌헨 국제공항", "name_nl": "Luchthaven München", "name_pl": "Port lotniczy Monachium", "name_pt": "Aeroporto de Munique-Franz Josef Strauss", "name_ru": "Мюнхен", "name_sv": "Flughafen München Franz Josef Strauss", "name_tr": "Münih Franz Josef Strauss Havalimanı", "name_vi": "Sân bay quốc tế München Franz Josef Strauss", "name_zh": "慕尼黑机场", "wdid_score": 4, "ne_id": 1159127035, "id": "MUC", "className": "MUC" }, "geometry": { "type": "Point", "coordinates": [ 11.8, 48.4 ] } },
{ "type": "Feature", "properties": { "scalerank": 3, "featurecla": "Airport", "type": "major", "name": "Okecie Int'l", "abbrev": "WAW", "location": "terminal", "gps_code": "EPWA", "iata_code": "WAW", "wikipedia": "http:\/\/en.wikipedia.org\/wiki\/Warsaw_Frederic_Chopin_Airport", "natlscale": 75.0, "comments": null, "wikidataid": "Q465071", "name_ar": "مطار وارسو فريدريك شوبان", "name_bn": null, "name_de": "Chopin-Flughafen Warschau", "name_en": "Warsaw Chopin Airport", "name_es": "Aeropuerto de Varsovia-Frédéric Chopin", "name_fr": "aéroport de Varsovie-Chopin", "name_el": null, "name_hi": null, "name_hu": "Varsó Chopin repülőtér", "name_id": "Bandar Udara Frédéric Chopin Warsawa", "name_it": "Aeroporto di Varsavia-Chopin", "name_ja": "ワルシャワ・ショパン空港", "name_ko": "바르샤바 쇼팽 공항", "name_nl": "Luchthaven Warschau Frédéric Chopin", "name_pl": "Lotnisko Chopina w Warszawie", "name_pt": "Aeroporto Frédéric Chopin de Varsóvia", "name_ru": "Варшавский аэропорт имени Фредерика Шопена", "name_sv": "Warszawa-Frédéric Chopin-flygplatsen", "name_tr": "Varşova Chopin Havalimanı", "name_vi": "Sân bay Frédéric Chopin Warszawa", "name_zh": "华沙肖邦机场", "wdid_score": 4, "ne_id": 1159127105, "id": "WAW", "className": "WAW" }, "geometry": { "type": "Point", "coordinates": [ 21.0, 52.2 ] } },
{ "type": "Feature", "properties": { "scalerank": 3, "featurecla": "Airport", "type": "major", "name": "Zurich Int'l", "abbrev": "ZRH", "location": "terminal", "gps_code": "LSZH", "iata_code": "ZRH", "wikipedia": "http:\/\/en.wikipedia.org\/wiki\/Z%C3%BCrich_Airport", "natlscale": 75.0, "comments": null, "wikidataid": "Q15114", "name_ar": "مطار زيورخ الدولي", "name_bn": "জুরিখ বিমানবন্দর", "name_de": "Flughafen Zürich", "name_en": "Zurich Airport", "name_es": "Aeropuerto Internacional de Zúrich", "name_fr": "aéroport international de Zurich", "name_el": null, "name_hi": null, "name_hu": "Zürichi repülőtér", "name_id": "Bandar Udara Internasional Zürich", "name_it": "aeroporto di Zurigo", "name_ja": "チューリッヒ空港", "name_ko": "취리히 공항", "name_nl": "Luchthaven Zürich", "name_pl": "Port lotniczy Zurych-Kloten", "name_pt": "Aeroporto de Zurique", "name_ru": "Цюрих", "name_sv": "Zürich flygplats", "name_tr": "Zürih Havalimanı", "name_vi": "Sân bay Zürich", "name_zh": "蘇黎世機場", "wdid_score": 4, "ne_id": 1159127117, "id": "ZRH", "className": "ZRH" }, "geometry": { "type": "Point", "coordinates": [ 8.6, 47.5 ] } },
{ "type": "Feature", "properties": { "scalerank": 3, "featurecla": "Airport", "type": "major", "name": "Barcelona", "abbrev": "BCN", "location": "terminal", "gps_code": "LEBL", "iata_code": "BCN", "wikipedia": "http:\/\/en.wikipedia.org\/wiki\/Barcelona_International_Airport", "natlscale": 75.0, "comments": null, "wikidataid": "Q56973", "name_ar": "مطار برشلونة الدولي", "name_bn": null, "name_de": "Flughafen Barcelona-El Prat", "name_en": "Barcelona–El Prat Airport", "name_es": "Aeropuerto de Barcelona-El Prat", "name_fr": "aéroport international de Barcelone-El Prat", "name_el": null, "name_hi": null, "name_hu": "Barcelonai repülőtér", "name_id": "Bandar Udara Internasional Barcelona", "name_it": "Aeroporto di Barcellona", "name_ja": "バルセロナ・エル・プラット国際空港", "name_ko": "바르셀로나 엘프라트 공항", "name_nl": "Internationale Luchthaven Barcelona", "name_pl": "Port lotniczy Barcelona", "name_pt": "Aeroporto de Barcelona-El Prat", "name_ru": "Барселона — Эль-Прат", "name_sv": "Barcelonas internationella flygplats", "name_tr": "Barcelona Uluslararası Havalimanı", "name_vi": "Sân bay Barcelona", "name_zh": "巴塞罗那机场", "wdid_score": 4, "ne_id": 1159127159, "id": "BCN", "className": "BCN" }, "geometry": { "type": "Point", "coordinates": [ 2.1, 41.3 ] } },
{ "type": "Feature", "properties": { "scalerank": 3, "featurecla": "Airport", "type": "major", "name": "Ruzyn", "abbrev": "PRG", "location": "terminal", "gps_code": "LKPR", "iata_code": "PRG", "wikipedia": "http:\/\/en.wikipedia.org\/wiki\/Ruzyn%C4%9B_International_Airport", "natlscale": 75.0, "comments": null, "wikidataid": "Q99172", "name_ar": "مطار فاكلاف هافيل الدولي", "name_bn": null, "name_de": "Flughafen Prag", "name_en": "Prague Václav Havel Airport", "name_es": "Aeropuerto de Praga", "name_fr": "aéroport de Prague-Václav-Havel", "name_el": "Διεθνής αερολιμένας Πράγας «Βάτσλαβ Χάβελ»", "name_hi": null, "name_hu": "Prága-Václav Havel repülőtér", "name_id": "Bandar Udara Internasional Ruzyně", "name_it": "Aeroporto di Praga-Ruzyně", "name_ja": "ルズィニエ国際空港", "name_ko": "프라하 루지네 국제공항", "name_nl": "Luchthaven Praag-Ruzyně", "name_pl": "Port lotniczy Praga-Ruzyně", "name_pt": "Aeroporto Internacional Ruzyne", "name_ru": "Пражский аэропорт имени Вацлава Гавела", "name_sv": "Václav Havel flygplats Prag", "name_tr": "Václav Havel Havalimanı", "name_vi": "Sân bay quốc tế Ruzyně", "name_zh": "布拉格魯濟涅國際機場", "wdid_score": 4, "ne_id": 1159127171, "id": "PRG", "className": "PRG" }, "geometry": { "type": "Point", "coordinates": [ 14.3, 50.1 ] } },
{ "type": "Feature", "properties": { "scalerank": 2, "featurecla": "Airport", "type": "major", "name": "Schiphol", "abbrev": "AMS", "location": "terminal", "gps_code": "EHAM", "iata_code": "AMS", "wikipedia": "http:\/\/en.wikipedia.org\/wiki\/Amsterdam_Schiphol_Airport", "natlscale": 150.0, "comments": null, "wikidataid": "Q9694", "name_ar": "مطار سخيبول أمستردام", "name_bn": null, "name_de": "Flughafen Schiphol", "name_en": "Amsterdam Airport Schiphol", "name_es": "Aeropuerto de Ámsterdam-Schiphol", "name_fr": "aéroport d'Amsterdam-Schiphol", "name_el": "Διεθνές Αεροδρόμιο Σκίπχολ", "name_hi": "शिफोल हवाई अड्डा", "name_hu": "Schiphol repülőtér", "name_id": "Bandar Udara Internasional Schiphol", "name_it": "aeroporto di Amsterdam-Schiphol", "name_ja": "スキポール空港", "name_ko": "스히폴 국제공항", "name_nl": "Luchthaven Schiphol", "name_pl": "Port lotniczy Amsterdam-Schiphol", "name_pt": "Aeroporto de Amsterdão Schiphol", "name_ru": "Схипхол", "name_sv": "Amsterdam-Schiphol-flygplatsen", "name_tr": "Amsterdam Schiphol Havalimanı", "name_vi": "Sân bay Amsterdam Schiphol", "name_zh": "阿姆斯特丹史基浦機場", "wdid_score": 2, "ne_id": 1159127211, "id": "AMS", "className": "AMS" }, "geometry": { "type": "Point", "coordinates": [ 4.8, 52.3 ] } },
{ "type": "Feature", "properties": { "scalerank": 2, "featurecla": "Airport", "type": "major", "name": "Auckland Int'l", "abbrev": "AKL", "location": "terminal", "gps_code": "NZAA", "iata_code": "AKL", "wikipedia": "http:\/\/en.wikipedia.org\/wiki\/Auckland_International_Airport", "natlscale": 150.0, "comments": null, "wikidataid": "Q45938", "name_ar": "مطار أوكلاند الدولي", "name_bn": null, "name_de": "Flughafen Auckland", "name_en": "Auckland Airport", "name_es": "Aeropuerto Internacional de Auckland", "name_fr": "aéroport d'Auckland", "name_el": null, "name_hi": null, "name_hu": null, "name_id": "Bandar Udara Internasional Auckland", "name_it": "Aeroporto di Auckland", "name_ja": "オークランド国際空港", "name_ko": "오클랜드 국제공항", "name_nl": "Luchthaven van Auckland", "name_pl": "Port lotniczy Auckland", "name_pt": "Aeroporto de Auckland", "name_ru": "Окленд", "name_sv": "Auckland International Airport", "name_tr": "Auckland Havalimanı", "name_vi": "Sân bay Auckland", "name_zh": "奧克蘭機場", "wdid_score": 4, "ne_id": 1159127251, "id": "AKL", "className": "AKL" }, "geometry": { "type": "Point", "coordinates": [ 174.8, -37.0 ] } },
{ "type": "Feature", "properties": { "scalerank": 2, "featurecla": "Airport", "type": "major", "name": "Hartsfield-Jackson Atlanta Int'l", "abbrev": "ATL", "location": "terminal", "gps_code": "KATL", "iata_code": "ATL", "wikipedia": "http:\/\/en.wikipedia.org\/wiki\/Hartsfield-Jackson_Atlanta_International_Airport", "natlscale": 150.0, "comments": null, "wikidataid": "Q214861", "name_ar": "مطار هارتسفيلد جاكسون", "name_bn": "হার্টসফিল্ড-জ্যাকসন আটলান্টা আন্তর্জাতিক বিমানবন্দর", "name_de": "Hartsfield–Jackson Atlanta International Airport", "name_en": "Hartsfield–Jackson Atlanta International Airport", "name_es": "Aeropuerto Internacional Hartsfield-Jackson", "name_fr": "aéroport international Hartsfield-Jackson d'Atlanta", "name_el": null, "name_hi": null, "name_hu": "Hartsfield–Jackson nemzetközi repülőtér", "name_id": "Bandar Udara Internasional Hartsfield–Jackson Atlanta", "name_it": "Aeroporto Internazionale di Atlanta-Hartsfield-Jackson", "name_ja": "ハーツフィールド・ジャクソン・アトランタ国際空港", "name_ko": "하츠필드 잭슨 애틀랜타 국제공항", "name_nl": "Hartsfield-Jackson Atlanta International Airport", "name_pl": "Port lotniczy Atlanta - Hartsfield-Jackson", "name_pt": "Aeroporto Internacional de Atlanta Hartsfield-Jackson", "name_ru": "Международный аэропорт Хартсфилд-Джексон Атланта", "name_sv": "Hartsfield–Jackson Atlanta International Airport", "name_tr": "Atlanta Uluslararası Havalimanı", "name_vi": "Sân bay quốc tế Hartsfield-Jackson Atlanta", "name_zh": "哈茨菲尔德－杰克逊亚特兰大国际机场", "wdid_score": 4, "ne_id": 1159127283, "id": "ATL", "className": "ATL" }, "geometry": { "type": "Point", "coordinates": [ -84.4, 33.6 ] } },
{ "type": "Feature", "properties": { "scalerank": 2, "featurecla": "Airport", "type": "major", "name": "Beijing Capital", "abbrev": "PEK", "location": "terminal", "gps_code": "ZBAA", "iata_code": "PEK", "wikipedia": "http:\/\/en.wikipedia.org\/wiki\/Beijing_Capital_International_Airport", "natlscale": 150.0, "comments": null, "wikidataid": "Q32190", "name_ar": "مطار بكين العاصمة الدولي", "name_bn": "বেইজিং আন্তর্জাতিক বিমানবন্দর", "name_de": "Flughafen Peking", "name_en": "Beijing Capital International Airport", "name_es": "Aeropuerto Internacional de Pekín", "name_fr": "aéroport international de Pékin", "name_el": null, "name_hi": "बेइजिंग कैपिटल अन्तर्राष्ट्रीय विमानक्षेत्र", "name_hu": "Pekingi nemzetközi repülőtér", "name_id": "Bandar Udara Internasional Ibu Kota Beijing", "name_it": "aeroporto internazionale di Pechino-Capital", "name_ja": "北京首都国際空港", "name_ko": "베이징 서우두 국제공항", "name_nl": "Luchthaven Peking Capital", "name_pl": "Port lotniczy Pekin", "name_pt": "Aeroporto Internacional de Pequim", "name_ru": "Шоуду", "name_sv": "Beijing Capital International Airport", "name_tr": "Pekin Havaalanı", "name_vi": "Sân bay quốc tế Thủ Đô Bắc Kinh", "name_zh": "北京首都国际机场", "wdid_score": 4, "ne_id": 1159127293, "id": "PEK", "className": "PEK" }, "geometry": { "type": "Point", "coordinates": [ 116.6, 40.1 ] } },
{ "type": "Feature", "properties": { "scalerank": 2, "featurecla": "Airport", "type": "major", "name": "Eldorado Int'l", "abbrev": "BOG", "location": "terminal", "gps_code": "SKBO", "iata_code": "BOG", "wikipedia": "http:\/\/en.wikipedia.org\/wiki\/El_Dorado_International_Airport", "natlscale": 150.0, "comments": null, "wikidataid": "Q201785", "name_ar": "مطار إلدورادو الدولي", "name_bn": null, "name_de": "Flughafen Bogotá", "name_en": "El Dorado International Airport", "name_es": "Aeropuerto Internacional El Dorado", "name_fr": "aéroport international El Dorado", "name_el": null, "name_hi": null, "name_hu": null, "name_id": "Bandar Udara Internasional El Dorado", "name_it": "Aeroporto di Bogotà-El Dorado", "name_ja": "エルドラド国際空港", "name_ko": "엘도라도 국제공항", "name_nl": "Internationale Luchthaven El Dorado", "name_pl": "Port lotniczy Bogotá-El Dorado", "name_pt": "Aeroporto Internacional El Dorado", "name_ru": "Богота", "name_sv": "El Dorado International Airport", "name_tr": "El Dorado Uluslararası Havalimanı", "name_vi": "Sân bay quốc tế El Dorado", "name_zh": "埃尔多拉多国际机场", "wdid_score": 4, "ne_id": 1159127303, "id": "BOG", "className": "BOG" }, "geometry": { "type": "Point", "coordinates": [ -74.1, 4.7 ] } },
{ "type": "Feature", "properties": { "scalerank": 2, "featurecla": "Airport", "type": "major", "name": "Chhatrapati Shivaji Int'l", "abbrev": "BOM", "location": "terminal", "gps_code": "VABB", "iata_code": "BOM", "wikipedia": "http:\/\/en.wikipedia.org\/wiki\/Chhatrapati_Shivaji_International_Airport", "natlscale": 150.0, "comments": null, "wikidataid": "Q504368", "name_ar": "مطار تشاتراباتي شيفاجي الدولي", "name_bn": "ছত্রপতি শিবাজী আন্তর্জাতিক বিমানবন্দর", "name_de": "Flughafen Mumbai", "name_en": "Chhatrapati Shivaji International Airport", "name_es": "Aeropuerto Internacional Chhatrapati Shivaji", "name_fr": "aéroport international Chhatrapati-Shivaji", "name_el": null, "name_hi": "छत्रपति शिवाजी अंतर्राष्ट्रीय विमानक्षेत्र", "name_hu": null, "name_id": "Bandar Udara Internasional Chhatrapati Shivaji", "name_it": "Aeroporto di Mumbai", "name_ja": "チャットラパティー・シヴァージー国際空港", "name_ko": "차트라파티 시바지 국제공항", "name_nl": "Chhatrapati Shivaji International Airport", "name_pl": "Port lotniczy Chhatrapati Shivaji", "name_pt": "Aeroporto Internacional de Chhatrapati Shivaji", "name_ru": "Международный аэропорт имени Чатрапати Шиваджи", "name_sv": "Chhatrapati Shivaji internationella flygplats", "name_tr": null, "name_vi": "Sân bay quốc tế Chhatrapati Shivaji", "name_zh": "贾特拉帕蒂·希瓦吉国际机场", "wdid_score": 4, "ne_id": 1159127317, "id": "BOM", "className": "BOM" }, "geometry": { "type": "Point", "coordinates": [ 72.9, 19.1 ] } },
{ "type": "Feature", "properties": { "scalerank": 2, "featurecla": "Airport", "type": "major", "name": "Cairo Int'l", "abbrev": "CAI", "location": "terminal", "gps_code": "HECA", "iata_code": "CAI", "wikipedia": "http:\/\/en.wikipedia.org\/wiki\/Cairo_International_Airport", "natlscale": 150.0, "comments": null, "wikidataid": "Q461793", "name_ar": "ميناء القاهرة الجوي", "name_bn": null, "name_de": "Flughafen Kairo", "name_en": "Cairo International Airport", "name_es": "Aeropuerto Internacional de El Cairo", "name_fr": "aéroport international du Caire", "name_el": "Διεθνές Αεροδρόμιο του Καΐρου", "name_hi": null, "name_hu": "Kairói nemzetközi repülőtér", "name_id": "Bandar Udara Internasional Kairo", "name_it": "Aeroporto Internazionale del Cairo", "name_ja": "カイロ国際空港", "name_ko": "카이로 국제공항", "name_nl": "Luchthaven Caïro Internationaal", "name_pl": "Port lotniczy Kair", "name_pt": "Aeroporto Internacional do Cairo", "name_ru": "Каир", "name_sv": "Kairos flygplats", "name_tr": "Kahire Uluslararası Havalimanı", "name_vi": "Sân bay quốc tế Cairo", "name_zh": "開羅國際機場", "wdid_score": 4, "ne_id": 1159127357, "id": "CAI", "className": "CAI" }, "geometry": { "type": "Point", "coordinates": [ 31.4, 30.1 ] } },
{ "type": "Feature", "properties": { "scalerank": 2, "featurecla": "Airport", "type": "major", "name": "Cape Town Int'l", "abbrev": "CPT", "location": "terminal", "gps_code": "FACT", "iata_code": "CPT", "wikipedia": "http:\/\/en.wikipedia.org\/wiki\/Cape_Town_International_Airport", "natlscale": 150.0, "comments": null, "wikidataid": "Q854130", "name_ar": "مطار كيب تاون", "name_bn": null, "name_de": "Flughafen Kapstadt", "name_en": "Cape Town International Airport", "name_es": "Aeropuerto Internacional de la Ciudad del Cabo", "name_fr": "aéroport international du Cap", "name_el": null, "name_hi": "डी० एफ मलान हवाई अड्डा", "name_hu": null, "name_id": "Bandar Udara Internasional Cape Town", "name_it": "Aeroporto internazionale di Città del Capo", "name_ja": "ケープタウン国際空港", "name_ko": "케이프타운 국제공항", "name_nl": "Cape Town International Airport", "name_pl": "Port lotniczy Kapsztad", "name_pt": "Aeroporto Internacional da Cidade do Cabo", "name_ru": "Кейптаун", "name_sv": "Kapstadens internationella flygplats", "name_tr": null, "name_vi": "Sân bay quốc tế Cape Town", "name_zh": "开普敦国际机场", "wdid_score": 4, "ne_id": 1159127391, "id": "CPT", "className": "CPT" }, "geometry": { "type": "Point", "coordinates": [ 18.6, -34.0 ] } },
{ "type": "Feature", "properties": { "scalerank": 2, "featurecla": "Airport", "type": "major", "name": "Chengdushuang Liu", "abbrev": "CTU", "location": "terminal", "gps_code": "ZUUU", "iata_code": "CTU", "wikipedia": "http:\/\/en.wikipedia.org\/wiki\/Chengdu_Shuangliu_International_Airport", "natlscale": 150.0, "comments": null, "wikidataid": "Q387560", "name_ar": "مطار تشنغدو شوانغليو الدولي", "name_bn": null, "name_de": "Flughafen Chengdu", "name_en": "Chengdu Shuangliu International Airport", "name_es": "Aeropuerto internacional de Chengdu", "name_fr": "aéroport international de Chengdu-Shuangliu", "name_el": null, "name_hi": null, "name_hu": null, "name_id": "Bandar Udara Internasional Shuangliu Chengdu", "name_it": "Aeroporto di Chengdu-Shuangliu", "name_ja": "成都双流国際空港", "name_ko": "청두 솽류 국제공항", "name_nl": "Internationale luchthaven Chengdu Shuangliu", "name_pl": "Port lotniczy Chengdu-Shuangliu", "name_pt": "Aeroporto Internacional de Chengdu Shuangliu", "name_ru": "Международный аэропорт Шуанлю", "name_sv": "Chengdu Shuangliu International Airport", "name_tr": null, "name_vi": "Sân bay quốc tế Song Lưu Thành Đô", "name_zh": "成都双流国际机场", "wdid_score": 4, "ne_id": 1159127407, "id": "CTU", "className": "CTU" }, "geometry": { "type": "Point", "coordinates": [ 104.0, 30.6 ] } },
{ "type": "Feature", "properties": { "scalerank": 2, "featurecla": "Airport", "type": "major", "name": "Indira Gandhi Int'l", "abbrev": "DEL", "location": "terminal", "gps_code": "VIDP", "iata_code": "DEL", "wikipedia": "http:\/\/en.wikipedia.org\/wiki\/Indira_Gandhi_International_Airport", "natlscale": 150.0, "comments": null, "wikidataid": "Q821275", "name_ar": "مطار انديرا غاندي الدولي", "name_bn": "ইন্দিরা গান্ধী আন্তর্জাতিক বিমানবন্দর", "name_de": "Indira Gandhi International Airport", "name_en": "Indira Gandhi International Airport", "name_es": "Aeropuerto Internacional Indira Gandhi", "name_fr": "aéroport international Indira-Gandhi", "name_el": null, "name_hi": "इंदिरा गांधी अन्तर्राष्ट्रीय विमानक्षेत्र", "name_hu": null, "name_id": "Bandar Udara Internasional Indira Gandhi", "name_it": "Aeroporto Internazionale Indira Gandhi", "name_ja": "インディラ・ガンディー国際空港", "name_ko": "인디라 간디 국제공항", "name_nl": "Indira Gandhi International Airport", "name_pl": "Port lotniczy Indira Gandhi", "name_pt": "Aeroporto Internacional Indira Gandhi", "name_ru": "Международный аэропорт имени Индиры Ганди", "name_sv": "Indira Gandhi internationella flygplats", "name_tr": null, "name_vi": "Sân bay quốc tế Indira Gandhi", "name_zh": "英迪拉·甘地国际机场", "wdid_score": 4, "ne_id": 1159127419, "id": "DEL", "className": "DEL" }, "geometry": { "type": "Point", "coordinates": [ 77.1, 28.6 ] } },
{ "type": "Feature", "properties": { "scalerank": 2, "featurecla": "Airport", "type": "major", "name": "Denver Int'l", "abbrev": "DEN", "location": "terminal", "gps_code": "KDEN", "iata_code": "DEN", "wikipedia": "http:\/\/en.wikipedia.org\/wiki\/Denver_International_Airport", "natlscale": 150.0, "comments": null, "wikidataid": "Q330015", "name_ar": "مطار دنفر الدولي", "name_bn": "ডেনভার আন্তর্জাতিক বিমানবন্দর", "name_de": "Denver International Airport", "name_en": "Denver International Airport", "name_es": "Aeropuerto Internacional de Denver", "name_fr": "aéroport international de Denver", "name_el": null, "name_hi": null, "name_hu": "Denveri nemzetközi repülőtér", "name_id": "Bandar Udara Internasional Denver", "name_it": "Aeroporto Internazionale di Denver", "name_ja": "デンバー国際空港", "name_ko": "덴버 국제공항", "name_nl": "internationale luchthaven van Denver", "name_pl": "Port lotniczy Denver", "name_pt": "Aeroporto Internacional de Denver", "name_ru": "Денвер", "name_sv": "Denver International Airport", "name_tr": "Denver Uluslararası Havalimanı", "name_vi": "Sân bay quốc tế Denver", "name_zh": "丹佛國際機場", "wdid_score": 4, "ne_id": 1159127425, "id": "DEN", "className": "DEN" }, "geometry": { "type": "Point", "coordinates": [ -104.7, 39.8 ] } },
{ "type": "Feature", "properties": { "scalerank": 2, "featurecla": "Airport", "type": "major", "name": "Don Muang Int'l", "abbrev": "DMK", "location": "terminal", "gps_code": "VTBD", "iata_code": "DMK", "wikipedia": "http:\/\/en.wikipedia.org\/wiki\/Don_Mueang_International_Airport", "natlscale": 150.0, "comments": null, "wikidataid": "Q1046755", "name_ar": "مطار دون موينغ", "name_bn": null, "name_de": "Flughafen Bangkok-Don Mueang", "name_en": "Don Mueang International Airport", "name_es": "Aeropuerto Internacional Don Mueang", "name_fr": "aéroport international Don Muang", "name_el": null, "name_hi": null, "name_hu": null, "name_id": "Bandar Udara Internasional Don Mueang", "name_it": "Aeroporto di Bangkok-Don Muang", "name_ja": "ドンムアン空港", "name_ko": "돈므앙 국제공항", "name_nl": "Internationale Luchthaven Don Mueang", "name_pl": "Port lotniczy Bangkok-Don Muang", "name_pt": "Aeroporto Internacional de Don Mueang", "name_ru": "Дон Мыанг", "name_sv": "Don Mueang internationella flygplats", "name_tr": null, "name_vi": "Sân bay quốc tế Don Mueang", "name_zh": "廊曼国际机场", "wdid_score": 4, "ne_id": 1159127447, "id": "DMK", "className": "DMK" }, "geometry": { "type": "Point", "coordinates": [ 100.6, 13.9 ] } },
{ "type": "Feature", "properties": { "scalerank": 2, "featurecla": "Airport", "type": "major", "name": "Dubai Int'l", "abbrev": "DXB", "location": "terminal", "gps_code": "OMDB", "iata_code": "DXB", "wikipedia": "http:\/\/en.wikipedia.org\/wiki\/Dubai_International_Airport", "natlscale": 150.0, "comments": null, "wikidataid": "Q193439", "name_ar": "مطار دبي الدولي", "name_bn": "দুবাই আন্তর্জাতিক বিমানবন্দর", "name_de": "Flughafen Dubai", "name_en": "Dubai International Airport", "name_es": "Aeropuerto Internacional de Dubái", "name_fr": "aéroport international de Dubaï", "name_el": "Διεθνές Αεροδρόμιο του Ντουμπάι", "name_hi": "दुबई अन्तर्राष्ट्रीय विमानक्षेत्र", "name_hu": "Dubaji nemzetközi repülőtér", "name_id": "Bandar Udara Internasional Dubai", "name_it": "Aeroporto Internazionale di Dubai", "name_ja": "ドバイ国際空港", "name_ko": "두바이 국제공항", "name_nl": "Dubai International Airport", "name_pl": "Port lotniczy Dubaj", "name_pt": "Aeroporto Internacional de Dubai", "name_ru": "Дубай", "name_sv": "Dubai International Airport", "name_tr": "Dubai Uluslararası Havalimanı", "name_vi": "Sân bay quốc tế Dubai", "name_zh": "迪拜国际机场", "wdid_score": 4, "ne_id": 1159127459, "id": "DXB", "className": "DXB" }, "geometry": { "type": "Point", "coordinates": [ 55.4, 25.3 ] } },
{ "type": "Feature", "properties": { "scalerank": 2, "featurecla": "Airport", "type": "major", "name": "Ministro Pistarini Int'l", "abbrev": "EZE", "location": "terminal", "gps_code": "SAEZ", "iata_code": "EZE", "wikipedia": "http:\/\/en.wikipedia.org\/wiki\/Ministro_Pistarini_International_Airport", "natlscale": 150.0, "comments": null, "wikidataid": "Q384788", "name_ar": "مطار الوزير بيستارينيي الدولي", "name_bn": null, "name_de": "Flughafen Buenos Aires-Ezeiza", "name_en": "Ministro Pistarini International Airport", "name_es": "Aeropuerto Internacional Ministro Pistarini", "name_fr": "aéroport international Ezeiza", "name_el": null, "name_hi": "मिनिस्ट्रो पिस्तारिनी हवाई अड्डा", "name_hu": null, "name_id": "Bandar Udara Internasional Ministro Pistarini", "name_it": "Aeroporto di Buenos Aires-Ministro Pistarini", "name_ja": "エセイサ国際空港", "name_ko": "미니스토로 피스타리니 국제공항", "name_nl": "Luchthaven Buenos Aires", "name_pl": "Port lotniczy Buenos Aires-Ezeiza", "name_pt": "Aeroporto Internacional Ministro Pistarini", "name_ru": "Международный аэропорт имени министра Пистарини", "name_sv": "Buenos Aires - Ministro Pistarini International Airport", "name_tr": null, "name_vi": "Sân bay quốc tế Ministro Pistarini", "name_zh": "埃塞萨皮斯塔里尼部长国际机场", "wdid_score": 4, "ne_id": 1159127481, "id": "EZE", "className": "EZE" }, "geometry": { "type": "Point", "coordinates": [ -58.5, -34.8 ] } },
{ "type": "Feature", "properties": { "scalerank": 2, "featurecla": "Airport", "type": "major", "name": "George Bush Intercontinental", "abbrev": "IAH", "location": "terminal", "gps_code": "KIAH", "iata_code": "IAH", "wikipedia": "http:\/\/en.wikipedia.org\/wiki\/George_Bush_Intercontinental_Airport", "natlscale": 150.0, "comments": null, "wikidataid": "Q744748", "name_ar": "مطار جورج بوش الدولي", "name_bn": null, "name_de": "George Bush Intercontinental Airport", "name_en": "George Bush Intercontinental Airport", "name_es": "Aeropuerto Intercontinental George Bush", "name_fr": "aéroport intercontinental George-Bush de Houston", "name_el": null, "name_hi": null, "name_hu": null, "name_id": "Bandar Udara Interkontinental George Bush", "name_it": "Aeroporto Intercontinentale di Houston - George Bush", "name_ja": "ジョージ・ブッシュ・インターコンチネンタル空港", "name_ko": "조지 부시 인터콘티넨털 공항", "name_nl": "George Bush Intercontinental Airport", "name_pl": "Port lotniczy Houston-George Bush", "name_pt": "Aeroporto Intercontinental George Bush", "name_ru": "Хьюстон Интерконтинентал", "name_sv": "George Bush Intercontinental Airport", "name_tr": "George Bush Kıtalararası Havalimanı", "name_vi": "Sân bay liên lục địa George Bush", "name_zh": "喬治·布什洲際機場", "wdid_score": 4, "ne_id": 1159127507, "id": "IAH", "className": "IAH" }, "geometry": { "type": "Point", "coordinates": [ -95.3, 30.0 ] } },
{ "type": "Feature", "properties": { "scalerank": 2, "featurecla": "Airport", "type": "major", "name": "Linate", "abbrev": "LIN", "location": "terminal", "gps_code": "LIML", "iata_code": "LIN", "wikipedia": "http:\/\/en.wikipedia.org\/wiki\/Linate_Airport", "natlscale": 150.0, "comments": null, "wikidataid": "Q828386", "name_ar": "مطار ليناتي", "name_bn": null, "name_de": "Flughafen Mailand-Linate", "name_en": "Linate Airport", "name_es": "Aeropuerto de Milán-Linate", "name_fr": "aéroport de Milan Linate", "name_el": null, "name_hi": null, "name_hu": "Milánó-Linatei repülőtér", "name_id": "Bandar Udara Internasional Linate", "name_it": "aeroporto di Milano-Linate", "name_ja": "ミラノ・リナーテ国際空港", "name_ko": null, "name_nl": "Luchthaven Milaan-Linate", "name_pl": "Port lotniczy Mediolan-Linate", "name_pt": "Aeroporto de Milão-Linate", "name_ru": "Линате", "name_sv": "Milano-Linate flygplats", "name_tr": null, "name_vi": "Sân bay Milano-Linate", "name_zh": "連尼治機場", "wdid_score": 4, "ne_id": 1159127561, "id": "LIN", "className": "LIN" }, "geometry": { "type": "Point", "coordinates": [ 9.3, 45.5 ] } },
{ "type": "Feature", "properties": { "scalerank": 2, "featurecla": "Airport", "type": "major", "name": "Lic Benito Juarez Int'l", "abbrev": "MEX", "location": "terminal", "gps_code": "MMMX", "iata_code": "MEX", "wikipedia": "http:\/\/en.wikipedia.org\/wiki\/Mexico_City_International_Airport", "natlscale": 150.0, "comments": null, "wikidataid": "Q860559", "name_ar": "مطار مكسيكو الدولي", "name_bn": null, "name_de": "Flughafen Mexiko-Stadt", "name_en": "Mexico City International Airport", "name_es": "Aeropuerto Internacional de la Ciudad de México", "name_fr": "aéroport international de Mexico", "name_el": null, "name_hi": null, "name_hu": null, "name_id": "Bandar Udara Internasional Kota Meksiko", "name_it": "Aeroporto Internazionale di Città del Messico", "name_ja": "メキシコ・シティ国際空港", "name_ko": "멕시코시티 국제공항", "name_nl": "Internationale Luchthaven Benito Juárez", "name_pl": "Port lotniczy Meksyk-Benito Juarez", "name_pt": "Aeroporto Internacional da Cidade do México", "name_ru": "Мехико", "name_sv": "Benito Juárez International Airport", "name_tr": null, "name_vi": "Sân bay quốc tế Thành phố Mexico", "name_zh": "墨西哥城贝尼托·胡亚雷斯国际机场", "wdid_score": 4, "ne_id": 1159127585, "id": "MEX", "className": "MEX" }, "geometry": { "type": "Point", "coordinates": [ -99.1, 19.4 ] } },
{ "type": "Feature", "properties": { "scalerank": 2, "featurecla": "Airport", "type": "major", "name": "Ninoy Aquino Int'l", "abbrev": "MNL", "location": "terminal", "gps_code": "RPLL", "iata_code": "MNL", "wikipedia": "http:\/\/en.wikipedia.org\/wiki\/Ninoy_Aquino_International_Airport", "natlscale": 150.0, "comments": null, "wikidataid": "Q86446", "name_ar": "مطار نينوي أكوينو الدولي", "name_bn": null, "name_de": "Ninoy Aquino International Airport", "name_en": "Ninoy Aquino International Airport", "name_es": "Aeropuerto Internacional Ninoy Aquino", "name_fr": "aéroport international Ninoy-Aquino", "name_el": null, "name_hi": "निनॉय एक्विनो अन्तर्राष्ट्रीय विमानक्षेत्र", "name_hu": null, "name_id": "Bandar Udara Internasional Ninoy Aquino", "name_it": "aeroporto Internazionale Ninoy Aquino", "name_ja": "ニノイ・アキノ国際空港", "name_ko": "니노이 아키노 국제공항", "name_nl": "Ninoy Aquino International Airport", "name_pl": "Port lotniczy Manila", "name_pt": "Aeroporto Internacional Ninoy Aquino", "name_ru": "Манила", "name_sv": "Ninoy Aquino International Airport", "name_tr": null, "name_vi": "Sân bay quốc tế Ninoy Aquino", "name_zh": "尼诺伊·阿基诺国际机场", "wdid_score": 4, "ne_id": 1159127591, "id": "MNL", "className": "MNL" }, "geometry": { "type": "Point", "coordinates": [ 121.0, 14.5 ] } },
{ "type": "Feature", "properties": { "scalerank": 2, "featurecla": "Airport", "type": "major", "name": "Honolulu Int'l", "abbrev": "HNL", "location": "terminal", "gps_code": "PHNL", "iata_code": "HNL", "wikipedia": "http:\/\/en.wikipedia.org\/wiki\/Honolulu_International_Airport", "natlscale": 150.0, "comments": null, "wikidataid": "Q531178", "name_ar": "مطار هونولولو الدولي", "name_bn": null, "name_de": "Honolulu International Airport", "name_en": "Honolulu International Airport", "name_es": "Aeropuerto Internacional de Honolulu", "name_fr": "aéroport international d'Honolulu", "name_el": null, "name_hi": null, "name_hu": null, "name_id": "Bandar Udara Internasional Honolulu", "name_it": "Aeroporto Internazionale di Honolulu", "name_ja": "ホノルル国際空港", "name_ko": "호놀룰루 국제공항", "name_nl": "Honolulu International Airport", "name_pl": "Port lotniczy Honolulu", "name_pt": "Aeroporto Internacional de Honolulu", "name_ru": "Гонолулу", "name_sv": "Honolulu International Airport", "name_tr": null, "name_vi": "Sân bay quốc tế Honolulu", "name_zh": "檀香山國際機場", "wdid_score": 4, "ne_id": 1159127617, "id": "HNL", "className": "HNL" }, "geometry": { "type": "Point", "coordinates": [ -157.9, 21.3 ] } },
{ "type": "Feature", "properties": { "scalerank": 2, "featurecla": "Airport", "type": "major", "name": "King Khalid Int'l", "abbrev": "RUH", "location": "terminal", "gps_code": "OERK", "iata_code": "RUH", "wikipedia": "http:\/\/en.wikipedia.org\/wiki\/King_Khalid_International_Airport", "natlscale": 150.0, "comments": null, "wikidataid": "Q47157", "name_ar": "مطار الملك خالد الدولي", "name_bn": null, "name_de": "Flughafen Riad", "name_en": "King Khalid International Airport", "name_es": "Aeropuerto Internacional Rey Khalid", "name_fr": "aéroport international du roi Khaled", "name_el": null, "name_hi": "किंग खालिद हवाई अड्डा", "name_hu": null, "name_id": "Bandar Udara Internasional Raja Khalid", "name_it": "Aeroporto Internazionale di Riyad-King Khalid", "name_ja": "キング・ハーリド国際空港", "name_ko": "킹 칼리드 국제공항", "name_nl": "Luchthaven Riyad", "name_pl": "Port lotniczy Rijad", "name_pt": "Aeroporto Internacional King Khalid", "name_ru": "Король Халид", "name_sv": null, "name_tr": "Kral Halid Uluslararası Havalimanı", "name_vi": "Sân bay quốc tế quốc vương Khalid", "name_zh": "哈立德国王国际机场", "wdid_score": 4, "ne_id": 1159127633, "id": "RUH", "className": "RUH" }, "geometry": { "type": "Point", "coordinates": [ 46.7, 25.0 ] } },
{ "type": "Feature", "properties": { "scalerank": 2, "featurecla": "Airport", "type": "major", "name": "Tacoma Int'l", "abbrev": "SEA", "location": "terminal", "gps_code": "KSEA", "iata_code": "SEA", "wikipedia": "http:\/\/en.wikipedia.org\/wiki\/Seattle-Tacoma_International_Airport", "natlscale": 150.0, "comments": "???", "wikidataid": "Q14295", "name_ar": "مطار سيتال-تاكوما الدولى", "name_bn": null, "name_de": "Flughafen Seattle-Tacoma", "name_en": "Seattle–Tacoma International Airport", "name_es": "Aeropuerto Internacional de Seattle-Tacoma", "name_fr": "aéroport international de Seattle-Tacoma", "name_el": null, "name_hi": null, "name_hu": null, "name_id": "Bandar Udara Internasional Seattle-Tacoma", "name_it": "aeroporto internazionale di Seattle-Tacoma", "name_ja": "シアトル・タコマ国際空港", "name_ko": "시애틀 터코마 국제공항", "name_nl": "Seattle-Tacoma International Airport", "name_pl": "Port lotniczy Seattle-Tacoma", "name_pt": "Aeroporto Internacional de Seattle-Tacoma", "name_ru": "Сиэтл\/Такома", "name_sv": "Seattle–Tacoma International Airport", "name_tr": null, "name_vi": "Sân bay quốc tế Seattle-Tacoma", "name_zh": "西雅圖－塔科馬國際機場", "wdid_score": 2, "ne_id": 1159127655, "id": "SEA", "className": "SEA" }, "geometry": { "type": "Point", "coordinates": [ -122.3, 47.4 ] } },
{ "type": "Feature", "properties": { "scalerank": 2, "featurecla": "Airport", "type": "major", "name": "San Francisco Int'l", "abbrev": "SFO", "location": "terminal", "gps_code": "KSFO", "iata_code": "SFO", "wikipedia": "http:\/\/en.wikipedia.org\/wiki\/San_Francisco_International_Airport", "natlscale": 150.0, "comments": null, "wikidataid": "Q8688", "name_ar": "مطار سان فرانسيسكو الدولي", "name_bn": "সান ফ্রান্সিস্কো আন্তর্জাতিক বিমানবন্দর", "name_de": "San Francisco International Airport", "name_en": "San Francisco International Airport", "name_es": "Aeropuerto Internacional de San Francisco", "name_fr": "aéroport international de San Francisco", "name_el": null, "name_hi": null, "name_hu": "San Franciscó-i nemzetközi repülőtér", "name_id": "Bandar Udara Internasional San Francisco", "name_it": "Aeroporto Internazionale di San Francisco", "name_ja": "サンフランシスコ国際空港", "name_ko": "샌프란시스코 국제공항", "name_nl": "internationale luchthaven van San Francisco", "name_pl": "Port lotniczy San Francisco", "name_pt": "Aeroporto Internacional de São Francisco", "name_ru": "Международный аэропорт Сан-Франциско", "name_sv": "San Francisco International Airport", "name_tr": "San Francisco Uluslararası Havalimanı", "name_vi": "Sân bay quốc tế San Francisco", "name_zh": "舊金山國際機場", "wdid_score": 4, "ne_id": 1159127665, "id": "SFO", "className": "SFO" }, "geometry": { "type": "Point", "coordinates": [ -122.4, 37.6 ] } },
{ "type": "Feature", "properties": { "scalerank": 2, "featurecla": "Airport", "type": "major", "name": "Hongqiao", "abbrev": "SHA", "location": "terminal", "gps_code": "ZSSS", "iata_code": "SHA", "wikipedia": "http:\/\/en.wikipedia.org\/wiki\/Shanghai_Hongqiao_International_Airport", "natlscale": 150.0, "comments": null, "wikidataid": "Q421811", "name_ar": "مطار شانغهاي هونغكياو الدولي", "name_bn": null, "name_de": "Flughafen Shanghai-Hongqiao", "name_en": "Shanghai Hongqiao International Airport", "name_es": "Aeropuerto Internacional Hongqiao", "name_fr": "aéroport international de Shanghai Hongqiao", "name_el": null, "name_hi": null, "name_hu": "Sanghaj Hungcsiao nemzetközi repülőtér", "name_id": "Bandar Udara Internasional Hongqiao Shanghai", "name_it": "Aeroporto Internazionale di Shanghai-Hongqiao", "name_ja": "上海虹橋国際空港", "name_ko": "상하이 훙차오 국제공항", "name_nl": "Luchthaven Shanghai Hongqiao", "name_pl": "Port lotniczy Szanghaj-Hongqiao", "name_pt": "Aeroporto Internacional de Xangai Hongqiao", "name_ru": "Шанхай Хунцяо", "name_sv": "Shanghai Hongqiao International Airport", "name_tr": null, "name_vi": "Sân bay quốc tế Hồng Kiều Thượng Hải", "name_zh": "上海虹桥国际机场", "wdid_score": 4, "ne_id": 1159127677, "id": "SHA", "className": "SHA" }, "geometry": { "type": "Point", "coordinates": [ 121.3, 31.2 ] } },
{ "type": "Feature", "properties": { "scalerank": 2, "featurecla": "Airport", "type": "major", "name": "Sheremtyevo", "abbrev": "SVO", "location": "terminal", "gps_code": "UUEE", "iata_code": "SVO", "wikipedia": "http:\/\/en.wikipedia.org\/wiki\/Sheremetyevo_International_Airport", "natlscale": 150.0, "comments": null, "wikidataid": "Q192733", "name_ar": "مطار شيريميتييفو الدولي", "name_bn": null, "name_de": "Flughafen Moskau-Scheremetjewo", "name_en": "Sheremetyevo International Airport", "name_es": "Aeropuerto Internacional de Moscú-Sheremétievo", "name_fr": "aéroport international Chérémétiévo", "name_el": null, "name_hi": "शेरेमेत्येवो अन्तर्राष्ट्रीय विमानक्षेत्र", "name_hu": "Seremetyjevói nemzetközi repülőtér", "name_id": "Bandar Udara Internasional Sheremetyevo", "name_it": "Aeroporto di Mosca-Šeremet'evo", "name_ja": "シェレメーチエヴォ国際空港", "name_ko": "셰레메티예보 국제공항", "name_nl": "Luchthaven Sjeremetjevo", "name_pl": "Port lotniczy Moskwa-Szeremietiewo", "name_pt": "Aeroporto Internacional Sheremetyevo", "name_ru": "Шереметьево", "name_sv": "Sjeremetievo internationella flygplats", "name_tr": "Şeremetyevo Uluslararası Havalimanı", "name_vi": "Sân bay quốc tế Sheremetyevo", "name_zh": "谢列梅捷沃国际机场", "wdid_score": 4, "ne_id": 1159127689, "id": "SVO", "className": "SVO" }, "geometry": { "type": "Point", "coordinates": [ 37.4, 56.0 ] } },
{ "type": "Feature", "properties": { "scalerank": 2, "featurecla": "Airport", "type": "major", "name": "Vienna Schwechat Int'l", "abbrev": "VIE", "location": "terminal", "gps_code": "LOWW", "iata_code": "VIE", "wikipedia": "http:\/\/en.wikipedia.org\/wiki\/Vienna_International_Airport", "natlscale": 150.0, "comments": null, "wikidataid": "Q32999", "name_ar": "مطار فيينا الدولي", "name_bn": null, "name_de": "Flughafen Wien-Schwechat", "name_en": "Wien-Schwechat Airport", "name_es": "Aeropuerto de Viena-Schwechat", "name_fr": "aéroport de Vienne-Schwechat", "name_el": "Διεθνές Αεροδρόμιο της Βιέννης", "name_hi": "वियना अन्तर्राष्ट्रीय विमानक्षेत्र", "name_hu": "Bécs–Schwechati nemzetközi repülőtér", "name_id": "Bandar Udara Internasional Wina", "name_it": "aeroporto di Vienna - Schwechat", "name_ja": "ウィーン国際空港", "name_ko": "빈 국제공항", "name_nl": "Luchthaven Wenen", "name_pl": "Port lotniczy Wiedeń-Schwechat", "name_pt": "Aeroporto Internacional de Viena", "name_ru": "Вена-Швехат", "name_sv": "Wien-Schwechats flygplats", "name_tr": "Viyana Uluslararası Havalimanı", "name_vi": "Sân bay quốc tế Viên", "name_zh": "維也納國際機場", "wdid_score": 4, "ne_id": 1159127759, "id": "VIE", "className": "VIE" }, "geometry": { "type": "Point", "coordinates": [ 16.6, 48.1 ] } },
{ "type": "Feature", "properties": { "scalerank": 2, "featurecla": "Airport", "type": "major", "name": "Frankfurt Int'l", "abbrev": "FRA", "location": "terminal", "gps_code": "EDDF", "iata_code": "FRA", "wikipedia": "http:\/\/en.wikipedia.org\/wiki\/Frankfurt_Airport", "natlscale": 150.0, "comments": null, "wikidataid": "Q46033", "name_ar": "مطار فرانكفورت", "name_bn": "ফ্রাঙ্কফুর্ট বিমানবন্দর", "name_de": "Flughafen Frankfurt am Main", "name_en": "Frankfurt Airport", "name_es": "aeropuerto de Frankfurt", "name_fr": "aéroport international de Francfort \/ Rhein-Main", "name_el": "Διεθνές Αεροδρόμιο Φρανκφούρτης", "name_hi": "फ़्रैंकफ़र्ट विमानक्षेत्र", "name_hu": "Frankfurti repülőtér", "name_id": "Bandar Udara Internasional Frankfurt", "name_it": "aeroporto di Francoforte sul Meno", "name_ja": "フランクフルト空港", "name_ko": "프랑크푸르트 공항", "name_nl": "Luchthaven Frankfurt am Main", "name_pl": "Port lotniczy Frankfurt", "name_pt": "Aeroporto de Frankfurt", "name_ru": "Франкфурт-на-Майне", "name_sv": "Frankfurt am Mains flygplats", "name_tr": "Frankfurt Havalimanı", "name_vi": "Sân bay quốc tế Frankfurt", "name_zh": "法兰克福机场", "wdid_score": 2, "ne_id": 1159127769, "id": "FRA", "className": "FRA" }, "geometry": { "type": "Point", "coordinates": [ 8.6, 50.1 ] } },
{ "type": "Feature", "properties": { "scalerank": 2, "featurecla": "Airport", "type": "major", "name": "Osaka Int'l", "abbrev": "ITM", "location": "terminal", "gps_code": "RJOO", "iata_code": "ITM", "wikipedia": "http:\/\/en.wikipedia.org\/wiki\/Osaka_International_Airport", "natlscale": 150.0, "comments": null, "wikidataid": "Q1046748", "name_ar": "مطار أوساكا الدولي", "name_bn": null, "name_de": "Flughafen Osaka-Itami", "name_en": "Osaka International Airport", "name_es": "Aeropuerto Internacional de Osaka", "name_fr": "aéroport international d'Osaka", "name_el": null, "name_hi": null, "name_hu": null, "name_id": "Bandar Udara Internasional Osaka", "name_it": "Aeroporto Internazionale di Osaka", "name_ja": "大阪国際空港", "name_ko": "오사카 국제공항", "name_nl": "Osaka International Airport", "name_pl": "Port lotniczy Ōsaka", "name_pt": "Aeroporto Internacional de Osaka", "name_ru": "Международный аэропорт Осака", "name_sv": null, "name_tr": "Osaka Uluslararası Havalimanı", "name_vi": "Sân bay quốc tế Osaka", "name_zh": "大阪國際機場", "wdid_score": 4, "ne_id": 1159127787, "id": "ITM", "className": "ITM" }, "geometry": { "type": "Point", "coordinates": [ 135.4, 34.8 ] } },
{ "type": "Feature", "properties": { "scalerank": 2, "featurecla": "Airport", "type": "major", "name": "Gimpo Int'l", "abbrev": "GMP", "location": "terminal", "gps_code": "RKSS", "iata_code": "GMP", "wikipedia": "http:\/\/en.wikipedia.org\/wiki\/Gimpo_International_Airport", "natlscale": 150.0, "comments": null, "wikidataid": "Q482493", "name_ar": "مطار غيمبو الدولي", "name_bn": null, "name_de": "Flughafen Gimpo", "name_en": "Gimpo International Airport", "name_es": "Aeropuerto Internacional de Gimpo", "name_fr": "aéroport international de Gimpo", "name_el": null, "name_hi": "किम्पो हवाई अड्डा", "name_hu": null, "name_id": "Bandar Udara Internasional Gimpo", "name_it": "Aeroporto Internazionale Gimpo", "name_ja": "金浦国際空港", "name_ko": "김포국제공항", "name_nl": "Gimpo International Airport", "name_pl": "Port lotniczy Seul-Gimpo", "name_pt": "Aeroporto Internacional de Gimpo", "name_ru": "Международный аэропорит Джимпо", "name_sv": "Gimpo Airport", "name_tr": "Gimpo Uluslararası Havalimanı", "name_vi": "Sân bay quốc tế Gimpo", "name_zh": "金浦国际机场", "wdid_score": 4, "ne_id": 1159127799, "id": "GMP", "className": "GMP" }, "geometry": { "type": "Point", "coordinates": [ 126.8, 37.6 ] } },
{ "type": "Feature", "properties": { "scalerank": 2, "featurecla": "Airport", "type": "major", "name": "Oslo Gardermoen", "abbrev": "OSL", "location": "terminal", "gps_code": "ENGM", "iata_code": "OSL", "wikipedia": "http:\/\/en.wikipedia.org\/wiki\/Gardermoen_Air_Station", "natlscale": 150.0, "comments": null, "wikidataid": "Q210559", "name_ar": "مطار أوسلو-غاردرموين", "name_bn": null, "name_de": "Flughafen Oslo-Gardermoen", "name_en": "Oslo Airport", "name_es": "Aeropuerto de Oslo-Gardermoen", "name_fr": "aéroport international d'Oslo-Gardermoen", "name_el": null, "name_hi": null, "name_hu": "Oslo–Gardermoeni repülőtér", "name_id": "Bandar Udara Gardermoen Oslo", "name_it": "Aeroporto di Oslo-Gardermoen", "name_ja": "オスロ空港", "name_ko": "오슬로 가르데르모엔 공항", "name_nl": "Luchthaven Oslo Gardermoen", "name_pl": "Port lotniczy Oslo-Gardermoen", "name_pt": "Aeroporto de Oslo Gardermoen", "name_ru": "Гардермуэн", "name_sv": "Oslo flygplats", "name_tr": "Oslo-Gardermoen Havalimanı", "name_vi": "Sân bay Oslo", "name_zh": "奥斯陆加勒穆恩机场", "wdid_score": 2, "ne_id": 1159127809, "id": "OSL", "className": "OSL" }, "geometry": { "type": "Point", "coordinates": [ 11.1, 60.2 ] } },
{ "type": "Feature", "properties": { "scalerank": 2, "featurecla": "Airport", "type": "major", "name": "Juscelino Kubitschek Int'l", "abbrev": "BSB", "location": "terminal", "gps_code": "SBBR", "iata_code": "BSB", "wikipedia": "http:\/\/en.wikipedia.org\/wiki\/Bras%C3%ADlia_International_Airport", "natlscale": 150.0, "comments": "???", "wikidataid": "Q909488", "name_ar": null, "name_bn": null, "name_de": "Flughafen Presidente Juscelino Kubitschek", "name_en": "Brasília International Airport", "name_es": "Aeropuerto Internacional Presidente Juscelino Kubitschek", "name_fr": "aéroport international Presidente Juscelino Kubitschek", "name_el": null, "name_hi": null, "name_hu": null, "name_id": "Bandar Udara Internasional Presiden Juscelino Kubitschek", "name_it": "Aeroporto internazionale di Brasilia", "name_ja": "プレジデント・ジュセリノ・クビシェッキ国際空港", "name_ko": "브라질리아 국제공항", "name_nl": "Luchthaven Presidente Juscelino Kubitschek", "name_pl": "Port lotniczy Brasília", "name_pt": "Aeroporto Internacional de Brasília", "name_ru": "Международный аэропорт Бразилиа имени Жуселину Кубичека", "name_sv": "Brasília Internationella flygplats", "name_tr": null, "name_vi": "Sân bay quốc tế Brasília", "name_zh": "巴西利亚－儒塞利诺·库比契克总统国际机场", "wdid_score": 2, "ne_id": 1159127817, "id": "BSB", "className": "BSB" }, "geometry": { "type": "Point", "coordinates": [ -47.9, -15.9 ] } },
{ "type": "Feature", "properties": { "scalerank": 2, "featurecla": "Airport", "type": "major", "name": "Rio de Janeiro-Antonio Carlos Jobim Int'l", "abbrev": "GIG", "location": "terminal", "gps_code": "SBGL", "iata_code": "GIG", "wikipedia": "http:\/\/en.wikipedia.org\/wiki\/Rio_de_Janeiro-Gale%C3%A3o_International_Airport", "natlscale": 150.0, "comments": "???", "wikidataid": "Q733998", "name_ar": "مطار ريو دي جانيرو الدولي", "name_bn": null, "name_de": "Flughafen Aeroporto Internacional Do Rio De Janeiro\/galeão – Antonio Carlos Jobim", "name_en": "Rio de Janeiro-Galeão International Airport", "name_es": "Aeropuerto Internacional de Galeão", "name_fr": "aéroport international de Rio de Janeiro-Galeão", "name_el": null, "name_hi": null, "name_hu": "Rio de Janeiro-Galeão Nemzetközi Repülőtér", "name_id": "Bandar Udara Internasional Antonio Carlos Jobim", "name_it": "Aeroporto Internazionale di Rio de Janeiro", "name_ja": "アントニオ・カルロス・ジョビン国際空港", "name_ko": "리우데자네이루 갈레앙 국제공항", "name_nl": "Internationale Luchthaven Antônio Carlos Jobim", "name_pl": "Port lotniczy Rio de Janeiro-Galeão", "name_pt": "Aeroporto Internacional do Rio de Janeiro Tom Jobim\/Galeão", "name_ru": "Галеан", "name_sv": "Galeão International Airport", "name_tr": null, "name_vi": "Sân bay quốc tế Rio de Janeiro-Galeão", "name_zh": "里约热内卢\/加利昂－安东尼奥·卡洛斯·若比姆国际机场", "wdid_score": 2, "ne_id": 1159127839, "id": "GIG", "className": "GIG" }, "geometry": { "type": "Point", "coordinates": [ -43.2, -22.8 ] } },
{ "type": "Feature", "properties": { "scalerank": 2, "featurecla": "Airport", "type": "major", "name": "Madrid Barajas", "abbrev": "MAD", "location": "terminal", "gps_code": "LEMD", "iata_code": "MAD", "wikipedia": "http:\/\/en.wikipedia.org\/wiki\/Madrid_Barajas_International_Airport", "natlscale": 150.0, "comments": null, "wikidataid": "Q166276", "name_ar": "مطار مدريد باراخاس الدولي", "name_bn": null, "name_de": "Flughafen Adolfo Suárez Madrid-Barajas", "name_en": "Adolfo Suárez Madrid–Barajas Airport", "name_es": "Aeropuerto de Adolfo Suárez Madrid-Barajas", "name_fr": "aéroport international de Adolfo Suárez Madrid-Barajas", "name_el": "Διεθνές Αεροδρόμιο Μαδρίτης Μπαράχας", "name_hi": "बाराजास हवाई अड्डा", "name_hu": "Adolfo Suárez Madrid-Barajasi repülőtér", "name_id": "Bandar Udara Internasional Barajas Madrid", "name_it": "Aeroporto di Adolfo Suárez Madrid-Barajas", "name_ja": "マドリード・バラハス国際空港", "name_ko": "마드리드 바라하스 국제공항", "name_nl": "Luchthaven  Adolfo Suárez Madrid-Barajas", "name_pl": "Port lotniczy Madryt-Barajas", "name_pt": "Aeroporto de Adolfo Suárez Madrid-Barajas", "name_ru": "Барахас", "name_sv": "Madrid-Barajas flygplats", "name_tr": "Madrid Barajas Uluslararası Havalimanı", "name_vi": "Sân bay quốc tế Madrid Barajas", "name_zh": "马德里－巴拉哈斯机场", "wdid_score": 4, "ne_id": 1159127851, "id": "MAD", "className": "MAD" }, "geometry": { "type": "Point", "coordinates": [ -3.6, 40.5 ] } },
{ "type": "Feature", "properties": { "scalerank": 2, "featurecla": "Airport", "type": "major", "name": "Arlanda", "abbrev": "ARN", "location": "terminal", "gps_code": "ESSA", "iata_code": "ARN", "wikipedia": "http:\/\/en.wikipedia.org\/wiki\/Stockholm-Arlanda_Airport", "natlscale": 150.0, "comments": null, "wikidataid": "Q223499", "name_ar": "مطار ستوكهولم أرلاندا", "name_bn": "স্টকহোল্ম আর্লান্দা বিমানবন্দর", "name_de": "Flughafen Stockholm-Arlanda", "name_en": "Stockholm Arlanda Airport", "name_es": "Aeropuerto de Estocolmo-Arlanda", "name_fr": "aéroport de Stockholm-Arlanda", "name_el": "Διεθνές Αεροδρόμιο Αρλάντα", "name_hi": null, "name_hu": "Stockholm-Arlanda repülőtér", "name_id": "Bandar Udara Stockholm Arlanda", "name_it": "Aeroporto di Stoccolma-Arlanda", "name_ja": "ストックホルム・アーランダ空港", "name_ko": "스톡홀름 알란다 공항", "name_nl": "Luchthaven Stockholm-Arlanda", "name_pl": "Port lotniczy Sztokholm-Arlanda", "name_pt": "Aeroporto de Arlanda", "name_ru": "Стокгольм-Арланда", "name_sv": "Stockholm Arlanda Airport", "name_tr": "Stockholm-Arlanda Havalimanı", "name_vi": "Sân bay Stockholm-Arlanda", "name_zh": "斯德哥爾摩－阿蘭達機場", "wdid_score": 4, "ne_id": 1159127877, "id": "ARN", "className": "ARN" }, "geometry": { "type": "Point", "coordinates": [ 17.9, 59.7 ] } },
{ "type": "Feature", "properties": { "scalerank": 2, "featurecla": "Airport", "type": "major", "name": "Soekarno-Hatta Int'l", "abbrev": "CGK", "location": "parking", "gps_code": "WIII", "iata_code": "CGK", "wikipedia": "http:\/\/en.wikipedia.org\/wiki\/Soekarno-Hatta_International_Airport", "natlscale": 150.0, "comments": null, "wikidataid": "Q749497", "name_ar": "مطار سوكارنو هاتا الدولي", "name_bn": null, "name_de": "Flughafen Soekarno-Hatta", "name_en": "Soekarno–Hatta International Airport", "name_es": "Aeropuerto Internacional Soekarno-Hatta", "name_fr": "aéroport international de Jakarta", "name_el": null, "name_hi": "सुकानो हात्ता हवाई अड्डा", "name_hu": "Soekarno-Hatta nemzetközi repülőtér", "name_id": "Bandar Udara Internasional Soekarno-Hatta", "name_it": "Aeroporto Internazionale Soekarno-Hatta", "name_ja": "スカルノ・ハッタ国際空港", "name_ko": "수카르노 하타 국제공항", "name_nl": "Internationale luchthaven Soekarno-Hatta", "name_pl": "Port lotniczy Dżakarta-Soekarno-Hatta", "name_pt": "Aeroporto Internacional Soekarno-Hatta", "name_ru": "Сукарно-Хатта", "name_sv": "Soekarno-Hatta International Airport", "name_tr": "Soekarno-Hatta Uluslararası Havalimanı", "name_vi": "Sân bay quốc tế Soekarno-Hatta", "name_zh": "蘇加諾－哈達國際機場", "wdid_score": 4, "ne_id": 1159127891, "id": "CGK", "className": "CGK" }, "geometry": { "type": "Point", "coordinates": [ 106.7, -6.1 ] } },
{ "type": "Feature", "properties": { "scalerank": 2, "featurecla": "Airport", "type": "major", "name": "Eleftherios Venizelos Int'l", "abbrev": "ATH", "location": "terminal", "gps_code": "LGAV", "iata_code": "ATH", "wikipedia": "http:\/\/en.wikipedia.org\/wiki\/Athens_International_Airport", "natlscale": 150.0, "comments": "???", "wikidataid": "Q211734", "name_ar": "مطار أثينا الدولي", "name_bn": "এথেন্স আন্তর্জাতিক বিমানবন্দর", "name_de": "Flughafen Athen-Eleftherios Venizelos", "name_en": "Athens International Airport", "name_es": "Aeropuerto Internacional Eleftherios Venizelos", "name_fr": "aéroport international d'Athènes Elefthérios-Venizélos", "name_el": "Διεθνής Αερολιμένας Αθηνών «Ελευθέριος Βενιζέλος»", "name_hi": null, "name_hu": "Elefthériosz Venizélosz nemzetközi repülőtér", "name_id": "Bandar Udara Internasional Eleftherios Venizelos", "name_it": "Aeroporto Internazionale di Atene", "name_ja": "アテネ国際空港", "name_ko": "아테네 국제공항", "name_nl": "Luchthaven Athene", "name_pl": "Port lotniczy Ateny", "name_pt": "Aeroporto Internacional de Atenas", "name_ru": "Элефтериос Венизелос", "name_sv": "Aten-Elefthérios Venizélos flygplats", "name_tr": "Atina Elefterios Venizelos Uluslararası Havalimanı", "name_vi": "Sân bay quốc tế Athena", "name_zh": "雅典埃莱夫塞里奥斯·韦尼泽洛斯国际机场", "wdid_score": 2, "ne_id": 1159127903, "id": "ATH", "className": "ATH" }, "geometry": { "type": "Point", "coordinates": [ 23.9, 37.9 ] } }
]
}
